Código CNH,Nombre,Comunidad Autónoma,Provincia,Municipio,Dirección,Código Postal,Teléfono,Telefax,Número de camas instaladas,Dependencia Patrimonial,Dependencia Funcional,Finalidad Asistencial,Observaciones,Concierto,Acreditación Docente,lat,lon
380282,HOSPITAL QUIRÓN COSTA ADEJE,CANARIAS,SANTA CRUZ DE TENERIFE,Adeje,URBANIZACIÓN SAN EUGENIO,38660,922752626.0,922796570.0,62.0,PRIVADO NO BENÉFICO,PRIVADO NO BENÉFICO,GENERAL,,NO,NO,28.07443035,-16.72977275555476
260110,CENTRO ASISTENCIAL DE ALBELDA DE IREGUA,LA RIOJA,LA RIOJA,Albelda de Iregua,CRTA. SORIA KM. 8,26120,941279220.0,941279209.0,140.0,COMUNIDAD AUTÓNOMA,SERVICIO RIOJANO DE SALUD,PSIQUIÁTRICO,,NO,NO,,
120160,SERVICIOS SANITARIOS DEL CENTRO PENITENCIARIO DE CASTELLÓN II (ALBOCÀSSER),COMUNIDAD VALENCIANA,CASTELLÓN,Albocàsser,"CALLE ELS MASCARRELLS, S/N",12140,964158500.0,964158536.0,64.0,MINISTERIO DE INTERIOR,ADMINISTRACIÓN PENITENCIARIA,OTRA FINALIDAD,,NO,NO,,
410227,HOSPITAL EL TOMILLAR,ANDALUCÍA,SEVILLA,Alcalá de Guadaíra,"CTRA. ALCALÁ-DOS HERMANAS, KM. 6",41500,955016000.0,955016032.0,0.0,COMUNIDAD AUTÓNOMA,SERVICIO ANDALUZ DE SALUD,GENERAL,,NO,NO,37.29821355,-5.9008417110545235
280745,HOSPITAL UNIVERSITARIO PRÍNCIPE DE ASTURIAS,MADRID,MADRID,Alcalá de Henares,"CTRA. ALCALÁ-MECO, S/N",28805,918878100.0,918801825.0,507.0,SEGURIDAD SOCIAL,SERVICIO MADRILEÑO DE SALUD,GENERAL,,NO,SI,40.51012885,-3.347488080533651
281371,HM VALLES,MADRID,MADRID,Alcalá de Henares,"C/SANTIAGO, 14",28801,917374353.0,912805932.0,20.0,PRIVADO NO BENÉFICO,PRIVADO NO BENÉFICO,OTRA FINALIDAD,,SI,SI,,
230184,HOSPITAL DE ALTA RESOLUCIÓN DE ALCALÁ LA REAL,ANDALUCÍA,JAÉN,Alcalá la Real,"AVDA. IBEROAMÉRICA, S/N",23680,953599008.0,953599058.0,28.0,COMUNIDAD AUTÓNOMA,COMUNIDAD AUTÓNOMA,GENERAL,,NO,NO,37.4542646,-3.9314382856966112
300119,"CLÍNICA MÉDICO-QUIRÚRGICA SAN JOSÉ, S.A.",REGIÓN DE MURCIA,MURCIA,Alcantarilla,"MAESTRA LOLA MESEGUER, S/N",30820,968800600.0,968800347.0,139.0,PRIVADO NO BENÉFICO,PRIVADO NO BENÉFICO,MÉDICO-QUIRÚRGICO,,SI,NO,,
440048,HOSPITAL DE ALCAÑIZ,ARAGÓN,TERUEL,Alcañiz,"DR. REPOLLÉS, 2",44600,978830100.0,978830977.0,131.0,SEGURIDAD SOCIAL,SERVICIO ARAGONÉS DE SALUD-SALUD,GENERAL,,NO,SI,41.050254,-0.1329565
230173,HOSPITAL DE ALTA RESOLUCIÓN DE ALCAUDETE,ANDALUCÍA,JAÉN,Alcaudete,"CAMINO VIEJO DE LA FUENSANTA, 2",23660,953368211.0,953368287.0,16.0,COMUNIDAD AUTÓNOMA,SERVICIO ANDALUZ DE SALUD,GENERAL,,NO,NO,,
130052,HOSPITAL GENERAL LA MANCHA CENTRO,CASTILLA-LA MANCHA,CIUDAD REAL,Alcázar de San Juan,"AVENIDAD DE LA CONSTITUCIÓN, 3",13600,926580500.0,926547700.0,353.0,SEGURIDAD SOCIAL,SERVICIO DE SALUD DE CASTILLA-LA MANCHA-SESCAM,GENERAL,,NO,SI,40.3614274,-2.8541895
281071,HOSPITAL UNIVERSITARIO FUNDACIÓN ALCORCÓN,MADRID,MADRID,Alcorcón,"BUDAPEST, 1",28922,916219400.0,916219902.0,400.0,SEGURIDAD SOCIAL,SERVICIO MADRILEÑO DE SALUD,GENERAL,,NO,SI,,
281124,HOSPITAL QUIRONSALUD SUR,MADRID,MADRID,Alcorcón,"ESTAMBUL, 30",28922,916496600.0,916496604.0,81.0,PRIVADO NO BENÉFICO,PRIVADO NO BENÉFICO,MÉDICO-QUIRÚRGICO,,SI,NO,40.34289695,-3.849272988446331
30089,SANATORIO SAN JORGE S.L.,COMUNIDAD VALENCIANA,ALICANTE,Alcoy/Alcoi,"CALLE OLIVER, 55",3802,965330400.0,965330400.0,26.0,PRIVADO NO BENÉFICO,PRIVADO NO BENÉFICO,GENERAL,,SI,NO,,
30067,HOSPITAL VIRGEN DE LOS LIRIOS,COMUNIDAD VALENCIANA,ALICANTE,Alcoy/Alcoi,"POLÍGONO CARAMAXEL, S/N",3804,965537400.0,965537448.0,305.0,COMUNIDAD AUTÓNOMA,CONSELLERIA DE SANIDAD. G. VALENCIANA,GENERAL,,NO,SI,,
81192,CENTRE SOCIOSANITARI CAN TORRAS,CATALUÑA,BARCELONA,Alella,"CT EL MASNOU A ALELLA, 11",8328,935551994.0,935555559.0,119.0,OTRO PRIVADO BENÉFICO,OTRO PRIVADO-BENÉFICO,GERIATRÍA Y/O LARGA ESTANCIA,,NO,NO,,
110259,HOSPITAL PUNTA DE EUROPA,ANDALUCÍA,CÁDIZ,Algeciras,"CARRETERA DE GETARES, S/N",11207,956025000.0,956025057.0,327.0,COMUNIDAD AUTÓNOMA,SERVICIO ANDALUZ DE SALUD,GENERAL,,NO,SI,37.2053883,-5.3195356
250210,SANT JOAN DE DÉU TERRES DE LLEIDA,CATALUÑA,LLEIDA,Almacelles,"CT N-240, .111",25100,973740010.0,973741193.0,29.0,OTRO PRIVADO BENÉFICO,PRIVADO-BENÉFICO (IGLESIA),PSIQUIÁTRICO,,NO,NO,,
20136,HOSPITAL GENERAL DE ALMANSA,CASTILLA-LA MANCHA,ALBACETE,Almansa,"AVDA. ADOLFO SUÁREZ, S/N",2640,967339526.0,967339546.0,93.0,COMUNIDAD AUTÓNOMA,SERVICIO DE SALUD DE CASTILLA-LA MANCHA-SESCAM,GENERAL,,NO,NO,38.879489050000004,-1.093931250703585
60080,"HOSPITAL ""FUNDACIÓN SAN JUAN DE DIOS DE EXTREMADURA""",EXTREMADURA,BADAJOZ,Almendralejo,"PASEO DE LA PIEDAD, 5",6200,924670017.0,924662805.0,105.0,PRIVADO-BENÉFICO (IGLESIA),PRIVADO-BENÉFICO (IGLESIA),GERIATRÍA Y/O LARGA ESTANCIA,,SI,NO,,
60242,HOSPITAL TIERRA DE BARROS,EXTREMADURA,BADAJOZ,Almendralejo,"CRTA. NAL 630, KM 654,300",6200,924699200.0,924699214.0,0.0,COMUNIDAD AUTÓNOMA,SERVICIO EXTREMEÑO DE SALUD-SES,GENERAL,,NO,NO,38.65578645,-6.376803332984851
250175,RESIDÈNCIA TERRAFERMA,CATALUÑA,LLEIDA,Alpicat,"CR PARTIDA DEL GRAÓ, S/N",25110,973737455.0,973737001.0,137.0,PRIVADO NO BENÉFICO,PRIVADO NO BENÉFICO,GERIATRÍA Y/O LARGA ESTANCIA,,NO,NO,,
310142,CLÍNICA PSICOGERIÁTRICA JOSEFINA ARREGUI,C. FORAL DE NAVARRA,NAVARRA,Altsasu/Alsasua,ERBURU S/N,31800,948563850.0,948563961.0,21.0,OTRO PRIVADO BENÉFICO,OTRO PRIVADO-BENÉFICO,PSIQUIÁTRICO,,SI,NO,42.89870065,-2.1715503458831886
460351,HOSPITAL UNIVERSITARIO DE LA RIBERA,COMUNIDAD VALENCIANA,VALENCIA,Alzira,"CARRETERA DE CORBERA, KM 1",46600,962458100.0,962458159.0,301.0,COMUNIDAD AUTÓNOMA,CONSELLERIA DE SANIDAD. G. VALENCIANA,GENERAL,,NO,SI,39.1594884,-0.41597204697452117
81350,CENTRE POLIVALENT CAN FOSC,CATALUÑA,BARCELONA,"Ametlla del Vallès, L'","CT DE LLERONA, S/N",8480,938432786.0,,56.0,COMUNIDAD AUTÓNOMA,OTRO PRIVADO-BENÉFICO,GERIATRÍA Y/O LARGA ESTANCIA,,NO,NO,,
430252,HOSPITAL COMARCAL D'AMPOSTA,CATALUÑA,TARRAGONA,Amposta,"CR JACINT VERDAGUER, 11",43870,977700050.0,977702894.0,88.0,MUNICIPIO,MUNICIPIO,GENERAL,,,NO,40.7068178,0.5806326
430287,UNITAT POLIVALENT EN SALUT MENTAL D'AMPOSTA,CATALUÑA,TARRAGONA,Amposta,"CR AMÈRICA, 15",43870,977338565.0,,127.0,OTRO PRIVADO BENÉFICO,OTRO PRIVADO-BENÉFICO,PSIQUIÁTRICO,,NO,NO,,
230145,HOSPITAL ALTO GUADALQUIVIR,ANDALUCÍA,JAÉN,Andújar,"AV. BLAS INFANTE, S/N",23740,953021575.0,953021405.0,67.0,COMUNIDAD AUTÓNOMA,SERVICIO ANDALUZ DE SALUD,GENERAL,Empresa Pública,NO,NO,38.04019925,-4.0308082966568906
290154,HOSPITAL DE ANTEQUERA,ANDALUCÍA,MALAGA,Antequera,"AVDA. POETA MUÑOZ ROJAS, S/N",29200,951061008.0,951291009.0,159.0,COMUNIDAD AUTÓNOMA,SERVICIO ANDALUZ DE SALUD,GENERAL,,NO,SI,37.0183652,-4.5596649
90079,HOSPITAL SANTOS REYES,CASTILLA Y LEÓN,BURGOS,Aranda de Duero,"AV. RUPERTA BARAYA, 6",9400,947522000.0,947522012.0,123.0,OTRO PRIVADO BENÉFICO,SANIDAD CASTILLA Y LEÓN-SACYL,GENERAL,,NO,NO,41.66964395,-3.691598144534712
90085,HOSPITAL RESIDENCIA ASISTIDA DE LA LUZ,CASTILLA Y LEÓN,BURGOS,Aranda de Duero,"DURATÓN, 2",9400,947500150.0,947507583.0,75.0,PRIVADO NO BENÉFICO,PRIVADO NO BENÉFICO,GERIATRÍA Y/O LARGA ESTANCIA,,SI,NO,,
281292,HOSPITAL UNIVERSITARIO DEL TAJO,MADRID,MADRID,Aranjuez,"AVDA. AMAZONAS CENTRAL, S/N",28300,918014101.0,918014302.0,98.0,COMUNIDAD AUTÓNOMA,SERVICIO MADRILEÑO DE SALUD,GENERAL,,NO,NO,,
81616,COMUNITAT TERAPÈUTICA ARENYS DE MUNT,CATALUÑA,BARCELONA,Arenys de Munt,CT BARRI ORIENT  26,8358,937938006.0,937951037.0,42.0,PRIVADO NO BENÉFICO,PRIVADO NO BENÉFICO,PSIQUIÁTRICO,,NO,NO,,
50072,HOSPITAL DE SALUD MENTAL CASTA SALUD ARÉVALO,CASTILLA Y LEÓN,ÁVILA,Arévalo,"PASEO SAN JUAN BOSCO, 2",5200,920301400.0,920300951.0,80.0,PRIVADO NO BENÉFICO,PRIVADO NO BENÉFICO,PSIQUIÁTRICO,,SI,NO,,
281281,HOSPITAL UNIVERSITARIO DEL SURESTE,MADRID,MADRID,Arganda del Rey,"RONDA DEL SUR, 10",28500,918394454.0,918394278.0,132.0,COMUNIDAD AUTÓNOMA,SERVICIO MADRILEÑO DE SALUD,GENERAL,,NO,NO,,
81568,ITA MARESME,CATALUÑA,BARCELONA,Argentona,"CR BARÓ DE VIVER, 58",8310,937530062.0,937533288.0,77.0,PRIVADO NO BENÉFICO,PRIVADO NO BENÉFICO,OTROS MONOGRÁFICOS,,NO,NO,41.54705145,2.3992675917026003
82213,CENTRE D'HOSPITALITZACIÓ I HOSPITAL DE DIA TRASTORNS DE LA CONDUCTA,CATALUÑA,BARCELONA,Argentona,"CR CIRÉS, S/N",8310,937533006.0,937533288.0,40.0,PRIVADO NO BENÉFICO,PRIVADO NO BENÉFICO,PSIQUIÁTRICO,,NO,NO,,
380348,HOSPITAL DEL SUR,CANARIAS,SANTA CRUZ DE TENERIFE,Arona,"CARRETERA DE ARONA S/N, EL MOJÓN",38650,922174740.0,922174743.0,0.0,COMUNIDAD AUTÓNOMA,SERVICIO CANARIO DE SALUD,GENERAL,,NO,SI,28.069122450000002,-16.705016866108814
380146,HOSPITEN SUR,CANARIAS,SANTA CRUZ DE TENERIFE,Arona,"SIETE ISLAS, 8 (PLAYA DE LAS AMÉRICAS)",38660,922750022.0,922793618.0,242.0,PRIVADO NO BENÉFICO,PRIVADO NO BENÉFICO,GENERAL,,SI,NO,28.058582450000003,-16.72487357452235
200185,ORGANIZACIÓN SANITARIA INTEGRADA ALTO DEBA,PAÍS VASCO,GUIPÚZCOA,Arrasate/Mondragón,"AVDA. NAVARRA, 16",20500,943035300.0,943035314.0,90.0,COMUNIDAD AUTÓNOMA,SERVICIO VASCO DE SALUD-OSAKIDETZA,GENERAL,,NO,SI,,
200202,HOSPITAL PSIQUIÁTRICO SAN JUAN DE DIOS,PAÍS VASCO,GUIPÚZCOA,Arrasate/Mondragón,"BARRIO GESALIBAR, 14",20509,943793900.0,943770719.0,299.0,PRIVADO-BENÉFICO (IGLESIA),PRIVADO-BENÉFICO (IGLESIA),PSIQUIÁTRICO,,SI,NO,,
200198,HOSPITAL AITA MENNI,PAÍS VASCO,GUIPÚZCOA,Arrasate/Mondragón,"BARRIO GESALIBAR, 15",20509,943794411.0,943796161.0,442.0,PRIVADO-BENÉFICO (IGLESIA),PRIVADO-BENÉFICO (IGLESIA),PSIQUIÁTRICO,,SI,NO,43.0627272,-2.5294037
350249,HOSPITAL INSULAR DE LANZAROTE,CANARIAS,LAS PALMAS,Arrecife,"JUAN DE QUESADA, S/N",35500,928810000.0,928812263.0,80.0,DIPUTACIÓN O CABILDO,DIPUTACIÓN O CABILDO,GERIATRÍA Y/O LARGA ESTANCIA,,SI,SI,28.9635377,-13.543453570997048
350228,HOSPITAL DOCTOR JOSÉ MOLINA OROSA,CANARIAS,LAS PALMAS,Arrecife,"CTRA. ARRECIFE-TINAJO, KM. 1,3",35500,928595103.0,928815034.0,292.0,SEGURIDAD SOCIAL,SERVICIO CANARIO DE SALUD,GENERAL,,NO,SI,,
330100,"HOSPITAL  UNIVERSITARIO ""SAN AGUSTÍN""",PPDO. DE ASTURIAS,ASTURIAS,Avilés,"CAMINO DE HEROS, 6",33401,985123000.0,985123010.0,436.0,SEGURIDAD SOCIAL,SERVICIO DE SALUD DEL PRINCIPADO DE ASTURIAS-SESPA,GENERAL,,NO,SI,40.6192498,-3.152988
330117,FUNDACIÓN HOSPITAL DE AVILÉS,PPDO. DE ASTURIAS,ASTURIAS,Avilés,"CABRUÑANA, 19",33401,985563954.0,985525236.0,90.0,OTRO PRIVADO BENÉFICO,OTRO PRIVADO-BENÉFICO,MÉDICO-QUIRÚRGICO,,SI,NO,43.55461725,-5.926359490561223
80667,HOSPITAL UNIVERSITARI GERMANS TRIAS I PUJOL DE BADALONA,CATALUÑA,BARCELONA,Badalona,"CR CANYET, S/N",8916,934651200.0,934978843.0,516.0,SEGURIDAD SOCIAL,INSTITUTO CATALÁN DE LA SALUD,GENERAL,,,SI,41.4810542,2.2381723732976044
80689,CENTRE SOCIOSANITARI EL CARME,CATALUÑA,BARCELONA,Badalona,"CM SANT JERONI DE LA MURTRA,, 60",8917,935074710.0,934644905.0,210.0,MUNICIPIO,MUNICIPIO,GERIATRÍA Y/O LARGA ESTANCIA,,NO,NO,41.4591142,2.2313871226874964
81694,INSTITUT CATALÀ D'ONCOLOGIA - HOSPITAL GERMANS TRIAS I PUJOL,CATALUÑA,BARCELONA,Badalona,"CT CANYET, S/N",8916,934651200.0,934978843.0,36.0,ENTIDADES PÚBLICAS,OTROS PÚBLICOS,ONCOLÓGICO,,,NO,,
80673,HOSPITAL MUNICIPAL DE BADALONA,CATALUÑA,BARCELONA,Badalona,"VI AUGUSTA,, 9",8911,934648300.0,934648391.0,140.0,MUNICIPIO,MUNICIPIO,GENERAL,,,SI,,
80333,INSTITUT GUTTMANN,CATALUÑA,BARCELONA,Badalona,"CM CAN RUTI, S/N",8916,934977700.0,934977707.0,152.0,OTRO PRIVADO BENÉFICO,OTRO PRIVADO-BENÉFICO,TRAUMATOLOGÍA Y/O REHABILITACIÓN,,,NO,41.478879000000006,2.2369953546302686
250169,HESTIA BALAGUER.,CATALUÑA,LLEIDA,Balaguer,"CR GREGORI GALLEGO, 22-28",25600,973450304.0,973451321.0,120.0,PRIVADO NO BENÉFICO,PRIVADO NO BENÉFICO,GERIATRÍA Y/O LARGA ESTANCIA,,NO,NO,41.78901315,0.8197268915156748
170097,CLÍNICA SALUS INFIRMORUM,CATALUÑA,GIRONA,Banyoles,"PS MOSSÈN LLUÍS CONSTANS, 130",17820,972570208.0,972573202.0,100.0,PRIVADO-BENÉFICO (IGLESIA),PRIVADO-BENÉFICO (IGLESIA),GERIATRÍA Y/O LARGA ESTANCIA,,,NO,42.114773850000006,2.7609439325545218
480176,HOSPITAL UNIVERSITARIO DE CRUCES,PAÍS VASCO,VIZCAYA,Barakaldo,"PZA DE CRUCES, 12",48903,946006000.0,946006067.0,912.0,SEGURIDAD SOCIAL,SERVICIO VASCO DE SALUD-OSAKIDETZA,GENERAL,,NO,SI,43.2824977,-2.98431169940688
480182,OSI BARAKALDO-SESTAO,PAÍS VASCO,VIZCAYA,Barakaldo,"AV. ANTONIO MIRANDA, 5",48902,944006700.0,944006727.0,128.0,SEGURIDAD SOCIAL,SERVICIO VASCO DE SALUD-OSAKIDETZA,GENERAL,,NO,SI,,
320034,HOSPITAL SANTO CRISTO DE PIÑOR (PSIQUIATRICO),GALICIA,OURENSE,Barbadás,"ESTRADA DE PIÑOR, S/N",32930,988385500.0,988385551.0,0.0,ENTIDADES PÚBLICAS,SERVICIO GALLEGO DE SALUD-SERGAS,GENERAL,,NO,SI,,
220054,HOSPITAL DE BARBASTRO,ARAGÓN,HUESCA,Barbastro,"CTRA. NACIONAL 240, S/N",22300,974249000.0,974249074.0,172.0,SEGURIDAD SOCIAL,SERVICIO ARAGONÉS DE SALUD-SALUD,GENERAL,,NO,NO,42.035291,0.1273884
320126,HOSPITAL DE VALDEORRAS (*),GALICIA,OURENSE,"Barco de Valdeorras, O","CONDE DE FENOSA, 50",32300,988339000.0,988339064.0,100.0,SEGURIDAD SOCIAL,SERVICIO GALLEGO DE SALUD-SERGAS,GENERAL,RM compartida (3 unidades móviles RM),NO,NO,42.34834155,-6.965998212216206
110282,HOSPITAL QUIRÓN CAMPO DE GIBRALTAR,ANDALUCÍA,CÁDIZ,"Barrios, Los","PARQUE EMPRESARIAL \""LAS MARISMAS DE PALMONES\"," EDIFICIO ARTTYSUR""",11379.0,956798301.0,,64,PRIVADO NO BENÉFICO,PRIVADO NO BENÉFICO,GENERAL,,NO,36.1851682,-5.431207982008857
180093,HOSPITAL DE BAZA,ANDALUCÍA,GRANADA,Baza,"CTRA. DE MURCIA, KM. 1,6",18800,958031303.0,958031392.0,117.0,COMUNIDAD AUTÓNOMA,SERVICIO ANDALUZ DE SALUD,GENERAL,,NO,SI,37.4888637,-2.7709805
310109,CENTRO HOSPITALARIO BENITO MENNI,C. FORAL DE NAVARRA,NAVARRA,Baztan,"MENDINUETA, S/N.",31700,948452162.0,948452478.0,148.0,PRIVADO-BENÉFICO (IGLESIA),PRIVADO-BENÉFICO (IGLESIA),PSIQUIÁTRICO,,SI,NO,41.62779285,-4.722582926373626
290427,HOSPITAL DE ALTA RESOLUCIÓN DE BENALMÁDENA,ANDALUCÍA,MALAGA,Benalmádena,"AVDA. ARROYO HONDO, S/N",29630,951976000.0,951976093.0,46.0,COMUNIDAD AUTÓNOMA,SERVICIO ANDALUZ DE SALUD,GENERAL,,NO,NO,,
290405,XANIT HOSPITAL INTERNACIONAL,ANDALUCÍA,MALAGA,Benalmádena,"AVDA. DE LOS ARGONAUTAS, S/N (ARROYO DE LA MIEL-BENALMÁDENA COSTA)",29630,952443119.0,952576661.0,125.0,PRIVADO NO BENÉFICO,PRIVADO NO BENÉFICO,GENERAL,,NO,NO,,
290393,FUNDACIÓN CUDECA. CENTRO DE CUIDADOS PALIATIVOS,ANDALUCÍA,MALAGA,Benalmádena,"AVDA. DEL COSMOS, S/N (ARROYO DE LA MIEL-BENALMÁDENA COSTA)",29631,952564910.0,952564922.0,15.0,PRIVADO NO BENÉFICO,PRIVADO NO BENÉFICO,OTROS MONOGRÁFICOS,,NO,NO,,
490065,HOSPITAL DE BENAVENTE,CASTILLA Y LEÓN,ZAMORA,Benavente,"LUISA MOZO, 6",49600,980631900.0,980630105.0,0.0,COMUNIDAD AUTÓNOMA,SANIDAD CASTILLA Y LEÓN-SACYL,GENERAL,,SI,NO,42.0032862,-5.6738595
30279,CENTRO MÉDICO ACUARIO,COMUNIDAD VALENCIANA,ALICANTE,Beniarbeig,"AVENIDA DEL VERGEL, 11",3778,966476260.0,966477115.0,19.0,PRIVADO NO BENÉFICO,PRIVADO NO BENÉFICO,GENERAL,,NO,NO,,
30092,HOSPITAL CLÍNICA BENIDORM,COMUNIDAD VALENCIANA,ALICANTE,Benidorm,"AVENIDA ALFONSO PUCHADES, 8",3501,965853850.0,965864345.0,166.0,PRIVADO NO BENÉFICO,PRIVADO NO BENÉFICO,GENERAL,,SI,SI,38.543056,-0.12930062356423858
80692,HOSPITAL COMARCAL DE SANT BERNABÉ,CATALUÑA,BARCELONA,Berga,"CT DE RIBES, S/N",8600,938243400.0,938243416.0,150.0,ENTIDADES PÚBLICAS,PRIVADO NO BENÉFICO,GENERAL,,,NO,,
480195,RED DE SALUD MENTAL DE BIZKAIA (HOSPITAL DE BERMEO),PAÍS VASCO,VIZCAYA,Bermeo,"TOMPOI BIDEA, S/N",48370,946029000.0,946029020.0,131.0,COMUNIDAD AUTÓNOMA,SERVICIO VASCO DE SALUD-OSAKIDETZA,PSIQUIÁTRICO,,NO,SI,,
460168,HOSPITAL PSIQUIÁTRICO PROVINCIAL,COMUNIDAD VALENCIANA,VALENCIA,Bétera,"CARRETERA BURJASSOT - TORRES TORRES, KM 9",46117,961699080.0,961699052.0,80.0,DIPUTACIÓN O CABILDO,DIPUTACIÓN O CABILDO,PSIQUIÁTRICO,,NO,NO,,
170101,HOSPITAL DE SANT JAUME,CATALUÑA,GIRONA,Blanes,"CR JAUME ARCELOS, 1",17300,972331550.0,972333679.0,23.0,OTRO PRIVADO BENÉFICO,OTROS PÚBLICOS,GERIATRÍA Y/O LARGA ESTANCIA,,NO,NO,42.1872302,2.0242654013144588
170237,HOSPITAL COMARCAL DE BLANES,CATALUÑA,GIRONA,Blanes,"CT ACCÉS CALA SANT FRANCESC, 5",17300,972353264.0,972353343.0,121.0,ENTIDADES PÚBLICAS,OTROS PÚBLICOS,GENERAL,,,NO,,
281090,HOSPITAL UNIVERSITARIO HM  MONTEPRÍNCIPE,MADRID,MADRID,Boadilla del Monte,"AV. MONTEPRÍNCIPE, 25",28660,917089900.0,912110118.0,170.0,PRIVADO NO BENÉFICO,PRIVADO NO BENÉFICO,GENERAL,,SI,SI,,
410212,RESIDENCIA DE SALUD MENTAL NUESTRA SEÑORA DEL CARMEN,ANDALUCÍA,SEVILLA,Bormujos,"AV. RIO PUDIO, S/N",41930,955723391.0,954905674.0,54.0,PRIVADO NO BENÉFICO,PRIVADO NO BENÉFICO,PSIQUIÁTRICO,,NO,NO,,
410353,HOSPITAL SAN JUAN DE DIOS DEL ALJARAFE,ANDALUCÍA,SEVILLA,Bormujos,"AVDA. SAN JUAN DE DIOS, S/N",41930,955050550.0,955059162.0,200.0,PRIVADO-BENÉFICO (IGLESIA),SERVICIO ANDALUZ DE SALUD,GENERAL,,SI,SI,,
380316,HOSPITAL GENERAL DE LA PALMA,CANARIAS,SANTA CRUZ DE TENERIFE,Breña Alta,"CARRETERA LA CUMBRE, 28. BUENAVISTA DE ARRIBA",38713,922185000.0,922185084.0,198.0,COMUNIDAD AUTÓNOMA,SERVICIO CANARIO DE SALUD,GENERAL,,NO,SI,28.6726357,-17.790392194539308
281180,HOSPITAL LOS MADROÑOS,MADRID,MADRID,Brunete,"CRTRA. M-501 KM 17,900 (VÍA DE SERVICIO)",28690,918163526.0,918159728.0,53.0,PRIVADO NO BENÉFICO,PRIVADO NO BENÉFICO,GENERAL,,SI,NO,36.7727255,-3.6230213
70162,HOSPITAL JOAN MARCH,ILLES BALEARS,ILLES BALEARS,Bunyola,CTRA. PALMA-SÓLLER KM. 12,7110,871202000.0,871202497.0,106.0,COMUNIDAD AUTÓNOMA,COMUNIDAD AUTÓNOMA,GERIATRÍA Y/O LARGA ESTANCIA,,SI,SI,39.67882475,2.6883094554984575
270095,HOSPITAL PUBLICO DA MARIÑA (*),GALICIA,LUGO,Burela,"MEDICO VIOR, S/N",27880,982589901.0,982589908.0,139.0,SEGURIDAD SOCIAL,SERVICIO GALLEGO DE SALUD-SERGAS,GENERAL,RM compartida (3 unidades móviles RM),NO,NO,,
460404,IMED VALENCIA,COMUNIDAD VALENCIANA,VALENCIA,Burjassot,"CALLE FERROCARRIL, 57",46100,963003003.0,966263079.0,207.0,PRIVADO NO BENÉFICO,PRIVADO NO BENÉFICO,GENERAL,,SI,NO,38.28806295,-0.6163641948075638
140116,HOSPITAL INFANTA MARGARITA,ANDALUCÍA,CÓRDOBA,Cabra,"AV. DE GÓNGORA, S/N",14940,957021300.0,957021322.0,232.0,COMUNIDAD AUTÓNOMA,SERVICIO ANDALUZ DE SALUD,GENERAL,,NO,SI,37.4685126,-4.4246365
100015,HOSPITAL SAN PEDRO DE ALCÁNTARA,EXTREMADURA,CÁCERES,Cáceres,"AV. PABLO NARANJO, S/N",10003,927256200.0,927256202.0,0.0,COMUNIDAD AUTÓNOMA,SERVICIO EXTREMEÑO DE SALUD-SES,GENERAL,,NO,SI,39.46554175,-6.368229221078827
100020,HOSPITAL PROVINCIAL NUESTRA SEÑORA DE LA MONTAÑA,EXTREMADURA,CÁCERES,Cáceres,"AV. DE ESPAÑA, S/N",10001,927256800.0,927256816.0,0.0,COMUNIDAD AUTÓNOMA,SERVICIO EXTREMEÑO DE SALUD-SES,GENERAL,,NO,SI,,
260099,FUNDACIÓN HOSPITAL CALAHORRA,LA RIOJA,LA RIOJA,Calahorra,"CTRA. LOGROÑO, S/N",26500,941151003.0,941151103.0,80.0,SEGURIDAD SOCIAL,SERVICIO RIOJANO DE SALUD,GENERAL,Fundación Pública,SI,NO,37.8756267,-4.7765896854308405
260132,CENTRO  SOCIOSANITARIO  DE CONVALECENCIA NUESTRA SEÑORA VIRGEN DEL CARMEN,LA RIOJA,LA RIOJA,Calahorra,SANTIAGO RAMÓN Y CAJAL S/N,26500,941010000.0,941010001.0,75.0,COMUNIDAD AUTÓNOMA,PRIVADO NO BENÉFICO,GERIATRÍA Y/O LARGA ESTANCIA,,NO,NO,,
500153,HOSPITAL ERNEST LLUCH MARTIN,ARAGÓN,ZARAGOZA,Calatayud,"CTRA. DE SAGUNTO-BURGOS, KM. 254",50300,976880964.0,976880470.0,122.0,SEGURIDAD SOCIAL,SERVICIO ARAGONÉS DE SALUD-SALUD,GENERAL,,NO,SI,41.3843547,2.1019053154910337
81311,RESIDÈNCIA SANTA SUSANNA,CATALUÑA,BARCELONA,Caldes de Montbui,"CR FONT I BOET, 16",8140,938654994.0,938653619.0,64.0,OTRO PRIVADO BENÉFICO,OTRO PRIVADO-BENÉFICO,GERIATRÍA Y/O LARGA ESTANCIA,,NO,NO,,
80706,HOSPITAL COMARCAL SANT JAUME DE CALELLA,CATALUÑA,BARCELONA,Calella,"CR SANT JAUME, 209-217",8370,937690201.0,937694411.0,233.0,MUNICIPIO,OTROS PÚBLICOS,GENERAL,,,SI,41.6150516,2.6566914851021
170118,HOSPITAL DE CAMPDEVÀNOL,CATALUÑA,GIRONA,Campdevànol,"CT DE GOMBREN, 20",17530,972730028.0,972730223.0,80.0,OTRO PRIVADO BENÉFICO,OTRO PRIVADO-BENÉFICO,GENERAL,,,NO,42.2226507,2.1669298850342122
330138,HOSPITAL CARMEN Y SEVERO OCHOA,PPDO. DE ASTURIAS,ASTURIAS,Cangas del Narcea,"SIENRA, 11",33800,985812346.0,985812236.0,103.0,SEGURIDAD SOCIAL,SERVICIO DE SALUD DEL PRINCIPADO DE ASTURIAS-SESPA,GENERAL,,NO,NO,28.9552185,-13.6497698
300130,CLÍNICA DOCTOR BERNAL S.L.,REGIÓN DE MURCIA,MURCIA,Caravaca de la Cruz,"DR. ROBLES, S/N",30400,968705541.0,968707914.0,39.0,PRIVADO NO BENÉFICO,PRIVADO NO BENÉFICO,GERIATRÍA Y/O LARGA ESTANCIA,,SI,NO,,
300124,HOSPITAL COMARCAL DEL NOROESTE,REGIÓN DE MURCIA,MURCIA,Caravaca de la Cruz,"AV. MIGUEL ESPINOSA, 1",30400,968709100.0,968707219.0,103.0,SEGURIDAD SOCIAL,SERVICIO MURCIANO DE SALUD,GENERAL,,NO,SI,38.1037408,-1.8673701029918535
460333,HOSPITAL NISA AGUAS VIVAS,COMUNIDAD VALENCIANA,VALENCIA,Carcaixent,"URBANIZACIÓN DE LA VALL D'AIGUES VIVES, S/N",46792,962588800.0,962975016.0,96.0,PRIVADO NO BENÉFICO,PRIVADO NO BENÉFICO,GENERAL,,SI,NO,39.088194900000005,-0.3550081654888988
460415,UNIDAD DE DESINTOXICACIÓN HOSPITALARIA,COMUNIDAD VALENCIANA,VALENCIA,Carcaixent,"CARRETERA ALZIRA-TAVERNES DE V. CV50, KM 11",46740,962588800.0,,16.0,PRIVADO NO BENÉFICO,PRIVADO NO BENÉFICO,OTROS MONOGRÁFICOS,,NO,NO,,
370074,HOSPITAL LOS MONTALVOS,CASTILLA Y LEÓN,SALAMANCA,Carrascal de Barregas,"CARRETERA CIUDAD RODRIGO, S/N",37192,923330163.0,923330418.0,0.0,COMUNIDAD AUTÓNOMA,SANIDAD CASTILLA Y LEÓN-SACYL,GENERAL,,NO,NO,40.92633695,-5.740990357695376
300145,HOSPITAL SANTA MARÍA DEL ROSELL,REGIÓN DE MURCIA,MURCIA,Cartagena,"Pº ALFONSO XIII, 61",30203,968325000.0,968504296.0,0.0,SEGURIDAD SOCIAL,SERVICIO MURCIANO DE SALUD,GENERAL,,NO,SI,,
300161,SANTO Y REAL HOSPITAL DE CARIDAD,REGIÓN DE MURCIA,MURCIA,Cartagena,CAMINO BARRIO PERAL S/N (LOS BARREROS),30310,968510300.0,968510300.0,154.0,OTRO PRIVADO BENÉFICO,OTRO PRIVADO-BENÉFICO,GERIATRÍA Y/O LARGA ESTANCIA,,SI,NO,37.62743585,-0.9939015467933054
300177,HOSPITAL NUESTRA SEÑORA DEL PERPETUO SOCORRO,REGIÓN DE MURCIA,MURCIA,Cartagena,"SEBASTIÁN FERINGAN, 12",30205,968510500.0,968536976.0,214.0,PRIVADO NO BENÉFICO,PRIVADO NO BENÉFICO,MÉDICO-QUIRÚRGICO,,SI,NO,,
300340,RESIDENCIA LOS ALMENDROS,REGIÓN DE MURCIA,MURCIA,Cartagena,"PARAJE LOS PINOS, S/N (PERÍN)",30396,968168716.0,968538054.0,60.0,PRIVADO NO BENÉFICO,PRIVADO NO BENÉFICO,GERIATRÍA Y/O LARGA ESTANCIA,,SI,NO,37.6287235,-1.0661091751280591
300384,HOSPITAL C.M.V. CARIDAD CARTAGENA,REGIÓN DE MURCIA,MURCIA,Cartagena,CALLE JORGE JUAN Nº30,30204,968506666.0,868091856.0,40.0,PRIVADO NO BENÉFICO,PRIVADO NO BENÉFICO,MÉDICO-QUIRÚRGICO,,SI,NO,,
300362,HOSPITAL GENERAL UNIVERSITARIO SANTA LUCIA,REGIÓN DE MURCIA,MURCIA,Cartagena,"MEZQUITA, S/N. PARAJE LOS ARCOS. BARRIO DE SANTA LUCÍA",30202,968128600.0,,0.0,COMUNIDAD AUTÓNOMA,SERVICIO MURCIANO DE SALUD,GENERAL,,NO,SI,37.6017877,-0.9615991572862557
300373,HOSPITAL PERPETUO SOCORRO ALAMEDA,REGIÓN DE MURCIA,MURCIA,Cartagena,ALAMEDA DE SAN ANTON Nº 6,30205,968115055.0,968527154.0,93.0,PRIVADO NO BENÉFICO,PRIVADO NO BENÉFICO,GERIATRÍA Y/O LARGA ESTANCIA,,SI,NO,42.1446274,-0.407067
300351,COMPLEJO HOSPITALARIO UNIVERSITARIO DE CARTAGENA,REGIÓN DE MURCIA,MURCIA,Cartagena,"Pº ALFONSO XIII, 61",30203,968128600.0,,691.0,SEGURIDAD SOCIAL,SERVICIO MURCIANO DE SALUD,GENERAL,,NO,SI,,
290517,HOSPITAL VALLE DEL GUADALHORCE DE CÁRTAMA,ANDALUCÍA,MALAGA,Cártama,"AUTOVÍA A-357 MÁLAGA-CAMPANILLAS, KM. 49",29570,951291105.0,,0.0,COMUNIDAD AUTÓNOMA,SERVICIO ANDALUZ DE SALUD,GENERAL,,NO,NO,36.7218449,-4.6710606
410375,HOSPITAL NISA SEVILLA-ALJARAFE,ANDALUCÍA,SEVILLA,Castilleja de la Cuesta,"AVDA. PLACIDO FERNANDEZ VIAGAS, S/N",41950,954464000.0,954161503.0,148.0,PRIVADO NO BENÉFICO,PRIVADO NO BENÉFICO,GENERAL,,NO,NO,,
150341,HOSPITAL VIRXE DA XUNQUEIRA (*),GALICIA,A CORUÑA,Cee,"ALCALDE PEPE SANCHEZ, 7",15270,981706010.0,981706198.0,74.0,COMUNIDAD AUTÓNOMA,SERVICIO GALLEGO DE SALUD-SERGAS,GENERAL,RM compartida (3 unidades móviles RM),NO,NO,42.953682549999996,-9.19137737985391
300196,FUNDACION HOSPITAL REAL PIEDAD,REGIÓN DE MURCIA,MURCIA,Cehegín,"PZA DEL MESONCICO, 3 Y MAYOR, 22",30430,968741156.0,968741246.0,40.0,OTRO PRIVADO BENÉFICO,OTRO PRIVADO-BENÉFICO,GERIATRÍA Y/O LARGA ESTANCIA,,SI,NO,,
280761,HOSPITAL DE LA FUENFRÍA,MADRID,MADRID,Cercedilla,"CTRA. DE LAS DEHESAS, S/N",28470,918520300.0,918521567.0,192.0,SEGURIDAD SOCIAL,SERVICIO MADRILEÑO DE SALUD,GERIATRÍA Y/O LARGA ESTANCIA,,NO,SI,40.760619250000005,-4.074074538461158
110248,HOSPITAL VIAMED BAHÍA DE CÁDIZ,ANDALUCÍA,CÁDIZ,Chiclana de la Frontera,"AYALA, 2",11130,956533333.0,956409057.0,46.0,PRIVADO NO BENÉFICO,PRIVADO NO BENÉFICO,GENERAL,,NO,NO,36.4208846,-6.1500839
110260,HOSPITAL VIAMED NOVO SANCTI PETRI,ANDALUCÍA,CÁDIZ,Chiclana de la Frontera,"URB. NOVO SANCTI PETRI, S/N",11130,956495000.0,956498415.0,37.0,PRIVADO NO BENÉFICO,PRIVADO NO BENÉFICO,GENERAL,,NO,NO,,
280783,CENTRO SAN JUAN DE DIOS,MADRID,MADRID,Ciempozuelos,"AV. DE SAN JUAN DE DIOS, 1",28350,918930001.0,918932868.0,339.0,PRIVADO-BENÉFICO (IGLESIA),PRIVADO-BENÉFICO (IGLESIA),PSIQUIÁTRICO,,SI,SI,40.161784100000006,-3.6143526451763694
280777,HH. HH. SGDO. C. DE JESÚS. COMPLEJO ASISTENCIAL BENITO MENNI,MADRID,MADRID,Ciempozuelos,"JARDINES, 1",28350,918930150.0,918930175.0,318.0,PRIVADO-BENÉFICO (IGLESIA),PRIVADO-BENÉFICO (IGLESIA),PSIQUIÁTRICO,,SI,NO,,
300281,HOSPITAL DE LA VEGA LORENZO GUIRAO,REGIÓN DE MURCIA,MURCIA,Cieza,"CTRA. DE ABARÁN, S/N",30530,968775550.0,968775563.0,124.0,COMUNIDAD AUTÓNOMA,SERVICIO MURCIANO DE SALUD,GENERAL,,NO,SI,38.2295323,-1.4090223094965109
70244,CLÍNICA JUANEDA MENORCA,ILLES BALEARS,ILLES BALEARS,Ciutadella de Menorca,"CANONGE MOLL, S/N",7760,971480505.0,971480506.0,41.0,PRIVADO NO BENÉFICO,PRIVADO NO BENÉFICO,GENERAL,,SI,NO,40.0048071,3.8418321
330143,HOSPITAL COMARCAL DE JARRIO,PPDO. DE ASTURIAS,ASTURIAS,Coaña,JARRIO,33719,985639300.0,985473367.0,105.0,SEGURIDAD SOCIAL,SERVICIO DE SALUD DEL PRINCIPADO DE ASTURIAS-SESPA,GENERAL,,NO,SI,43.5447646,-6.746879
281359,HOSPITAL GENERAL DE VILLALBA,MADRID,MADRID,Collado Villalba,CARRETERA DE ALPEDRETE A MORALZARZAL M-608 KM 41,28400,910908102.0,910908122.0,209.0,COMUNIDAD AUTÓNOMA,SERVICIO MADRILEÑO DE SALUD,GENERAL,,NO,NO,,
410397,HOSPITAL DE ALTA RESOLUCIÓN SIERRA NORTE,ANDALUCÍA,SEVILLA,Constantina,"DR. LARRAURI, S/N",41450,955889037.0,955889110.0,8.0,COMUNIDAD AUTÓNOMA,SERVICIO ANDALUZ DE SALUD,GENERAL,,NO,NO,,
100041,HOSPITAL CIUDAD DE CORIA,EXTREMADURA,CÁCERES,Coria,"CERVANTES, 75",10800,927149200.0,927501898.0,103.0,COMUNIDAD AUTÓNOMA,SERVICIO EXTREMEÑO DE SALUD-SES,GENERAL,,NO,NO,39.9910684,-6.5422559176337
81717,CENTRE SOCIOSANITARI SARQUAVITAE SANT JORDI,CATALUÑA,BARCELONA,Cornellà de Llobregat,"CT SANT JOAN DESPÍ, 60",8940,934752690.0,934709762.0,51.0,OTRO PRIVADO BENÉFICO,OTRO PRIVADO-BENÉFICO,GERIATRÍA Y/O LARGA ESTANCIA,,NO,NO,,
281269,HOSPITAL UNIVERSITARIO DEL HENARES,MADRID,MADRID,Coslada,AV. MARIE CURIE S/N,28822,911912000.0,911912288.0,243.0,COMUNIDAD AUTÓNOMA,SERVICIO MADRILEÑO DE SALUD,GENERAL,,NO,SI,,
280796,HOSPITAL MONOGRÁFICO ASEPEYO DE TRAUMAT. CIRUGÍA Y REHABILITACIÓN,MADRID,MADRID,Coslada,"JOAQUÍN DE CÁRDENAS, 2",28823,916735011.0,916276204.0,133.0,MATEP,MATEP,TRAUMATOLOGÍA Y/O REHABILITACIÓN,,NO,SI,,
30351,HOSPITAL LA PEDRERA,COMUNIDAD VALENCIANA,ALICANTE,Dénia,"PARTIDA PLANA D'EST, 4",3700,966467170.0,966467287.0,107.0,COMUNIDAD AUTÓNOMA,CONSELLERIA DE SANIDAD. G. VALENCIANA,GERIATRÍA Y/O LARGA ESTANCIA,,NO,NO,38.8280244,0.09628981673504239
30128,HOSPITAL SAN CARLOS DE DENIA GRUPO HLA,COMUNIDAD VALENCIANA,ALICANTE,Dénia,"PARTIDA MADRIGUERES SUD, 8",3700,965781550.0,965789172.0,31.0,PRIVADO NO BENÉFICO,PRIVADO NO BENÉFICO,GENERAL,,NO,NO,,
30340,HOSPITAL DE DENIA,COMUNIDAD VALENCIANA,ALICANTE,Dénia,"PARTIDA BENIADLÀ, S/N",3700,966429000.0,966427986.0,266.0,COMUNIDAD AUTÓNOMA,CONSELLERIA DE SANIDAD. G. VALENCIANA,GENERAL,Concesión Administrativa a Entidad Privada,NO,SI,38.8325999,0.0579653
60093,HOSPITAL DON BENITO-VILLANUEVA DE LA SERENA,EXTREMADURA,BADAJOZ,Don Benito,"CTRA. DON BENITO-VILLANUEVA DE LA SERENA, KM. 3",6400,924386800.0,924386801.0,0.0,COMUNIDAD AUTÓNOMA,SERVICIO EXTREMEÑO DE SALUD-SES,GENERAL,,NO,SI,38.963206,-5.827535830537997
60297,HOSPITAL PARQUE VEGAS ALTAS,EXTREMADURA,BADAJOZ,Don Benito,AVDA. MADRID 12,6400,924805050.0,924812690.0,21.0,PRIVADO NO BENÉFICO,PRIVADO NO BENÉFICO,GENERAL,,SI,NO,,
60253,COMPLEJO H. DON BENITO-VVA DE LA SERENA,EXTREMADURA,BADAJOZ,Don Benito,"AVDA. ALONSO MARTÍN, 8",6400,924382800.0,924386801.0,320.0,COMUNIDAD AUTÓNOMA,SERVICIO EXTREMEÑO DE SALUD-SES,GENERAL,,NO,SI,,
410233,HOSPITAL SAN AGUSTÍN,ANDALUCÍA,SEVILLA,Dos Hermanas,"PROLONGACIÓN DOCTOR FLEMING, SECTOR 13, S/N",41703,955050570.0,955050578.0,93.0,PRIVADO NO BENÉFICO,PRIVADO NO BENÉFICO,GENERAL,,NO,NO,43.551953,-5.9357555
410432,CLÍNICA DE SALUD MENTAL MIGUEL DE MAÑARA,ANDALUCÍA,SEVILLA,Dos Hermanas,"C/ HERMANOS DE LA CRUZ BLANCA, 1 (MONTEQUINTO)",41089,954127033.0,,18.0,PRIVADO NO BENÉFICO,PRIVADO NO BENÉFICO,PSIQUIÁTRICO,,NO,NO,,
410419,HOSPITAL DE ALTA RESOLUCIÓN DE ÉCIJA,ANDALUCÍA,SEVILLA,Écija,"AV. DOCTOR SÁNCHEZ MALO, 73",41400,,,38.0,COMUNIDAD AUTÓNOMA,SERVICIO ANDALUZ DE SALUD,GENERAL,,NO,NO,37.5323492,-5.092120534726387
70201,"POLICLÍNICA NUESTRA SEÑORA DEL ROSARIO, S.A.",ILLES BALEARS,ILLES BALEARS,Eivissa,"VÍA ROMANA, S/N",7800,971301916.0,971301756.0,70.0,PRIVADO NO BENÉFICO,PRIVADO NO BENÉFICO,GENERAL,,SI,NO,,
70197,HOSPITAL RESIDENCIA ASISTIDA CAS SERRES,ILLES BALEARS,ILLES BALEARS,Eivissa,"COSME VIDAL LLASER, 27. BARRIO CAS SERRES",7800,971392960.0,971392999.0,5.0,DIPUTACIÓN O CABILDO,DIPUTACIÓN O CABILDO,OTRA FINALIDAD,,SI,NO,,
70184,HOSPITAL CAN MISSES,ILLES BALEARS,ILLES BALEARS,Eivissa,"CORONA, S/N",7800,971397000.0,971397121.0,245.0,SEGURIDAD SOCIAL,SERVEI DE SALUT DE LES ILLES BALEARS- IB-SALUT,GENERAL,,NO,SI,38.9165292,1.4185996487433037
500200,CENTRO SANITARIO CINCO VILLAS,ARAGÓN,ZARAGOZA,Ejea de los Caballeros,"ANTONIO MACHADO, S/N",50600,976677978.0,976677972.0,32.0,COMUNIDAD AUTÓNOMA,SERVICIO ARAGONÉS DE SALUD-SALUD,OTRA FINALIDAD,,NO,NO,,
40118,HOSPITAL DE PONIENTE,ANDALUCÍA,ALMERÍA,"Ejido, El","CRTA. DE ALMERIMAR, S/N",4700,950022568.0,950022602.0,273.0,COMUNIDAD AUTÓNOMA,SERVICIO ANDALUZ DE SALUD,GENERAL,,NO,NO,36.75324005,-2.803197833170879
30373,HOSPITAL UNIVERSITARIO VINALOPO,COMUNIDAD VALENCIANA,ALICANTE,Elche/Elx,"TONICO SANSANO MORA, 14",3293,966679800.0,966632102.0,214.0,COMUNIDAD AUTÓNOMA,CONSELLERIA DE SANIDAD. G. VALENCIANA,GENERAL,Concesión Administrativa a Entidad Privada,NO,NO,,
30384,HOSPITAL IMED ELCHE,COMUNIDAD VALENCIANA,ALICANTE,Elche/Elx,"CALLE MAX PLANCK, S/N",3203,966915151.0,966651341.0,98.0,PRIVADO NO BENÉFICO,PRIVADO NO BENÉFICO,GENERAL,,SI,NO,38.28806295,-0.6163641948075638
30152,HOSPITAL GENERAL UNIVERSITARIO DE ELCHE,COMUNIDAD VALENCIANA,ALICANTE,Elche/Elx,"CAMÍ ALMAZARA, 11",3203,966616900.0,966616707.0,492.0,COMUNIDAD AUTÓNOMA,CONSELLERIA DE SANIDAD. G. VALENCIANA,GENERAL,,NO,SI,38.259783850000005,-0.6854274803056539
30165,HOSPITAL GENERAL UNIVERSITARIO DE ELDA-VIRGEN DE LA SALUD,COMUNIDAD VALENCIANA,ALICANTE,Elda,"CARRETERA SAX, S/N",3600,966989000.0,965398173.0,513.0,COMUNIDAD AUTÓNOMA,CONSELLERIA DE SANIDAD. G. VALENCIANA,GENERAL,,NO,SI,,
480305,HOSPITAL QUIRONSALUD BIZKAIA,PAÍS VASCO,VIZCAYA,Erandio,"CARRETERA LEIOA-UNBE, 33 BIS",48950,902445595.0,944898001.0,110.0,PRIVADO NO BENÉFICO,PRIVADO NO BENÉFICO,GENERAL,,NO,SI,,
82167,CLÍNICA DIAGONAL,CATALUÑA,BARCELONA,Esplugues de Llobregat,"CR SANT MATEU, 24",8950,932053213.0,932806280.0,98.0,OTRO PRIVADO BENÉFICO,PRIVADO NO BENÉFICO,GENERAL,,NO,NO,41.3789337,2.0977213429884434
80728,CLÍNICA NOSTRA SENYORA DE GUADALUPE,CATALUÑA,BARCELONA,Esplugues de Llobregat,"CR FRANCESC MORAGAS, 2",8950,934702970.0,933712306.0,159.0,PRIVADO NO BENÉFICO,PRIVADO NO BENÉFICO,GERIATRÍA Y/O LARGA ESTANCIA,,NO,NO,,
81784,CENTRE SOCIOSANITARI D'ESPLUGUES,CATALUÑA,BARCELONA,Esplugues de Llobregat,"VI AUGUSTA, 66-70",8950,936406350.0,936520051.0,131.0,OTRO PRIVADO BENÉFICO,OTRO PRIVADO-BENÉFICO,GERIATRÍA Y/O LARGA ESTANCIA,,NO,NO,,
80713,HOSPITAL DE SANT JOAN DE DÉU.,CATALUÑA,BARCELONA,Esplugues de Llobregat,"CR SANT JOAN DE DÉU, 2",8950,932804000.0,932033959.0,401.0,PRIVADO-BENÉFICO (IGLESIA),PRIVADO-BENÉFICO (IGLESIA),MATERNO-INFANTIL,,,NO,41.60070025,0.6349327932526239
310121,HOSPITAL GARCÍA ORCOYEN,C. FORAL DE NAVARRA,NAVARRA,Estella-Lizarra,"SANTA SORIA, 22",31200,848435000.0,848435003.0,93.0,COMUNIDAD AUTÓNOMA,SERVICIO NAVARRO DE SALUD-OSASUNBIDEA,GENERAL,,NO,NO,42.6833382,-2.038908569819049
290382,HOSPITEN ESTEPONA,ANDALUCÍA,MALAGA,Estepona,"CRTRA. NACIONAL 340, KM 162. PARTIDO DE VELERÍN",29680,952760600.0,952808546.0,74.0,PRIVADO NO BENÉFICO,PRIVADO NO BENÉFICO,GENERAL,,NO,NO,36.4528445,-5.084240206546877
290450,CENYT HOSPITAL,ANDALUCÍA,MALAGA,Estepona,"AVDA. ANDALUCÍA, 4",29680,952808100.0,,10.0,PRIVADO NO BENÉFICO,PRIVADO NO BENÉFICO,GENERAL,,NO,NO,36.4280837,-5.1384924
150130,COMPLEXO HOSPITALARIO UNIVERSITARIO DE FERROL,GALICIA,A CORUÑA,Ferrol,"RESIDENCIA, S/N",15405,981334000.0,981334015.0,457.0,SEGURIDAD SOCIAL,SERVICIO GALLEGO DE SALUD-SERGAS,GENERAL,,NO,SI,,
150177,HOSPITAL JUAN CARDONA,GALICIA,A CORUÑA,Ferrol,"PARDO BAZAN, S/N",15406,981312500.0,981326604.0,150.0,OTRO PRIVADO BENÉFICO,OTRO PRIVADO-BENÉFICO,GENERAL,,SI,NO,41.9142758,1.68133
150145,HOSPITAL UNIVERSITARIO ARQUITECTO MARCIDE,GALICIA,A CORUÑA,Ferrol,"RESIDENCIA, S/N",15405,981334000.0,981334015.0,0.0,SEGURIDAD SOCIAL,SERVICIO GALLEGO DE SALUD-SERGAS,GENERAL,,NO,SI,,
150183,HOSPITAL NAVAL,GALICIA,A CORUÑA,Ferrol,"PEGA (A), S/N",15405,981339759.0,,0.0,SEGURIDAD SOCIAL,SERVICIO GALLEGO DE SALUD-SERGAS,GENERAL,,NO,SI,,
170123,HOSPITAL DE FIGUERES,CATALUÑA,GIRONA,Figueres,"RD RECTOR AROLAS, S/N",17600,972501400.0,972670313.0,168.0,OTRO PRIVADO BENÉFICO,OTRO PRIVADO-BENÉFICO,GENERAL,,,SI,42.26832159999999,2.9537614147690485
170288,CENTRE SOCIOSANITARI BERNAT JAUME,CATALUÑA,GIRONA,Figueres,"RD RECTOR AROLAS, S/N",17600,972501400.0,,121.0,OTRO PRIVADO BENÉFICO,OTRO PRIVADO-BENÉFICO,GERIATRÍA Y/O LARGA ESTANCIA,,NO,NO,,
170139,CLÍNICA SANTA CREU,CATALUÑA,GIRONA,Figueres,"CR PERE III,, 41",17600,972503650.0,972503931.0,35.0,PRIVADO NO BENÉFICO,PRIVADO NO BENÉFICO,GENERAL,,NO,NO,42.261952699999995,2.961817527479869
70366,HOSPITAL DE FORMENTERA,ILLES BALEARS,ILLES BALEARS,Formentera,"VENDA DES BROLLS, S/N",7860,971321212.0,971321280.0,12.0,COMUNIDAD AUTÓNOMA,SERVEI DE SALUT DE LES ILLES BALEARS- IB-SALUT,GENERAL,,NO,NO,38.7063909,1.4335265588311943
220105,CENTRO SANITARIO BAJO CINCA-BAIX CINCA,ARAGÓN,HUESCA,Fraga,"HERMANA ANDRESA, 2",22520,974474545.0,974471065.0,20.0,COMUNIDAD AUTÓNOMA,SERVICIO ARAGONÉS DE SALUD-SALUD,OTRA FINALIDAD,,NO,NO,41.52425085,0.34055643472910846
281146,HOSPITAL UNIVERSITARIO DE FUENLABRADA,MADRID,MADRID,Fuenlabrada,"CAMINO DEL MOLINO, 2",28942,916006000.0,916006701.0,406.0,COMUNIDAD AUTÓNOMA,SERVICIO MADRILEÑO DE SALUD,GENERAL,,NO,SI,40.2870798,-3.8159212878634223
480209,HOSPITAL GALDAKAO-USANSOLO,PAÍS VASCO,VIZCAYA,Galdakao,"BARRIO LABEAGA, 46A",48960,944007000.0,944007132.0,464.0,COMUNIDAD AUTÓNOMA,SERVICIO VASCO DE SALUD-OSAKIDETZA,GENERAL,,NO,SI,43.2185696,-2.818861
460207,HOSPITAL FRANCESC DE BORJA DE GANDIA,COMUNIDAD VALENCIANA,VALENCIA,Gandia,"AVENIDA DE LA MEDICINA, 6",46702,962849500.0,962849506.0,285.0,COMUNIDAD AUTÓNOMA,CONSELLERIA DE SANIDAD. G. VALENCIANA,GENERAL,,NO,SI,,
460327,CENTRO MÉDICO GANDIA,COMUNIDAD VALENCIANA,VALENCIA,Gandia,"CALLE DAIMUS, 26 BAJO",46700,962874740.0,962950215.0,11.0,PRIVADO NO BENÉFICO,PRIVADO NO BENÉFICO,GENERAL,,NO,NO,38.9729418,-0.1758321
280989,HOSPITAL UNIVERSITARIO DE GETAFE,MADRID,MADRID,Getafe,"CRTRA DE TOLEDO, KM. 12,5",28905,916839360.0,916839748.0,510.0,SEGURIDAD SOCIAL,SERVICIO MADRILEÑO DE SALUD,GENERAL,,NO,SI,40.31262275,-3.742644432153378
330169,HOSPITAL DE LA CRUZ ROJA,PPDO. DE ASTURIAS,ASTURIAS,Gijón,"URÍA, 37",33202,985195000.0,985133195.0,120.0,PRIVADO-BENÉFICO (CRUZ ROJA),PRIVADO-BENÉFICO (CRUZ ROJA),MÉDICO-QUIRÚRGICO,,SI,NO,36.843913,-2.452113724152164
330175,SANATORIO NUESTRA SEÑORA DE COVADONGA,PPDO. DE ASTURIAS,ASTURIAS,Gijón,"GENERAL SUÁREZ VALDÉS, 40",33204,985365122.0,985130758.0,24.0,PRIVADO-BENÉFICO (IGLESIA),PRIVADO-BENÉFICO (IGLESIA),MÉDICO-QUIRÚRGICO,,NO,NO,,
330194,FUNDACIÓN HOSPITAL DE JOVE,PPDO. DE ASTURIAS,ASTURIAS,Gijón,"AV. EDUARDO CASTRO, 161",33290,985320308.0,985315710.0,233.0,OTRO PRIVADO BENÉFICO,OTRO PRIVADO-BENÉFICO,GENERAL,,SI,SI,,
330332,CLÍNICA PSIQUIÁTRICA SOMIÓ,PPDO. DE ASTURIAS,ASTURIAS,Gijón,CARRETERA LA PROVIDENCIA-INFANZÓN 3518,33203,985133806.0,985132278.0,40.0,PRIVADO NO BENÉFICO,PRIVADO NO BENÉFICO,PSIQUIÁTRICO,,NO,NO,43.5458518,-5.610152
330208,"HOSPITAL BEGOÑA DE GIJÓN, S.L.",PPDO. DE ASTURIAS,ASTURIAS,Gijón,"PABLO IGLESIAS, 92",33204,985367711.0,985365385.0,41.0,PRIVADO NO BENÉFICO,PRIVADO NO BENÉFICO,GENERAL,,NO,NO,,
330156,HOSPITAL DE CABUEÑES,PPDO. DE ASTURIAS,ASTURIAS,Gijón,"LOS PRADOS, 395",33394,985185000.0,985367169.0,457.0,SEGURIDAD SOCIAL,SERVICIO DE SALUD DEL PRINCIPADO DE ASTURIAS-SESPA,GENERAL,,NO,SI,43.5248797,-5.606460980710726
330354,HOSPITAL GIJÓN,PPDO. DE ASTURIAS,ASTURIAS,Gijón,AVDA. DE LA COSTA 45,33201,985360612.0,984840128.0,32.0,PRIVADO NO BENÉFICO,PRIVADO NO BENÉFICO,GERIATRÍA Y/O LARGA ESTANCIA,,NO,NO,43.5450394,-5.6626443
330365,CENTRO TERAPÉUTICO VISTA ALEGRE,PPDO. DE ASTURIAS,ASTURIAS,Gijón,AVDA. PROFESOR PÉREZ PIMENTEL 30 LA GUÍA-SOMIÓ,33203,985363435.0,985772566.0,28.0,PRIVADO NO BENÉFICO,PRIVADO NO BENÉFICO,PSIQUIÁTRICO,,NO,NO,,
460180,CASA DE REPOSO SAN ONOFRE,COMUNIDAD VALENCIANA,VALENCIA,Godella,"AVENIDA JOAN PESET, 31",46110,963638036.0,963639972.0,76.0,PRIVADO NO BENÉFICO,PRIVADO NO BENÉFICO,PSIQUIÁTRICO,,NO,NO,,
480216,HOSPITAL GORLIZ,PAÍS VASCO,VIZCAYA,Gorliz,"UREZARANTZA IBILTOKIA, 1",48630,944006600.0,944006627.0,149.0,COMUNIDAD AUTÓNOMA,SERVICIO VASCO DE SALUD-OSAKIDETZA,REHABILITACIÓN PSICOFÍSICA,,NO,NO,43.4139073,-2.9351774
81402,"MÚTUA DE GRANOLLERS, MÚTUA DE PREVISIÓ SOCIAL A PRIMA FIXA",CATALUÑA,BARCELONA,Granollers,"PL PAU CASALS, S/N",8402,938708099.0,938790477.0,20.0,PRIVADO NO BENÉFICO,PRIVADO NO BENÉFICO,GENERAL,,NO,NO,,
80734,HOSPITAL GENERAL DE GRANOLLERS.,CATALUÑA,BARCELONA,Granollers,"AV FRANCESC RIBAS, 1",8402,938425000.0,938425017.0,306.0,OTRO PRIVADO BENÉFICO,OTRO PRIVADO-BENÉFICO,GENERAL,,,SI,,
81661,BENITO MENNI COMPLEX ASSISTENCIAL EN SALUT MENTAL,CATALUÑA,BARCELONA,Granollers,"CR FRANCESC RIBAS, 59",8402,938425035.0,,30.0,PRIVADO-BENÉFICO (IGLESIA),PRIVADO-BENÉFICO (IGLESIA),PSIQUIÁTRICO,,NO,NO,,
281326,CASTA GUADARRAMA,MADRID,MADRID,Guadarrama,"CARRETERA NACIONAL VI, KM. 50,300",28440,918548328.0,918540686.0,160.0,PRIVADO NO BENÉFICO,PRIVADO NO BENÉFICO,PSIQUIÁTRICO,,SI,NO,,
280800,HOSPITAL GUADARRAMA,MADRID,MADRID,Guadarrama,"PASEO DEL MOLINO DEL REY, 2",28440,918562000.0,918562057.0,144.0,COMUNIDAD AUTÓNOMA,SERVICIO MADRILEÑO DE SALUD,GERIATRÍA Y/O LARGA ESTANCIA,,NO,NO,40.6734454,-4.0893911
180122,HOSPITAL DE ALTA RESOLUCIÓN DE GUADIX,ANDALUCÍA,GRANADA,Guadix,"MARIANA PINEDA, S/N",18500,958699153.0,958699002.0,50.0,COMUNIDAD AUTÓNOMA,SERVICIO ANDALUZ DE SALUD,GENERAL,,NO,NO,37.309948950000006,-3.1455987186081753
260121,CENTRO SOCIOSANITARIO DE CONVALECENCIA LOS JAZMINES,LA RIOJA,LA RIOJA,Haro,"SEVERO OCHOA, 5",26200,941303650.0,941304485.0,26.0,COMUNIDAD AUTÓNOMA,PRIVADO NO BENÉFICO,GERIATRÍA Y/O LARGA ESTANCIA,,SI,NO,,
20096,HOSPITAL DE HELLÍN,CASTILLA-LA MANCHA,ALBACETE,Hellín,"JUAN RAMÓN JIMÉNEZ, 40",2400,967309500.0,967304611.0,135.0,SEGURIDAD SOCIAL,SERVICIO DE SALUD DE CASTILLA-LA MANCHA-SESCAM,GENERAL,,NO,SI,38.5043124,-1.6891100655697582
200163,ORGANIZACIÓN SANITARIA INTEGRADA BIDASOA (OSI BIDASOA),PAÍS VASCO,GUIPÚZCOA,Hondarribia,"FINCA ZUBIETA. Bº. MENDELU, S/N",20280,943007702.0,943007701.0,101.0,COMUNIDAD AUTÓNOMA,SERVICIO VASCO DE SALUD-OSAKIDETZA,GENERAL,,NO,SI,,
81739,CENTRE SOCIOSANITARI DE L'HOSPITALET - CONSORCI SANITARI INTEGRAL,CATALUÑA,BARCELONA,"Hospitalet de Llobregat, L'","AV JOSEP MOLINS, 41",8906,934407500.0,933334543.0,123.0,PRIVADO-BENÉFICO (CRUZ ROJA),OTROS PÚBLICOS,GERIATRÍA Y/O LARGA ESTANCIA,,NO,NO,,
81605,PRYTANIS HOSPITALET CENTRE SOCIOSANITARI,CATALUÑA,BARCELONA,"Hospitalet de Llobregat, L'","CR APRESTADORA, 43-45",8902,932988090.0,,104.0,PRIVADO NO BENÉFICO,PRIVADO NO BENÉFICO,GERIATRÍA Y/O LARGA ESTANCIA,,NO,NO,,
82112,UNITAT POLIVALENT BENITO MENNI EN SALUT MENTAL DE L'HOSPITALET-EL PRAT DE LLOBREGAT,CATALUÑA,BARCELONA,"Hospitalet de Llobregat, L'","CR SANT RAFAEL, 11",8905,936402400.0,,35.0,PRIVADO-BENÉFICO (IGLESIA),PRIVADO-BENÉFICO (IGLESIA),PSIQUIÁTRICO,,NO,NO,,
81461,INSTITUT CATALÀ D'ONCOLOGIA - HOSPITAL DURAN I REYNALS,CATALUÑA,BARCELONA,"Hospitalet de Llobregat, L'","AV GRAN VIA, 203",8908,933357011.0,932607783.0,126.0,COMUNIDAD AUTÓNOMA,OTROS PÚBLICOS,ONCOLÓGICO,,,NO,,
80771,HOSPITAL GENERAL DE L'HOSPITALET,CATALUÑA,BARCELONA,"Hospitalet de Llobregat, L'","AV JOSEP MOLINS,, 29",8906,934407500.0,933334543.0,89.0,PRIVADO-BENÉFICO (CRUZ ROJA),OTROS PÚBLICOS,GENERAL,,,SI,41.3741708,2.106943855965177
80752,HOSPITAL UNIVERSITARI DE BELLVITGE,CATALUÑA,BARCELONA,"Hospitalet de Llobregat, L'","CR FEIXA LLARGA, S/N",8907,933357011.0,932607533.0,1022.0,SEGURIDAD SOCIAL,INSTITUTO CATALÁN DE LA SALUD,GENERAL,,,SI,41.34536095,2.104785907668183
80543,HESTIA DURAN I REYNALS,CATALUÑA,BARCELONA,"Hospitalet de Llobregat, L'","AV GRAN  VIA, 203",8908,934170400.0,934183356.0,428.0,PRIVADO NO BENÉFICO,PRIVADO NO BENÉFICO,GERIATRÍA Y/O LARGA ESTANCIA,,NO,NO,,
40084,HOSPITAL LA INMACULADA,ANDALUCÍA,ALMERÍA,Huércal-Overa,"AVDA. DRA. ANA PARRA, S/N",4600,950029176.0,950451040.0,184.0,COMUNIDAD AUTÓNOMA,SERVICIO ANDALUZ DE SALUD,GENERAL,,NO,SI,37.4013429,-1.9418865490704174
380197,HOSPITAL DE LA SANTÍSIMA TRINIDAD,CANARIAS,SANTA CRUZ DE TENERIFE,Icod de los Vinos,CAMINO LAS GAVIOTAS Nº 22. BARRIO DEL BUEN PASO,38430,922604510.0,922321456.0,99.0,DIPUTACIÓN O CABILDO,DIPUTACIÓN O CABILDO,GERIATRÍA Y/O LARGA ESTANCIA,,SI,NO,28.3872688,-16.5260112
380337,HOSPITAL DEL NORTE,CANARIAS,SANTA CRUZ DE TENERIFE,Icod de los Vinos,CALLE LAS GAVIOTAS Nº 22. BUEN PASO,38437,822171471.0,922653808.0,0.0,COMUNIDAD AUTÓNOMA,SERVICIO CANARIO DE SALUD,GERIATRÍA Y/O LARGA ESTANCIA,,NO,NO,,
80787,FUNDACIÓ SANITÀRIA SANT JOSEP,CATALUÑA,BARCELONA,Igualada,"CR CARME  VERDAGUER, 56",8700,938032650.0,938051586.0,145.0,PRIVADO NO BENÉFICO,OTRO PRIVADO-BENÉFICO,GERIATRÍA Y/O LARGA ESTANCIA,,NO,NO,,
81885,HOSPITAL D'IGUALADA,CATALUÑA,BARCELONA,Igualada,"AV CATALUNYA, 11",8700,938075500.0,938036915.0,280.0,ENTIDADES PÚBLICAS,OTROS PÚBLICOS,GENERAL,,,SI,41.490590499999996,1.7076074120503755
70377,HOSPITAL COMARCAL D'INCA,ILLES BALEARS,ILLES BALEARS,Inca,"CRTRA VELLA DE LLUBI, S/N",7300,971888514.0,971888584.0,165.0,COMUNIDAD AUTÓNOMA,SERVEI DE SALUT DE LES ILLES BALEARS- IB-SALUT,GENERAL,,NO,SI,39.71593935,2.9220721596410035
220089,HOSPITAL DE JACA.SALUD,ARAGÓN,HUESCA,Jaca,CARRETERA DE RAPITÁN S/N,22700,974355331.0,974364142.0,50.0,ENTIDADES PÚBLICAS,SERVICIO ARAGONÉS DE SALUD-SALUD,GENERAL,,NO,NO,,
110271,CLÍNICA SERMAN - INSTITUTO MÉDICO,ANDALUCÍA,CÁDIZ,Jerez de la Frontera,"Pº DE LA ROSALEDA, 40",11405,956301211.0,956317759.0,41.0,PRIVADO NO BENÉFICO,PRIVADO NO BENÉFICO,GENERAL,,SI,NO,,
110125,HOSPITAL SAN JUAN GRANDE,ANDALUCÍA,CÁDIZ,Jerez de la Frontera,"GLORIETA FÉLIX RODRIGUEZ DE LA FUENTE, S/N",11408,956357300.0,956184802.0,143.0,PRIVADO-BENÉFICO (IGLESIA),PRIVADO-BENÉFICO (IGLESIA),GENERAL,,SI,NO,36.69151574999999,-6.149739848779506
110239,HOSPITAL JEREZ PUERTA DEL SUR,ANDALUCÍA,CÁDIZ,Jerez de la Frontera,"AV. PUERTA DEL SUR, S/N",11408,956357100.0,956357170.0,98.0,PRIVADO NO BENÉFICO,PRIVADO NO BENÉFICO,GENERAL,,NO,NO,36.66943055,-6.139789825134409
110110,HOSPITAL UNIVERSITARIO DE JEREZ DE LA FRONTERA,ANDALUCÍA,CÁDIZ,Jerez de la Frontera,"RONDA DE CIRCUNVALACIÓN, S/N",11408,956032075.0,956032239.0,498.0,SEGURIDAD SOCIAL,SERVICIO ANDALUZ DE SALUD,GENERAL,,NO,SI,,
110103,CLÍNICA  LOS ÁLAMOS,ANDALUCÍA,CÁDIZ,Jerez de la Frontera,"AV. DE TAMARIX, 4",11407,956182244.0,956308811.0,15.0,PRIVADO NO BENÉFICO,PRIVADO NO BENÉFICO,GENERAL,,NO,NO,36.70414005,-6.130589137056326
250221,REEIXIR,CATALUÑA,LLEIDA,Juneda,"CR AFORES, S/N",25430,973269543.0,,44.0,PRIVADO NO BENÉFICO,PRIVADO NO BENÉFICO,PSIQUIÁTRICO,,NO,NO,,
10088,HOSPITAL DE LEZA,PAÍS VASCO,ÁLAVA,Laguardia,"CTRA. VITORIA - LOGROÑO, KM. 59",1309,945006900.0,945006901.0,63.0,COMUNIDAD AUTÓNOMA,SERVICIO VASCO DE SALUD-OSAKIDETZA,GENERAL,,NO,NO,42.575730500000006,-2.638496358062934
330254,FUNDACIÓN SANATORIO ADARO,PPDO. DE ASTURIAS,ASTURIAS,Langreo,"JOVE Y CANELLA, 1",33900,985681754.0,985692151.0,138.0,OTRO PRIVADO BENÉFICO,OTRO PRIVADO-BENÉFICO,GERIATRÍA Y/O LARGA ESTANCIA,,SI,NO,43.292263,-5.675017829314495
330241,HOSPITAL VALLE DEL NALÓN,PPDO. DE ASTURIAS,ASTURIAS,Langreo,POLÍGONO DE RIAÑO,33920,985652000.0,985652006.0,223.0,SEGURIDAD SOCIAL,SERVICIO DE SALUD DEL PRINCIPADO DE ASTURIAS-SESPA,GENERAL,,NO,NO,,
260109,CLÍNICA LOS MANZANOS,LA RIOJA,LA RIOJA,Lardero,HERMANOS MARISTAS S/N,26140,941499490.0,941499491.0,52.0,PRIVADO NO BENÉFICO,PRIVADO NO BENÉFICO,MÉDICO-QUIRÚRGICO,,SI,NO,42.43762485,-2.448216315871017
390134,HOSPITAL COMARCAL DE LAREDO,CANTABRIA,CANTABRIA,Laredo,"AV. DE LOS DERECHOS HUMANOS, S/N",39770,942638500.0,942607876.0,131.0,SEGURIDAD SOCIAL,SERVICIO CÁNTABRO DE SALUD-SCS,GENERAL,,NO,NO,43.413843400000005,-3.441714544189232
410454,HOSPITAL DE ALTA RESOLUCIÓN DE LEBRIJA,ANDALUCÍA,SEVILLA,Lebrija,"AVDA. EL CUERVO, S/N",41740,,,22.0,COMUNIDAD AUTÓNOMA,SERVICIO ANDALUZ DE SALUD,GENERAL,,NO,NO,36.91037325,-6.07271142128867
280838,HOSPITAL UNIVERSITARIO SEVERO OCHOA,MADRID,MADRID,Leganés,AVENIDA DE ORELLANA S/Nº,28911,914818000.0,916940717.0,386.0,SEGURIDAD SOCIAL,SERVICIO MADRILEÑO DE SALUD,GENERAL,,NO,SI,,
280843,INSTITUTO PSIQUIÁTRICO SERVICIOS DE SALUD MENTAL JOSÉ GERMAIN-1 LUNA,MADRID,MADRID,Leganés,"LA LUNA, 1",28911,915866767.0,915866543.0,0.0,COMUNIDAD AUTÓNOMA,SERVICIO MADRILEÑO DE SALUD,PSIQUIÁTRICO,,NO,SI,,
281427,INSTITUTO PSIQUIÁTRICO SERVICIOS DE SALUD MENTAL JOSÉ GERMAIN,MADRID,MADRID,Leganés,"LA LUNA, 1",28911,915866767.0,915866543.0,178.0,COMUNIDAD AUTÓNOMA,SERVICIO MADRILEÑO DE SALUD,PSIQUIÁTRICO,,NO,SI,,
281438,INSTITUTO PSIQUIÁTRICO SERVICIOS DE SALUD MENTAL JOSÉ GERMAIN-2 ARAGÓN,MADRID,MADRID,Leganés,"C/ ARAGÓN,17",28914,915866767.0,915866543.0,0.0,COMUNIDAD AUTÓNOMA,SERVICIO MADRILEÑO DE SALUD,PSIQUIÁTRICO,,NO,SI,,
210148,HOSPITAL VIRGEN DE LA BELLA,ANDALUCÍA,HUELVA,Lepe,"AVENIDA LAS ROSAS, S/N",21440,649902722.0,959012125.0,61.0,PRIVADO NO BENÉFICO,PRIVADO NO BENÉFICO,GENERAL,,NO,NO,37.26043,-7.1942062310899315
230079,HOSPITAL SAN AGUSTÍN,ANDALUCÍA,JAÉN,Linares,"AVDA. DE SAN CRISTÓBAL, S/N",23700,953024200.0,953024315.0,204.0,COMUNIDAD AUTÓNOMA,SERVICIO ANDALUZ DE SALUD,GENERAL,,NO,SI,43.551953,-5.9357555
110316,HOSPITAL DE LA LÍNEA DE LA CONCEPCIÓN,ANDALUCÍA,CÁDIZ,"Línea de la Concepción, La","RONDA NORTE, ESQ. C/ GABRIEL MIRÓ",11300,956026500.0,956026563.0,243.0,COMUNIDAD AUTÓNOMA,SERVICIO ANDALUZ DE SALUD,GENERAL,,NO,NO,36.1677899,-5.3482396
330321,"INSTITUTO SALUD MENTAL PÉREZ-ESPINOSA ORIA, S.L.",PPDO. DE ASTURIAS,ASTURIAS,Llanera,"LG SANTA ROSA, Nº 6",33690,985771677.0,985772566.0,42.0,PRIVADO NO BENÉFICO,PRIVADO NO BENÉFICO,PSIQUIÁTRICO,,NO,NO,,
250232,HOSPITAL SANT JOAN DE DÉU LLEIDA,CATALUÑA,LLEIDA,Lleida,"AV CANADENCA, 28",25001,973740010.0,,130.0,PRIVADO-BENÉFICO (IGLESIA),PRIVADO-BENÉFICO (IGLESIA),PSIQUIÁTRICO,,NO,NO,41.6005176,0.6351647
60114,HOSPITAL GENERAL DE LLERENA,EXTREMADURA,BADAJOZ,Llerena,"AVDA. BADAJOZ, 1",6900,924877000.0,924870926.0,0.0,SEGURIDAD SOCIAL,SERVICIO EXTREMEÑO DE SALUD-SES,GENERAL,,NO,SI,38.2427771,-6.0131725
60219,COMPLEJO HOSPITALARIO LLERENA-ZAFRA,EXTREMADURA,BADAJOZ,Llerena,"AVDA. BADAJOZ, 1",6900,924877000.0,924870926.0,227.0,COMUNIDAD AUTÓNOMA,SERVICIO EXTREMEÑO DE SALUD-SES,GENERAL,,NO,SI,,
460392,HOSPITAL DE LLÍRIA,COMUNIDAD VALENCIANA,VALENCIA,Llíria,"PARATGE CABEÇÒ DE L'AGUILA, CV 35, S/N",46160,962718800.0,,90.0,COMUNIDAD AUTÓNOMA,CONSELLERIA DE SANIDAD. G. VALENCIANA,GENERAL,,NO,NO,39.6411595,-0.6191600361769081
170160,HOSPITAL SOCIOSANITARI DE LLORET DE MAR,CATALUÑA,GIRONA,Lloret de Mar,"CR VALL DE VENECIA,, 59",17310,972364736.0,972372602.0,63.0,MUNICIPIO,OTROS PÚBLICOS,GERIATRÍA Y/O LARGA ESTANCIA,,NO,NO,,
70423,HOSPITAL CLINIC BALEAR,ILLES BALEARS,ILLES BALEARS,Llucmajor,PASEO  ARBREDA  S/N,7609,971443030.0,971440431.0,34.0,PRIVADO NO BENÉFICO,PRIVADO NO BENÉFICO,GENERAL,,NO,NO,39.490514700000006,2.7404978245327083
180133,HOSPITAL DE ALTA RESOLUCIÓN DE LOJA,ANDALUCÍA,GRANADA,Loja,"AVDA. TIERNO GALVÁN, S/N",18300,958338100.0,958338197.0,22.0,COMUNIDAD AUTÓNOMA,COMUNIDAD AUTÓNOMA,GENERAL,,NO,NO,,
300217,HOSPITAL VIRGEN DEL ALCÁZAR DE LORCA,REGIÓN DE MURCIA,MURCIA,Lorca,"ALAMEDA DE LOS TRISTES, S/N",30800,968468600.0,968468612.0,175.0,PRIVADO NO BENÉFICO,PRIVADO NO BENÉFICO,GERIATRÍA Y/O LARGA ESTANCIA,,SI,NO,37.66962305,-1.6959193093937857
300256,HOSPITAL RAFAEL MÉNDEZ,REGIÓN DE MURCIA,MURCIA,Lorca,"CTRA. NACIONAL 340, KM. 589",30817,968445500.0,968442421.0,287.0,SEGURIDAD SOCIAL,SERVICIO MURCIANO DE SALUD,GENERAL,,NO,SI,,
280856,FREMAP HOSPITAL Y CENTRO DE REHABILITACIÓN DE MAJADAHONDA,MADRID,MADRID,Majadahonda,"CTRA. DE POZUELO, 61",28222,916265642.0,916392607.0,116.0,MATEP,MATEP,TRAUMATOLOGÍA Y/O REHABILITACIÓN,,NO,SI,,
281315,HOSPITAL UNIVERSITARIO PUERTA DE HIERRO MAJADAHONDA,MADRID,MADRID,Majadahonda,"JOAQUÍN RODRIGO, 2",28222,911916000.0,913734661.0,613.0,COMUNIDAD AUTÓNOMA,SERVICIO MADRILEÑO DE SALUD,GENERAL,,NO,SI,40.45025765,-3.8737240820829295
70309,HOSPITAL MANACOR,ILLES BALEARS,ILLES BALEARS,Manacor,"CRTA. MANACOR-ALCUDIA, S/N",7500,971847000.0,971847010.0,224.0,SEGURIDAD SOCIAL,SERVEI DE SALUT DE LES ILLES BALEARS- IB-SALUT,GENERAL,,NO,SI,39.5780492,3.2085141
70412,HOSPITAL DE LLEVANT,ILLES BALEARS,ILLES BALEARS,Manacor,"ESCAMARLÁ, 6  (PORTO CRISTO)",7680,971822400.0,971822020.0,70.0,PRIVADO NO BENÉFICO,PRIVADO NO BENÉFICO,GENERAL,,NO,NO,39.545235399999996,3.3297905718902605
460370,HOSPITAL DE MANISES,COMUNIDAD VALENCIANA,VALENCIA,Manises,"AVDA. GENERALITAT VALENCIANA, 50",46940,961845000.0,961849182.0,354.0,COMUNIDAD AUTÓNOMA,CONSELLERIA DE SANIDAD. G. VALENCIANA,GENERAL,Concesión Administrativa a Entidad Privada,NO,SI,39.4855816,-0.4529130852357861
80826,HOSPITAL  DE  SANT  JAUME,CATALUÑA,BARCELONA,Manlleu,"CT D'OLOT, 7",8560,938506565.0,938507196.0,90.0,OTRO PRIVADO BENÉFICO,OTROS PÚBLICOS,GERIATRÍA Y/O LARGA ESTANCIA,,NO,NO,42.1872302,2.0242654013144588
80863,HOSPITAL DE SANT JOAN DE DÉU (MANRESA),CATALUÑA,BARCELONA,Manresa,"CR DOCTOR  JOAN  SOLER, 1-3",8243,938732550.0,938724931.0,280.0,OTRO PRIVADO BENÉFICO,OTRO PRIVADO-BENÉFICO,GENERAL,,,SI,,
80832,CLÍNICA SANT JOSEP,CATALUÑA,BARCELONA,Manresa,"CR CAPUTXINS, 16",8241,938744050.0,938741254.0,95.0,OTRO PRIVADO BENÉFICO,OTRO PRIVADO-BENÉFICO,GENERAL,,NO,SI,41.72265295,1.8323943362254926
80850,CENTRE HOSPITALARI.,CATALUÑA,BARCELONA,Manresa,"AV BASES DE MANRESA, 6-8",8242,938732550.0,938741004.0,309.0,OTRO PRIVADO BENÉFICO,OTRO PRIVADO-BENÉFICO,GENERAL,,,SI,41.735449,1.8251179
80879,HOSPITAL DE SANT ANDREU,CATALUÑA,BARCELONA,Manresa,"CR REMEI DE DALT, 3",8241,938743312.0,938731504.0,191.0,OTRO PRIVADO BENÉFICO,OTRO PRIVADO-BENÉFICO,GERIATRÍA Y/O LARGA ESTANCIA,,NO,NO,41.4366293,2.1911382
130065,HOSPITAL VIRGEN DE ALTAGRACIA,CASTILLA-LA MANCHA,CIUDAD REAL,Manzanares,"AVENIDAD DON EMILIANO GARCÍA ROLDÁN, 2",13200,926646000.0,926614408.0,118.0,SEGURIDAD SOCIAL,SERVICIO DE SALUD DE CASTILLA-LA MANCHA-SESCAM,GENERAL,,NO,NO,38.9992939,-3.361724690763233
70388,HOSPITAL MATEU ORFILA,ILLES BALEARS,ILLES BALEARS,Maó-Mahón,"RONDA MALBÚGER, 1",7703,971487000.0,971487011.0,142.0,COMUNIDAD AUTÓNOMA,SERVEI DE SALUT DE LES ILLES BALEARS- IB-SALUT,GENERAL,,NO,SI,39.8827967,4.2527682
70295,CLINICA JUANEDA MAHON,ILLES BALEARS,ILLES BALEARS,Maó-Mahón,"AV. VIVES LLULL, 6",7703,971351115.0,971369163.0,18.0,PRIVADO NO BENÉFICO,PRIVADO NO BENÉFICO,GENERAL,,NO,NO,39.8864376,4.2557953
290472,CENTRO DE REPRODUCCIÓN ASISTIDA DE MARBELLA (CERAM),ANDALUCÍA,MALAGA,Marbella,"C/ MAESTRA DOÑA CAROLA, 8 - URB. EL HIGUERAL",29602,952829035.0,952773256.0,22.0,PRIVADO NO BENÉFICO,PRIVADO NO BENÉFICO,GENERAL,,NO,NO,,
290494,HELICÓPTEROS SANITARIOS HOSPITAL,ANDALUCÍA,MALAGA,Marbella,"CARRETERA NACIONAL 340, KM. 175 (PUERTO BANÚS)",29600,952816767.0,,10.0,PRIVADO NO BENÉFICO,PRIVADO NO BENÉFICO,GENERAL,,NO,NO,,
290461,CLÍNICA OCHOA,ANDALUCÍA,MALAGA,Marbella,"AVDA. SEVERO OCHOA, S/N, EDIFICIO MAYORAL",29603,952861400.0,952860888.0,12.0,PRIVADO NO BENÉFICO,PRIVADO NO BENÉFICO,GENERAL,,NO,NO,,
290287,HOSPITAL COSTA DEL SOL,ANDALUCÍA,MALAGA,Marbella,"AUTOVÍA A-7, KM. 187",29603,952828250.0,952823219.0,408.0,COMUNIDAD AUTÓNOMA,SERVICIO ANDALUZ DE SALUD,GENERAL,Empresa Pública,NO,SI,,
290359,HC MARBELLA INTERNATIONAL HOSPITAL,ANDALUCÍA,MALAGA,Marbella,"URB. LAS MIMOSAS. CASA SANTA ISABEL, S/N (NUEVA ANDALUCÍA)",29660,952908628.0,952908749.0,12.0,PRIVADO NO BENÉFICO,PRIVADO NO BENÉFICO,GENERAL,,NO,NO,36.485409,-4.9705323
290173,HOSPITAL QUIRONSALUD MARBELLA,ANDALUCÍA,MALAGA,Marbella,"AV. SEVERO OCHOA, 22",29603,952774200.0,951913041.0,75.0,PRIVADO NO BENÉFICO,PRIVADO NO BENÉFICO,GENERAL,,NO,NO,36.50859215,-4.874189481982892
80885,GERMANES HOSPITALÀRIES. HOSPITAL SAGRAT COR,CATALUÑA,BARCELONA,Martorell,"AV COMTE DE LLOBREGAT, 117",8760,937752200.0,937751994.0,488.0,PRIVADO-BENÉFICO (IGLESIA),PRIVADO-BENÉFICO (IGLESIA),PSIQUIÁTRICO,,NO,SI,,
80898,FUNDACIÓ HOSPITAL SANT JOAN DE DÉU,CATALUÑA,BARCELONA,Martorell,"AV MANCOMUNITATS COMARCALS, 1",8760,937742020.0,937753706.0,112.0,OTRO PRIVADO BENÉFICO,OTRO PRIVADO-BENÉFICO,GENERAL,,,NO,,
81997,"CQM CLÍNIC MARESME, SL",CATALUÑA,BARCELONA,Mataró,"CR LEPANT, 13-21",8301,937556219.0,937904496.0,10.0,PRIVADO NO BENÉFICO,PRIVADO NO BENÉFICO,GENERAL,,NO,NO,,
81580,ANTIC HOSPITAL DE SANT JAUME I SANTA MAGDALENA,CATALUÑA,BARCELONA,Mataró,"CR HOSPITAL, 29-31",8301,937582800.0,937582813.0,70.0,ENTIDADES PÚBLICAS,OTROS PÚBLICOS,GERIATRÍA Y/O LARGA ESTANCIA,,NO,NO,,
81326,HOSPITAL DE MATARÓ,CATALUÑA,BARCELONA,Mataró,"CT CIRERA, 230",8304,937417700.0,937417733.0,402.0,COMUNIDAD AUTÓNOMA,OTROS PÚBLICOS,GENERAL,,,SI,41.555771899999996,2.4303600745236045
81213,HESTIA MARESME,CATALUÑA,BARCELONA,Mataró,"CR LEPANT, 13-21",8301,931165279.0,937577251.0,125.0,PRIVADO NO BENÉFICO,PRIVADO NO BENÉFICO,GERIATRÍA Y/O LARGA ESTANCIA,,NO,NO,,
470091,HOSPITAL MEDINA DEL CAMPO,CASTILLA Y LEÓN,VALLADOLID,Medina del Campo,"CALLE DE PEÑARANDA,  24",47400,983838000.0,983838007.0,119.0,SEGURIDAD SOCIAL,SANIDAD CASTILLA Y LEÓN-SACYL,GENERAL,,NO,NO,41.3085496,-4.9150256
200258,HOSPITAL DE MENDARO,PAÍS VASCO,GUIPÚZCOA,Mendaro,"Bº. MENDAROZABAL, S/N",20850,943032800.0,943032888.0,119.0,COMUNIDAD AUTÓNOMA,SERVICIO VASCO DE SALUD-OSAKIDETZA,GENERAL,,NO,SI,43.2525004,-2.3858392
60129,HOSPITAL DE MÉRIDA,EXTREMADURA,BADAJOZ,Mérida,"AVDA. ANTONIO CAMPOS HOYOS, Nº 26",6800,924381000.0,924381012.0,0.0,COMUNIDAD AUTÓNOMA,SERVICIO EXTREMEÑO DE SALUD-SES,GENERAL,,NO,SI,38.9122351,-6.3635321
60275,CASAVERDE. CENTRO DE REHABILITACIÓN NEUROLÓGICO DE EXTREMADURA,EXTREMADURA,BADAJOZ,Mérida,"AVDA. ADOLFO SUÁREZ GONZÁLEZ, 56",6800,924380330.0,924577213.0,100.0,PRIVADO NO BENÉFICO,PRIVADO NO BENÉFICO,REHABILITACIÓN PSICOFÍSICA,,SI,NO,,
60264,COMPLEJO HOSPITALARIO DEL ÁREA DE SALUD DE MÉRIDA,EXTREMADURA,BADAJOZ,Mérida,"AVDA. ANTONIO CAMPOS HOYOS, Nº 26",6800,924381000.0,924381012.0,381.0,ENTIDADES PÚBLICAS,SERVICIO EXTREMEÑO DE SALUD-SES,GENERAL,,NO,SI,,
60135,CENTRO SOCIOSANITARIO DE MÉRIDA,EXTREMADURA,BADAJOZ,Mérida,"CTRA. VALVERDE-MÉRIDA, KM. 2",6800,924388081.0,924388083.0,270.0,COMUNIDAD AUTÓNOMA,COMUNIDAD AUTÓNOMA,PSIQUIÁTRICO,D. Funcional: SEPAD (Ente Público adscrito a la Consejería de Sanidad y Dependencia).,NO,SI,,
330267,HOSPITAL V. ÁLVAREZ BUYLLA,PPDO. DE ASTURIAS,ASTURIAS,Mieres,"VISTALEGRE-SANTULLANO,2",33611,985458500.0,985458509.0,176.0,SEGURIDAD SOCIAL,SERVICIO DE SALUD DEL PRINCIPADO DE ASTURIAS-SESPA,GENERAL,,NO,SI,43.226445,-5.781431708362348
210097,HOSPITAL DE RIOTINTO,ANDALUCÍA,HUELVA,Minas de Riotinto,"AVDA. LA ESQUILA, 5",21660,959025295.0,959025297.0,118.0,COMUNIDAD AUTÓNOMA,SERVICIO ANDALUZ DE SALUD,GENERAL,,NO,SI,37.69335615,-6.5978415483963015
90098,HOSPITAL SANTIAGO APÓSTOL,CASTILLA Y LEÓN,BURGOS,Miranda de Ebro,"CTRA. DE ORÓN, S/N",9200,947349000.0,947349014.0,114.0,SEGURIDAD SOCIAL,SANIDAD CASTILLA Y LEÓN-SACYL,GENERAL,,NO,NO,40.07658065,-2.137442285505631
460381,HOSPITAL DE CRÓNICOS DE MISLATA (ANTIGUO HOSPITAL MILITAR DE VALENCIA),COMUNIDAD VALENCIANA,VALENCIA,Mislata,CALLE DOLORES IBARRURI 1,46920,963874693.0,963874699.0,115.0,COMUNIDAD AUTÓNOMA,CONSELLERIA DE SANIDAD. G. VALENCIANA,GERIATRÍA Y/O LARGA ESTANCIA,Concesión Administrativa a Entidad Privada,NO,NO,,
300294,HOSPITAL DE MOLINA,REGIÓN DE MURCIA,MURCIA,Molina de Segura,"ASOCIACIÓN, S/N",30500,968644030.0,968644272.0,83.0,MUNICIPIO,PRIVADO NO BENÉFICO,MÉDICO-QUIRÚRGICO,,SI,NO,38.0598002,-1.2148774033825962
80930,"CENTRE MÈDIC MOLINS, SL",CATALUÑA,BARCELONA,Molins de Rei,"PS DEL TERRAPLÈ, 97",8750,936680004.0,937721570.0,177.0,PRIVADO-BENÉFICO (IGLESIA),PRIVADO NO BENÉFICO,GERIATRÍA Y/O LARGA ESTANCIA,,NO,NO,,
81841,PARC SANITARI SANT JOAN DE DÉU - TIL·LERS,CATALUÑA,BARCELONA,Mollet del Vallès,"CR MOSSOS D'ESQUADRA, 3",8100,935705289.0,935702648.0,10.0,COMUNIDAD AUTÓNOMA,OTRO PRIVADO-BENÉFICO,PSIQUIÁTRICO,,NO,NO,,
82178,HOSPITAL SOCIOSANITARI DE MOLLET,CATALUÑA,BARCELONA,Mollet del Vallès,"CR SANT LLORENÇ, 39-41",8100,935760300.0,935760320.0,109.0,OTRO PRIVADO BENÉFICO,OTRO PRIVADO-BENÉFICO,GERIATRÍA Y/O LARGA ESTANCIA,,NO,NO,41.5411558,2.211018059238179
80945,HOSPITAL DE MOLLET,CATALUÑA,BARCELONA,Mollet del Vallès,"RD PINETONS, 6-8",8100,935760300.0,935760306.0,164.0,COMUNIDAD AUTÓNOMA,OTRO PRIVADO-BENÉFICO,GENERAL,,,NO,,
270109,HOSPITAL DE MONFORTE (*),GALICIA,LUGO,Monforte de Lemos,"CORREDOIRA, S/N",27400,982417900.0,982404006.0,140.0,SEGURIDAD SOCIAL,SERVICIO GALLEGO DE SALUD-SERGAS,GENERAL,RM compartida (3 unidades móviles RM),NO,NO,,
140195,HOSPITAL DE MONTILLA,ANDALUCÍA,CÓRDOBA,Montilla,"CRTRA. MONTORO-PUENTE GENIL, KM 65,350",14550,957022600.0,957022606.0,92.0,COMUNIDAD AUTÓNOMA,SERVICIO ANDALUZ DE SALUD,GENERAL,,NO,NO,37.5712787,-4.640150789467329
430081,HOSPITAL COMARCAL MÓRA D'EBRE,CATALUÑA,TARRAGONA,Móra d'Ebre,"CR BENET MESSEGUER, S/N",43740,977401863.0,977401214.0,120.0,COMUNIDAD AUTÓNOMA,PRIVADO NO BENÉFICO,GENERAL,,,NO,,
410248,HOSPITAL DE ALTA RESOLUCIÓN DE MORÓN DE LA FRONTERA,ANDALUCÍA,SEVILLA,Morón de la Frontera,"PLAZA DE SAN FRANCISCO, S/N",41530,954851008.0,954852083.0,12.0,COMUNIDAD AUTÓNOMA,SERVICIO ANDALUZ DE SALUD,GENERAL,,NO,NO,,
281360,HM UNIVERSITARIO PUERTA DEL SUR,MADRID,MADRID,Móstoles,"AVENIDA DE CARLOS V, 70",28938,912673100.0,912673193.0,182.0,PRIVADO NO BENÉFICO,PRIVADO NO BENÉFICO,GENERAL,,SI,SI,,
280894,HOSPITAL UNIVERSITARIO DE MÓSTOLES,MADRID,MADRID,Móstoles,C/ DR. LUIS MONTES S/N (ANTIGUA C/ RÍO JÚCAR),28935,916648600.0,916471917.0,332.0,SEGURIDAD SOCIAL,SERVICIO MADRILEÑO DE SALUD,GENERAL,,NO,SI,40.31575505,-3.8774710524495086
281348,HOSPITAL REY JUAN CARLOS,MADRID,MADRID,Móstoles,GLADIOLO S/N,28933,914816225.0,914816216.0,364.0,COMUNIDAD AUTÓNOMA,SERVICIO MADRILEÑO DE SALUD,GENERAL,,NO,SI,40.5572686,-5.6718942
180107,HOSPITAL SANTA ANA,ANDALUCÍA,GRANADA,Motril,"AV. ENRIQUE MARTÍN CUEVAS, S/N",18600,958038200.0,958038201.0,187.0,COMUNIDAD AUTÓNOMA,SERVICIO ANDALUZ DE SALUD,GENERAL,,NO,SI,,
70260,HOSPITAL GENERAL DE MURO,ILLES BALEARS,ILLES BALEARS,Muro,"VELER, 1. PLAYA DE MURO",7458,971891900.0,971892495.0,85.0,PRIVADO NO BENÉFICO,PRIVADO NO BENÉFICO,GENERAL,,SI,NO,,
30362,CENTRO DE REHABILITACIÓN NEUROLÓGICA CASAVERDE,COMUNIDAD VALENCIANA,ALICANTE,Mutxamel,"CALLE PONENT, 15",3110,965950711.0,965950865.0,40.0,PRIVADO NO BENÉFICO,PRIVADO NO BENÉFICO,REHABILITACIÓN PSICOFÍSICA,,NO,NO,,
281382,HOSPITAL CASAVERDE DE MADRID,MADRID,MADRID,Navalcarnero,"C/ JOSÉ MARÍA LÓPEZ Nº 3 (ANTIGUO PASEO DE SAN DAMIÁN ,3)",28600,911609910.0,,100.0,PRIVADO NO BENÉFICO,PRIVADO NO BENÉFICO,REHABILITACIÓN PSICOFÍSICA,,NO,NO,,
100054,HOSPITAL CAMPO ARAÑUELO,EXTREMADURA,CÁCERES,Navalmoral de la Mata,"TOMÁS YUSTE MIRÓN, S/N",10300,927548900.0,927544808.0,102.0,COMUNIDAD AUTÓNOMA,SERVICIO EXTREMEÑO DE SALUD-SES,GENERAL,,NO,SI,39.88807645,-5.561008099208526
290483,CLÍNICA RINCÓN,ANDALUCÍA,MALAGA,Nerja,C/ ANTONIO FERRANDIS,29780,952965126.0,952526102.0,4.0,PRIVADO NO BENÉFICO,PRIVADO NO BENÉFICO,GENERAL,,NO,NO,36.7471576,-3.8806526
250181,"CASTELL D'OLIANA RESIDENCIAL,S.L",CATALUÑA,LLEIDA,Oliana,"CT DE LLEIDA A PUIGCERDÀ, .89",25790,973463030.0,973463131.0,20.0,PRIVADO NO BENÉFICO,PRIVADO NO BENÉFICO,PSIQUIÁTRICO,,NO,NO,,
170176,HOSPITAL D'OLOT I COMARCAL DE LA GARROTXA,CATALUÑA,GIRONA,Olot,"AV PAÏSOS  CATALANS, 86",17800,972261800.0,972269703.0,137.0,MUNICIPIO,OTRO PRIVADO-BENÉFICO,GENERAL,,,NO,42.1874622,2.4675162
460235,HOSPITAL GENERAL DE ONTINYENT,COMUNIDAD VALENCIANA,VALENCIA,Ontinyent,"AVENIDA DE FRANCISCO CERDÁ, 3",46870,962989200.0,962989250.0,56.0,COMUNIDAD AUTÓNOMA,CONSELLERIA DE SANIDAD. G. VALENCIANA,GENERAL,,NO,NO,38.82010695,-0.6031734317191494
30211,HOSPITAL VEGA BAJA DE ORIHUELA,COMUNIDAD VALENCIANA,ALICANTE,Orihuela,"CARRETERA ORIHUELA - ALMORADÍ, S/N",3314,966749000.0,966749069.0,361.0,COMUNIDAD AUTÓNOMA,CONSELLERIA DE SANIDAD. G. VALENCIANA,GENERAL,,NO,SI,38.08822855,-0.853895188610752
380201,CLÍNICA VIDA,CANARIAS,SANTA CRUZ DE TENERIFE,"Orotava, La","MAGNOLIAS, 2 (URBANIZACIÓN SAN MIGUEL)",38312,922330550.0,922331862.0,31.0,PRIVADO NO BENÉFICO,PRIVADO NO BENÉFICO,GENERAL,,NO,NO,,
410251,HOSPITAL LA MERCED,ANDALUCÍA,SEVILLA,Osuna,"AVDA. DE LA CONSTITUCIÓN, 2",41640,955077200.0,955077217.0,225.0,COMUNIDAD AUTÓNOMA,SERVICIO ANDALUZ DE SALUD,GENERAL,,NO,SI,,
170195,HOSPITAL DE PALAMÓS,CATALUÑA,GIRONA,Palamós,"CR HOSPITAL., 36",17230,972600160.0,972602437.0,136.0,OTRO PRIVADO BENÉFICO,OTRO PRIVADO-BENÉFICO,GENERAL,,,SI,41.8528079,3.13192845170468
170312,CENTRE PALAMÓS GENT GRAN,CATALUÑA,GIRONA,Palamós,"CR PROVENÇA, 36",17230,972600160.0,,100.0,OTRO PRIVADO BENÉFICO,OTRO PRIVADO-BENÉFICO,GERIATRÍA Y/O LARGA ESTANCIA,,NO,NO,41.8524103,3.1232055
400058,UNIDAD DE REHABILITACIÓN PSIQUIÁTRICA NTRA. SRA. DE LA FUENCISLA,CASTILLA Y LEÓN,SEGOVIA,Palazuelos de Eresma,"CTRA. DE LA GRANJA, KM. 7",40194,921421800.0,921420080.0,56.0,DIPUTACIÓN O CABILDO,DIPUTACIÓN O CABILDO,PSIQUIÁTRICO,,SI,NO,,
281304,HOSPITAL UNIVERSITARIO INFANTA CRISTINA,MADRID,MADRID,Parla,"AV. 9 DE JUNIO, 2",28981,911913500.0,911913960.0,188.0,COMUNIDAD AUTÓNOMA,SERVICIO MADRILEÑO DE SALUD,GENERAL,,NO,SI,,
330306,HOSPITAL DEL ORIENTE DE ASTURIAS FRANCISCO GRANDE COVIÁN,PPDO. DE ASTURIAS,ASTURIAS,Parres,"LA CASTAÑERA, S/N",33540,985840032.0,985841550.0,90.0,COMUNIDAD AUTÓNOMA,SERVICIO DE SALUD DEL PRINCIPADO DE ASTURIAS-SESPA,GENERAL,,NO,SI,,
140229,HOSPITAL DE ALTA RESOLUCIÓN VALLE DEL GUADIATO,ANDALUCÍA,CÓRDOBA,Peñarroya-Pueblonuevo,"PARAJE CERRO DEL CAMELLO, S/N",14200,957579100.0,957579150.0,17.0,COMUNIDAD AUTÓNOMA,SERVICIO ANDALUZ DE SALUD,GENERAL,,NO,NO,38.308628999999996,-5.27073139019312
150308,SANATORIO LA ROBLEDA,GALICIA,A CORUÑA,"Pino, O","SANTISO, S/N",15821,981585811.0,981585860.0,96.0,PRIVADO NO BENÉFICO,PRIVADO NO BENÉFICO,PSIQUIÁTRICO,,SI,NO,42.9259822,-8.398401498657394
100067,HOSPITAL VIRGEN DEL PUERTO,EXTREMADURA,CÁCERES,Plasencia,"PARAJE VALCORCHERO, S/N",10600,927428300.0,927428324.0,250.0,COMUNIDAD AUTÓNOMA,SERVICIO EXTREMEÑO DE SALUD-SES,GENERAL,,NO,SI,40.0490084,-6.0854108
100073,HOSPITAL SOCIOSANITARIO DE PLASENCIA,EXTREMADURA,CÁCERES,Plasencia,"CTRA. DE CÁCERES, S/N",10600,927428800.0,927421836.0,330.0,COMUNIDAD AUTÓNOMA,SERVICIO EXTREMEÑO DE SALUD-SES,PSIQUIÁTRICO,,NO,SI,,
100106,CLÍNICA SOQUIMEX,EXTREMADURA,CÁCERES,Plasencia,"AVDA. LA SALLE, 22",10600,927418484.0,927424059.0,20.0,PRIVADO NO BENÉFICO,PRIVADO NO BENÉFICO,GENERAL,,NO,NO,,
360101,INSTITUTO DE NEURO-REHABILITACION QUIRONSALUD PONTEVEDRA,GALICIA,PONTEVEDRA,Poio,"ANDURIQUE, 11",36163,986856800.0,986864122.0,30.0,PRIVADO NO BENÉFICO,PRIVADO NO BENÉFICO,OTROS MONOGRÁFICOS,,SI,NO,,
240212,CLÍNICA PONFERRADA,CASTILLA Y LEÓN,LEÓN,Ponferrada,"AV. DE GALICIA, 1",24404,987423732.0,987429102.0,46.0,PRIVADO NO BENÉFICO,PRIVADO NO BENÉFICO,GENERAL,,SI,NO,42.553220350000004,-6.611720531067165
240140,HOSPITAL DE LA REINA,CASTILLA Y LEÓN,LEÓN,Ponferrada,"HOSPITAL, 26-28",24401,987409109.0,987411945.0,72.0,OTRO PRIVADO BENÉFICO,OTRO PRIVADO-BENÉFICO,GENERAL,,SI,NO,42.54171945,-6.593374974886435
240135,HOSPITAL EL BIERZO,CASTILLA Y LEÓN,LEÓN,Ponferrada,"MÉDICOS SIN FRONTERAS, 7",24404,987455200.0,987455300.0,408.0,SEGURIDAD SOCIAL,SANIDAD CASTILLA Y LEÓN-SACYL,GENERAL,,NO,SI,42.57232105,-6.643670075045846
140121,HOSPITAL VALLE DE LOS PEDROCHES,ANDALUCÍA,CÓRDOBA,Pozoblanco,"C/ JUAN DEL REY CALERO, S/N",14400,957026306.0,957026427.0,124.0,COMUNIDAD AUTÓNOMA,SERVICIO ANDALUZ DE SALUD,GENERAL,,NO,SI,38.5864235,-4.724792
281203,HOSPITAL QUIRÓNSALUD MADRID,MADRID,MADRID,Pozuelo de Alarcón,"DIEGO DE VELAZQUEZ, 1",28223,902151016.0,915183232.0,239.0,PRIVADO NO BENÉFICO,PRIVADO NO BENÉFICO,GENERAL,,SI,SI,40.5997077,-3.7134805
230162,HOSPITAL DE ALTA RESOLUCIÓN SIERRA DE SEGURA,ANDALUCÍA,JAÉN,Puente de Génave,"CRTRA PUENTE DE GÉNAVE-LA PUERTA DE SEGURA KM 0,300",23350,953499012.0,953499162.0,24.0,COMUNIDAD AUTÓNOMA,SERVICIO ANDALUZ DE SALUD,GENERAL,,NO,NO,38.3602509,-2.787342982150075
140218,HOSPITAL DE ALTA RESOLUCIÓN DE PUENTE GENIL,ANDALUCÍA,CÓRDOBA,Puente Genil,"C/ BURGOS, S/N",14500,957615000.0,957615060.0,24.0,COMUNIDAD AUTÓNOMA,SERVICIO ANDALUZ DE SALUD,GENERAL,,NO,NO,,
380223,HOSPITAL BELLEVUE,CANARIAS,SANTA CRUZ DE TENERIFE,Puerto de la Cruz,"ALEMANIA, 4 (URB. SAN FERNANDO)",38400,922368822.0,922370312.0,195.0,PRIVADO NO BENÉFICO,PRIVADO NO BENÉFICO,GENERAL,,SI,NO,,
110162,HOSPITAL GENERAL SANTA MARÍA DEL PUERTO,ANDALUCÍA,CÁDIZ,"Puerto de Santa María, El","VALDÉS, S/N",11500,956017000.0,956017084.0,238.0,PRIVADO NO BENÉFICO,PRIVADO NO BENÉFICO,GENERAL,,NO,NO,,
350389,CLÍNICA PARQUE FUERTEVENTURA,CANARIAS,LAS PALMAS,Puerto del Rosario,"LEÓN Y CASTILLO, ESQ. SECUNDINO ALONSO, S/N",35600,928851500.0,928532113.0,12.0,PRIVADO NO BENÉFICO,PRIVADO NO BENÉFICO,MÉDICO-QUIRÚRGICO,,NO,SI,,
350252,HOSPITAL GENERAL DE FUERTEVENTURA,CANARIAS,LAS PALMAS,Puerto del Rosario,"CTRA. AEROPUERTO, KM. 1",35600,928862000.0,928862137.0,131.0,COMUNIDAD AUTÓNOMA,SERVICIO CANARIO DE SALUD,GENERAL,,NO,SI,,
110184,HOSPITAL UNIVERSITARIO DE PUERTO REAL,ANDALUCÍA,CÁDIZ,Puerto Real,"CARRETERA NACIONAL IV, KM. 665",11510,956005147.0,956005658.0,319.0,COMUNIDAD AUTÓNOMA,SERVICIO ANDALUZ DE SALUD,GENERAL,,NO,SI,,
130071,HOSPITAL SANTA BÁRBARA,CASTILLA-LA MANCHA,CIUDAD REAL,Puertollano,"C/ MALAGÓN, S/N",13500,926421100.0,926415659.0,141.0,SEGURIDAD SOCIAL,SERVICIO DE SALUD DE CASTILLA-LA MANCHA-SESCAM,GENERAL,,NO,NO,41.77195705,-2.471252159575303
170277,CENTRE SOCIOSANITARI DE PUIGCERDÀ,CATALUÑA,GIRONA,Puigcerdà,"CM ANTIC DE LLÍVIA, S/N",17520,972880150.0,972881143.0,52.0,OTRO PRIVADO BENÉFICO,OTRO PRIVADO-BENÉFICO,GERIATRÍA Y/O LARGA ESTANCIA,,NO,NO,,
170334,HOSPITAL DE CERDANYA / HÔPITAL DE CERDAGNE,CATALUÑA,GIRONA,Puigcerdà,"CM D'UR, 31",17520,972114090.0,,66.0,ENTIDADES PÚBLICAS,OTROS PÚBLICOS,GENERAL,,,NO,,
81304,RESIDÈNCIA PUIG-REIG,CATALUÑA,BARCELONA,Puig-reig,"CR LLOBREGAT, 75",8692,938380045.0,,30.0,OTRO PRIVADO BENÉFICO,OTRO PRIVADO-BENÉFICO,GERIATRÍA Y/O LARGA ESTANCIA,,NO,NO,41.97794195,1.8724478033191678
81483,SAR MONT MARTÍ,CATALUÑA,BARCELONA,Puig-reig,"CT CASSERRES (ABANS PO. LA SALA S/N), 1",8692,938290138.0,938381306.0,20.0,PRIVADO NO BENÉFICO,PRIVADO NO BENÉFICO,GERIATRÍA Y/O LARGA ESTANCIA,,NO,NO,,
460288,HOSPITAL GENERAL DE REQUENA,COMUNIDAD VALENCIANA,VALENCIA,Requena,"CALLE CASABLANCA, S/N",46340,962339180.0,962304523.0,113.0,COMUNIDAD AUTÓNOMA,CONSELLERIA DE SANIDAD. G. VALENCIANA,GENERAL,,NO,SI,39.488453899999996,-1.0893597323523463
430249,CENTRE SOCIOSANITARI CIUTAT DE REUS,CATALUÑA,TARRAGONA,Reus,"CM DE TARRAGONA, 10",43204,977300021.0,977772601.0,85.0,PRIVADO NO BENÉFICO,PRIVADO NO BENÉFICO,GERIATRÍA Y/O LARGA ESTANCIA,,NO,NO,,
430094,HOSPITAL UNIVERSITARI DE SANT JOAN DE REUS,CATALUÑA,TARRAGONA,Reus,"AV JOSEP LAPORTE, 2",43204,977310300.0,977323690.0,313.0,MUNICIPIO,MUNICIPIO,GENERAL,,,SI,,
430108,CENTRE MQ REUS,CATALUÑA,TARRAGONA,Reus,"CR ANTONI GAUDÍ, 26",43203,977010800.0,977317399.0,50.0,PRIVADO NO BENÉFICO,PRIVADO NO BENÉFICO,GENERAL,,,NO,,
430115,"VILLABLANCA SERVEIS ASSISTENCIALS, SA",CATALUÑA,TARRAGONA,Reus,"PD BELLISENS, S/N",43205,977390011.0,977392363.0,350.0,PRIVADO NO BENÉFICO,PRIVADO NO BENÉFICO,PSIQUIÁTRICO,,NO,NO,,
430333,UNITAT DE REFERÈNCIA DE PSIQUIATRIA I TRASTORNS DE LA CONDUCTA ALIMENTÀRIA (URPI),CATALUÑA,TARRAGONA,Reus,"AV JOSEP LAPORTE, 2",43204,977338565.0,,20.0,PRIVADO NO BENÉFICO,PRIVADO NO BENÉFICO,PSIQUIÁTRICO,,NO,NO,,
430120,"INSTITUT PERE MATA, S.A",CATALUÑA,TARRAGONA,Reus,"CT DE L'INSTITUT PERE MATA, S/N",43206,977338565.0,977319400.0,727.0,PRIVADO NO BENÉFICO,PRIVADO NO BENÉFICO,PSIQUIÁTRICO,,NO,SI,,
150336,HOSPITAL DA BARBANZA (*),GALICIA,A CORUÑA,Ribeira,"SALMON, S/N",15993,981835985.0,981835999.0,81.0,ENTIDADES PÚBLICAS,SERVICIO GALLEGO DE SALUD-SERGAS,GENERAL,RM compartida (3 unidades móviles RM),NO,NO,42.6952285,-8.8606126
290371,CLÍNICA RINCÓN,ANDALUCÍA,MALAGA,Rincón de la Victoria,"AVDA. DE LA TORRE, 24",29730,902300107.0,902300108.0,7.0,PRIVADO NO BENÉFICO,PRIVADO NO BENÉFICO,OTROS MONOGRÁFICOS,,NO,NO,36.7471576,-3.8806526
82001,SERVEIS SANITARIS LA ROCA DEL VALLES 2,CATALUÑA,BARCELONA,"Roca del Vallès, La","CT MASNOU A GRANOLLERS, ,13",8430,932140100.0,932140179.0,34.0,COMUNIDAD AUTÓNOMA,INSTITUTO CATALÁN DE LA SALUD,GENERAL,,NO,NO,,
290506,HOSPITAL DE LA SERRANÍA,ANDALUCÍA,MALAGA,Ronda,"CTRA. RONDA-SAN PEDRO, KM. 2",29400,951065077.0,951065242.0,150.0,COMUNIDAD AUTÓNOMA,SERVICIO ANDALUZ DE SALUD,GENERAL,,NO,NO,,
80958,HOSPITAL DE SABADELL,CATALUÑA,BARCELONA,Sabadell,"CR PROLONGACIÓ TAULÍ, S/N",8208,937231010.0,937160646.0,861.0,ENTIDADES PÚBLICAS,OTROS PÚBLICOS,GENERAL,,,SI,41.5572661,2.109886237395104
82012,CLÍNICA DEL VALLÈS,CATALUÑA,BARCELONA,Sabadell,"PS RUBIÓ I ORS, 25-27",8203,937283100.0,937283146.0,107.0,PRIVADO NO BENÉFICO,PRIVADO NO BENÉFICO,GENERAL,,,NO,41.532514,2.1177936
82236,CENTRE LA CREUETA,CATALUÑA,BARCELONA,Sabadell,"PL DE LES VAQUES, S/N",8202,937451164.0,,46.0,PRIVADO NO BENÉFICO,PRIVADO NO BENÉFICO,GERIATRÍA Y/O LARGA ESTANCIA,,NO,NO,41.5503852,2.1139115
500172,UNIDAD DE REHABILITACION DE LARGA ESTANCIA,ARAGÓN,ZARAGOZA,Sádaba,"CTRA. DE SOS, S/N",50670,976675479.0,976675454.0,45.0,COMUNIDAD AUTÓNOMA,PRIVADO NO BENÉFICO,PSIQUIÁTRICO,,SI,NO,,
460266,HOSPITAL DE SAGUNTO,COMUNIDAD VALENCIANA,VALENCIA,Sagunto/Sagunt,"AV. RAMÓN Y CAJAL, S/N",46520,962339300.0,962339301.0,252.0,SEGURIDAD SOCIAL,CONSELLERIA DE SANIDAD. G. VALENCIANA,GENERAL,,NO,SI,39.6744027,-0.231082988120229
430300,CENTRE SOCIOSANITARI I RESIDÈNCIA ASSISTIDA SALOU,CATALUÑA,TARRAGONA,Salou,"AV PAU CASALS, 3",43840,977774705.0,977774705.0,30.0,PRIVADO NO BENÉFICO,PRIVADO NO BENÉFICO,GERIATRÍA Y/O LARGA ESTANCIA,,NO,NO,,
170323,CENTRE SOCIOSANITARI PARC HOSPITALARI MARTÍ I JULIÀ,CATALUÑA,GIRONA,Salt,"CR DR. CASTANY, S/N",17190,972182512.0,972182575.0,120.0,COMUNIDAD AUTÓNOMA,OTROS PÚBLICOS,GERIATRÍA Y/O LARGA ESTANCIA,,NO,NO,,
170216,HOSPITAL PSIQUIÀTRIC,CATALUÑA,GIRONA,Salt,"CR DOCTOR CASTANY,, S/N",17190,972182512.0,972182575.0,593.0,COMUNIDAD AUTÓNOMA,OTROS PÚBLICOS,PSIQUIÁTRICO,,NO,NO,39.58452835,2.643167766932394
170301,HOSPITAL SANTA CATERINA-IAS,CATALUÑA,GIRONA,Salt,"AV DOCTOR CASTANY (P. H. MARTÍ I JULIÀ), S/N",17190,972182600.0,972182605.0,178.0,COMUNIDAD AUTÓNOMA,OTROS PÚBLICOS,GENERAL,,,SI,,
240188,HOSPITAL SAN JUAN DE DIOS,CASTILLA Y LEÓN,LEÓN,San Andrés del Rabanedo,"AV. SAN IGNACIO DE LOYOLA, 73",24010,987232500.0,987243470.0,297.0,PRIVADO-BENÉFICO (IGLESIA),PRIVADO-BENÉFICO (IGLESIA),GENERAL,,SI,NO,,
460240,HOSPITAL INTERMUTUAL DE LEVANTE,COMUNIDAD VALENCIANA,VALENCIA,San Antonio de Benagéber,"CARRETERA VALENCIA - ADEMUZ, KM 11",46184,961350250.0,961350477.0,230.0,MATEP,MATEP,TRAUMATOLOGÍA Y/O REHABILITACIÓN,,NO,NO,39.5535333,-0.4825441
350367,HOSPITAL SAN ROQUE MASPALOMAS,CANARIAS,LAS PALMAS,San Bartolomé de Tirajana,"MAR DE SIBERIA, 1",35100,928063600.0,928063644.0,147.0,MUNICIPIO,PRIVADO NO BENÉFICO,GENERAL,,SI,NO,27.74983515,-15.607310066172097
350304,HOSPITAL CLÍNICA ROCA (ROCA GESTIÓN HOSPITALARIA),CANARIAS,LAS PALMAS,San Bartolomé de Tirajana,"BUGANVILLA, 1 (SAN AGUSTÍN)",35100,928769004.0,928761248.0,81.0,PRIVADO NO BENÉFICO,PRIVADO NO BENÉFICO,GENERAL,,SI,NO,,
380178,HOSPITAL UNIVERSITARIO DE CANARIAS (H.U.C),CANARIAS,SANTA CRUZ DE TENERIFE,San Cristóbal de La Laguna,"OFRA, S/N",38320,922678061.0,922653808.0,0.0,COMUNIDAD AUTÓNOMA,SERVICIO CANARIO DE SALUD,GENERAL,,NO,SI,,
380326,COMPLEJO HOSPITALARIO UNIVERSITARIO DE CANARIAS,CANARIAS,SANTA CRUZ DE TENERIFE,San Cristóbal de La Laguna,"OFRA, S/N",38320,922678061.0,922653808.0,826.0,COMUNIDAD AUTÓNOMA,SERVICIO CANARIO DE SALUD,GENERAL,,NO,SI,,
110305,HOSPITAL SAN CARLOS,ANDALUCÍA,CÁDIZ,San Fernando,"PASEO CAPITAN CONFORTO, S/N.",11110,956598100.0,,0.0,COMUNIDAD AUTÓNOMA,SERVICIO ANDALUZ DE SALUD,GENERAL,,NO,NO,,
300222,HOSPITAL GENERAL UNIVERSITARIO LOS ARCOS DEL MAR MENOR,REGIÓN DE MURCIA,MURCIA,San Javier,"PARAJE TORRE OCTAVIO, S/N. (POZO ALEDO)",30739,968565000.0,968565030.0,255.0,COMUNIDAD AUTÓNOMA,SERVICIO MURCIANO DE SALUD,GENERAL,,NO,SI,37.81917095,-0.8598981509356811
280920,HOSPITAL EL ESCORIAL,MADRID,MADRID,San Lorenzo de El Escorial,"CTRA. GUADARRAMA - SAN LORENZO DE EL ESCORIAL, KM. 6,2",28200,918973000.0,918973005.0,91.0,COMUNIDAD AUTÓNOMA,SERVICIO MADRILEÑO DE SALUD,GENERAL,,NO,SI,40.607227,-4.1196385
300339,HOSPITAL DE CUIDADOS MEDIOS VILLADEMAR,REGIÓN DE MURCIA,MURCIA,San Pedro del Pinatar,"AV CONCEJAL MARIANO HENAREJOS, 13",30740,968187346.0,968184822.0,99.0,PRIVADO NO BENÉFICO,PRIVADO NO BENÉFICO,GERIATRÍA Y/O LARGA ESTANCIA,,SI,NO,,
380244,HOSPITAL NUESTRA SEÑORA DE GUADALUPE,CANARIAS,SANTA CRUZ DE TENERIFE,San Sebastián de la Gomera,"EL LANGRERO, S/N",38800,922140200.0,922140250.0,40.0,COMUNIDAD AUTÓNOMA,SERVICIO CANARIO DE SALUD,GENERAL,,NO,NO,,
281258,HOSPITAL UNIVERSITARIO INFANTA SOFÍA,MADRID,MADRID,San Sebastián de los Reyes,"PASEO DE EUROPA,32",28702,911914000.0,911915017.0,271.0,COMUNIDAD AUTÓNOMA,SERVICIO MADRILEÑO DE SALUD,GENERAL,,NO,SI,,
30187,HOSPITAL SANT VICENT DEL RASPEIG,COMUNIDAD VALENCIANA,ALICANTE,San Vicente del Raspeig/Sant Vicent del Raspeig,"CALLE LILLO JUAN, 137",3690,965907700.0,965907703.0,179.0,COMUNIDAD AUTÓNOMA,CONSELLERIA DE SANIDAD. G. VALENCIANA,GERIATRÍA Y/O LARGA ESTANCIA,,NO,NO,38.3964248,-0.5250339
110223,HOSPITAL VIRGEN DEL CAMINO,ANDALUCÍA,CÁDIZ,Sanlúcar de Barrameda,"CRTRA SANLÚCAR-CHIPIONA, S/N",11540,956048068.0,956048058.0,118.0,PRIVADO NO BENÉFICO,PRIVADO NO BENÉFICO,GENERAL,,SI,NO,38.1654484,-0.9306807
81287,RESIDÈNCIA L'ESTADA,CATALUÑA,BARCELONA,Sant Andreu de Llavaneres,"CM DE LA MASIA, S/N",8392,937926612.0,937926287.0,60.0,PRIVADO NO BENÉFICO,PRIVADO NO BENÉFICO,GERIATRÍA Y/O LARGA ESTANCIA,,NO,NO,,
80983,PARC SANITARI SANT JOAN DE DÉU - RECINTE SANT BOI.,CATALUÑA,BARCELONA,Sant Boi de Llobregat,"CR DR. ANTONI PUJADAS, 42",8830,936406350.0,936520051.0,1065.0,PRIVADO-BENÉFICO (IGLESIA),OTRO PRIVADO-BENÉFICO,GENERAL,,,SI,,
80977,"BENITO MENNI,COMPLEX ASSISTENCIAL EN SALUT MENTAL.",CATALUÑA,BARCELONA,Sant Boi de Llobregat,"CR DR. ANTONI PUJADAS, 38",8830,936402400.0,936400268.0,774.0,PRIVADO-BENÉFICO (IGLESIA),PRIVADO-BENÉFICO (IGLESIA),PSIQUIÁTRICO,,NO,SI,,
81228,PRYTANIS SANT BOI CENTRE SOCIOSANITARI,CATALUÑA,BARCELONA,Sant Boi de Llobregat,"CR JOSEP TORRAS I BAGES, 55",8830,936300931.0,936300877.0,122.0,PRIVADO NO BENÉFICO,PRIVADO NO BENÉFICO,GERIATRÍA Y/O LARGA ESTANCIA,,NO,NO,,
81000,HOSPITAL DE SANT CELONI.,CATALUÑA,BARCELONA,Sant Celoni,"AV DE L'HOSPITAL, 19",8470,938670617.0,938672311.0,100.0,OTRO PRIVADO BENÉFICO,OTRO PRIVADO-BENÉFICO,GENERAL,,,NO,41.690137,2.4916702
81234,CENTRE SOCIOSANITARI VERGE DEL PUIG,CATALUÑA,BARCELONA,Sant Celoni,"CR CAMPINS, 37",8470,938673995.0,938672311.0,40.0,OTRO PRIVADO BENÉFICO,OTRO PRIVADO-BENÉFICO,GERIATRÍA Y/O LARGA ESTANCIA,,NO,NO,,
82023,CENTRE GERONTOLÒGIC AMMA SANT CUGAT,CATALUÑA,BARCELONA,Sant Cugat del Vallès,"CR VICTOR HUGO, 10",8174,935836100.0,935895725.0,4.0,PRIVADO NO BENÉFICO,PRIVADO NO BENÉFICO,GERIATRÍA Y/O LARGA ESTANCIA,,NO,NO,,
81017,HOSPITAL UNIVERSITARI GENERAL DE CATALUNYA,CATALUÑA,BARCELONA,Sant Cugat del Vallès,"CR PEDRO I PONS, 1",8195,935656000.0,935892618.0,286.0,PRIVADO NO BENÉFICO,PRIVADO NO BENÉFICO,GENERAL,,NO,NO,41.6267278,0.6136025
82190,IVÁN MAÑERO CLÍNIC,CATALUÑA,BARCELONA,Sant Cugat del Vallès,"CR VICTOR HUGO, 24",8174,902401540.0,,17.0,PRIVADO NO BENÉFICO,PRIVADO NO BENÉFICO,QUIRÚRGICO,,NO,NO,,
80137,CENTRE DE PREVENCIÓ I REHABILITACIÓ ASEPEYO,CATALUÑA,BARCELONA,Sant Cugat del Vallès,"AV ALCALDE BARNILS, 54-60",8174,935653900.0,,138.0,SEGURIDAD SOCIAL,MATEP,GENERAL,,NO,NO,41.489779600000006,2.0784011153051267
81919,PARC SANITARI SANT JOAN DE DEU-SERVEIS SANITARIS CENTRE PENITENCIARI BRIANS-2,CATALUÑA,BARCELONA,Sant Esteve Sesrovires,"CT MARTORELL A CAPELLADES, ,23",8635,936935000.0,936935013.0,152.0,COMUNIDAD AUTÓNOMA,INSTITUTO CATALÁN DE LA SALUD,GENERAL,,NO,NO,,
81683,PARC SANITARI SANT JOAN DE DEU - BRIANS 1.,CATALUÑA,BARCELONA,Sant Esteve Sesrovires,"CT DE MARTORELL A CAPELLADES, ,23",8635,937758000.0,937713661.0,150.0,COMUNIDAD AUTÓNOMA,OTRO PRIVADO-BENÉFICO,GENERAL,,NO,NO,,
30250,HOSPITAL UNIVERSITARIO SAN JUAN DE ALICANTE,COMUNIDAD VALENCIANA,ALICANTE,Sant Joan d'Alacant,"CARRETERA NACIONAL 332, ALICANTE-VALENCIA, S/N",3550,965169400.0,965169520.0,396.0,COMUNIDAD AUTÓNOMA,CONSELLERIA DE SANIDAD. G. VALENCIANA,GENERAL,,NO,SI,,
82034,SERVEIS SANITARIS SANT JOAN DE VILATORRADA,CATALUÑA,BARCELONA,Sant Joan de Vilatorrada,"CT DE MANRESA A SOLSONA. CAMÍ DE LES TORRES, C-55",8250,932140100.0,932140179.0,56.0,COMUNIDAD AUTÓNOMA,INSTITUTO CATALÁN DE LA SALUD,GENERAL,,NO,NO,,
82066,HOSPITAL DE SANT JOAN DESPÍ MOISÈS BROGGI,CATALUÑA,BARCELONA,Sant Joan Despí,"AV JACINT VERDAGUER, 90",8970,935531200.0,,328.0,ENTIDADES PÚBLICAS,OTROS PÚBLICOS,GENERAL,,,NO,41.3731841,2.0726252526945275
81038,HOSPITAL RESIDÈNCIA SANT CAMIL - CONSORCI SANITARI DEL GARRAF.,CATALUÑA,BARCELONA,Sant Pere de Ribes,"RD SANT  CAMIL, S/N",8810,938960025.0,938961287.0,295.0,PRIVADO-BENÉFICO (IGLESIA),OTROS PÚBLICOS,GENERAL,,,SI,,
350265,"QUINTA MÉDICA DE REPOSO, S.A.",CANARIAS,LAS PALMAS,Santa Brígida,"PALMA ROMERO, 7",35300,928640050.0,928641407.0,78.0,PRIVADO NO BENÉFICO,PRIVADO NO BENÉFICO,PSIQUIÁTRICO,,NO,NO,,
81069,FUNDACIÓ HOSPITAL DE L'ESPERIT SANT,CATALUÑA,BARCELONA,Santa Coloma de Gramenet,"AV MOSSÈN JOSEP PONS I ROBADÀ, S/N",8923,933869648.0,933850100.0,177.0,OTRO PRIVADO BENÉFICO,OTRO PRIVADO-BENÉFICO,GENERAL,,,SI,,
81056,CENTRES ASSISTENCIALS DR. EMILI MIRA I LÓPEZ (RECINTE TORRIBERA).,CATALUÑA,BARCELONA,Santa Coloma de Gramenet,"CR PRAT DE LA RIBA, 171",8921,934628926.0,934683742.0,454.0,COMUNIDAD AUTÓNOMA,OTROS PÚBLICOS,PSIQUIÁTRICO,,NO,SI,,
390152,"CLÍNICA MOMPÍA, S.A.U.",CANTABRIA,CANTABRIA,Santa Cruz de Bezana,"AV. DE LOS CONDES, S/N. MOMPÍA",39108,942584100.0,942584114.0,105.0,PRIVADO NO BENÉFICO,PRIVADO NO BENÉFICO,GENERAL,,NO,NO,,
380260,HOSPITAL NUESTRA SEÑORA DE LOS DOLORES,CANARIAS,SANTA CRUZ DE TENERIFE,Santa Cruz de la Palma,"SAN VICENTE DE PAÚL, 1",38700,922423204.0,922420552.0,144.0,DIPUTACIÓN O CABILDO,DIPUTACIÓN O CABILDO,GERIATRÍA Y/O LARGA ESTANCIA,,SI,NO,28.4486103,-16.30885475696938
380099,VITHAS HOSPITAL SANTA CRUZ,CANARIAS,SANTA CRUZ DE TENERIFE,Santa Cruz de Tenerife,"ENRIQUE WOLFSON, 8",38006,922534733.0,922281166.0,61.0,PRIVADO NO BENÉFICO,PRIVADO NO BENÉFICO,GENERAL,,SI,NO,,
350271,HOSPITAL DE SAN ROQUE GUÍA,CANARIAS,LAS PALMAS,Santa María de Guía de Gran Canaria,"CUESTA DE CARABALLO, 1",35450,928882000.0,928888221.0,0.0,COMUNIDAD AUTÓNOMA,SERVICIO CANARIO DE SALUD,GERIATRÍA Y/O LARGA ESTANCIA,,NO,NO,,
430213,POLICLÍNICA COMARCAL DEL VENDRELL.,CATALUÑA,TARRAGONA,Santa Oliva,"AV SANTA OLIVA, 1-13",43710,977660140.0,977666337.0,136.0,PRIVADO NO BENÉFICO,PRIVADO NO BENÉFICO,GERIATRÍA Y/O LARGA ESTANCIA,,NO,NO,41.226085049999995,1.538194821786097
150365,HOSPITAL HM ROSALEDA - HM LA ESPERANZA,GALICIA,A CORUÑA,Santiago de Compostela,"SANTIAGO LEON DE CARACAS (DE), 1",15701,981551200.0,981563592.0,119.0,PRIVADO NO BENÉFICO,PRIVADO NO BENÉFICO,GENERAL,,SI,NO,,
150256,HOSPITAL HM ESPERANZA,GALICIA,A CORUÑA,Santiago de Compostela,"BURGAS (DAS), 2",15705,981552200.0,981158248.0,0.0,PRIVADO NO BENÉFICO,PRIVADO NO BENÉFICO,GENERAL,,SI,NO,,
150269,HOSPITAL HM ROSALEDA,GALICIA,A CORUÑA,Santiago de Compostela,"SANTIAGO LEON DE CARACAS (DE), 1",15701,981551200.0,,0.0,PRIVADO NO BENÉFICO,PRIVADO NO BENÉFICO,GENERAL,,SI,NO,,
150222,HOSPITAL GIL CASARES,GALICIA,A CORUÑA,Santiago de Compostela,"CHOUPANA (DA), S/N",15706,981950000.0,981950900.0,0.0,ENTIDADES PÚBLICAS,SERVICIO GALLEGO DE SALUD-SERGAS,GENERAL,,NO,SI,42.868753749999996,-8.563915998568573
150238,HOSPITAL MEDICO CIRURXICO DE CONXO,GALICIA,A CORUÑA,Santiago de Compostela,"RAMON BALTAR (DE), S/N",15706,981951500.0,981950900.0,0.0,ENTIDADES PÚBLICAS,SERVICIO GALLEGO DE SALUD-SERGAS,GENERAL,,NO,SI,,
150217,HOSPITAL CLINICO UNIVERSITARIO DE SANTIAGO,GALICIA,A CORUÑA,Santiago de Compostela,"CHOUPANA (DA), S/N",15706,981950000.0,981950900.0,0.0,ENTIDADES PÚBLICAS,SERVICIO GALLEGO DE SALUD-SERGAS,GENERAL,,NO,SI,,
150243,HOSPITAL PSIQUIATRICO DE CONXO,GALICIA,A CORUÑA,Santiago de Compostela,"MARTIN HERRERA (DE), 002",15706,981951900.0,981951901.0,0.0,ENTIDADES PÚBLICAS,SERVICIO GALLEGO DE SALUD-SERGAS,GENERAL,,NO,SI,42.8623475,-8.5563246
150200,COMPLEXO HOSPITALARIO UNIVERSITARIO DE SANTIAGO,GALICIA,A CORUÑA,Santiago de Compostela,"CHOUPANA (DA), S/N",15706,981950000.0,981950900.0,1395.0,ENTIDADES PÚBLICAS,SERVICIO GALLEGO DE SALUD-SERGAS,GENERAL,,NO,SI,42.86984365,-8.565894348783276
480293,AVANCES MÉDICOS S.A,PAÍS VASCO,VIZCAYA,Santurtzi,"AV.  MURRIETA, 70",48980,902407071.0,944833374.0,24.0,PRIVADO NO BENÉFICO,PRIVADO NO BENÉFICO,PSIQUIÁTRICO,,NO,NO,,
480255,HOSPITAL SAN JUAN DE DIOS,PAÍS VASCO,VIZCAYA,Santurtzi,"AV. CRISTÓBAL MURRIETA, 70",48980,944939900.0,944939907.0,105.0,OTRO PRIVADO BENÉFICO,OTRO PRIVADO-BENÉFICO,GENERAL,,SI,SI,,
460272,HOSPITAL DOCTOR MOLINER,COMUNIDAD VALENCIANA,VALENCIA,Serra,"PORTA COELI, S/N",46118,961687900.0,961687901.0,179.0,COMUNIDAD AUTÓNOMA,CONSELLERIA DE SANIDAD. G. VALENCIANA,GERIATRÍA Y/O LARGA ESTANCIA,,NO,NO,39.6559168,-0.4742682180919162
250117,FUNDACIÓ SANT HOSPITAL.,CATALUÑA,LLEIDA,"Seu d'Urgell, La","PS JOAN BRUDIEU, 8",25700,973350050.0,973353505.0,88.0,OTRO PRIVADO BENÉFICO,OTRO PRIVADO-BENÉFICO,GENERAL,,,NO,42.3548545,1.4609585
250138,"CENTRE SANITARI DEL SOLSONÈS, FPC",CATALUÑA,LLEIDA,Solsona,"PL ANTONI GUITART,, 1",25280,973481172.0,973481098.0,32.0,ENTIDADES PÚBLICAS,OTROS PÚBLICOS,GERIATRÍA Y/O LARGA ESTANCIA,,NO,NO,,
380359,CLÍNICA TARA,CANARIAS,SANTA CRUZ DE TENERIFE,Tacoronte,C/ CASAS ALTAS SN,38350,922563351.0,922563499.0,12.0,PRIVADO NO BENÉFICO,PRIVADO NO BENÉFICO,GENERAL,,SI,NO,28.4781043,-16.4032626
60231,HOSPITAL SIBERIA-SERENA,EXTREMADURA,BADAJOZ,Talarrubias,CRTRA TALARRUBIAS-AGUDO KM2,6640,924648100.0,924648111.0,0.0,COMUNIDAD AUTÓNOMA,SERVICIO EXTREMEÑO DE SALUD-SES,GENERAL,,NO,NO,39.0312412,-5.223697347278689
450089,"CLÍNICA MARAZUELA, S.A.",CASTILLA-LA MANCHA,TOLEDO,Talavera de la Reina,"AVENIDA DE EXTREMADURA, 5",45600,925815281.0,925815141.0,15.0,PRIVADO NO BENÉFICO,PRIVADO NO BENÉFICO,GENERAL,,NO,NO,39.96195195,-4.825014369163424
450067,HOSPITAL GENERAL NUESTRA SEÑORA DEL PRADO,CASTILLA-LA MANCHA,TOLEDO,Talavera de la Reina,"CARRETERA DE MADRID, KM. 114",45600,925803600.0,925815444.0,312.0,SEGURIDAD SOCIAL,SERVICIO DE SALUD DE CASTILLA-LA MANCHA-SESCAM,GENERAL,,NO,SI,39.9578683,-4.853211
350390,CLINICA JORGANI,CANARIAS,LAS PALMAS,Teguise,AVDA ISLAS CANARIAS 5. C.C. CALIPSO.,35508,928346868.0,928346363.0,11.0,PRIVADO NO BENÉFICO,PRIVADO NO BENÉFICO,GENERAL,,NO,NO,,
350287,HOSPITAL CIUDAD DE TELDE,CANARIAS,LAS PALMAS,Telde,"MISTER BLISSE, S/N  URB. LA ESTRELLA",35212,928707555.0,928707554.0,219.0,PRIVADO NO BENÉFICO,PRIVADO NO BENÉFICO,GERIATRÍA Y/O LARGA ESTANCIA,,SI,NO,,
81075,HOSPITAL DE TERRASSA.,CATALUÑA,BARCELONA,Terrassa,"CT TORREBONICA, S/N",8227,937310007.0,937310959.0,460.0,ENTIDADES PÚBLICAS,OTROS PÚBLICOS,GENERAL,,,SI,41.5568023,2.0531018638517624
81081,HOSPITAL DE SANT LLÀTZER,CATALUÑA,BARCELONA,Terrassa,"PL DOCTOR ROBERT, 1",8221,937837111.0,937831555.0,77.0,OTRO PRIVADO BENÉFICO,OTROS PÚBLICOS,GERIATRÍA Y/O LARGA ESTANCIA,,NO,NO,41.562610500000005,2.017399878476925
81094,HOSPITAL UNIVERSITARI MÚTUA DE TERRASSA,CATALUÑA,BARCELONA,Terrassa,"PL DOCTOR ROBERT, 5",8221,937365050.0,937365059.0,534.0,OTRO PRIVADO BENÉFICO,OTRO PRIVADO-BENÉFICO,GENERAL,,,SI,,
81458,ÀPTIMA CENTRE CLÍNIC - MÚTUA DE TERRASSA,CATALUÑA,BARCELONA,Terrassa,"PL DOCTOR ROBERT, 5",8221,937365072.0,937365009.0,70.0,PRIVADO NO BENÉFICO,PRIVADO NO BENÉFICO,GENERAL,,NO,SI,,
81728,HOSPITAL GENERAL PENITENCIARI,CATALUÑA,BARCELONA,Terrassa,"CT TORREBONICA, S/N",8227,937317861.0,,32.0,COMUNIDAD AUTÓNOMA,OTROS PÚBLICOS,GENERAL,,NO,NO,41.76029295,1.8079555786366417
81537,CENTRE VALLPARADÍS,CATALUÑA,BARCELONA,Terrassa,"CR SANT ANTONI, 52",8221,937365030.0,937365009.0,81.0,OTRO PRIVADO BENÉFICO,OTRO PRIVADO-BENÉFICO,GERIATRÍA Y/O LARGA ESTANCIA,,NO,NO,41.5660007,2.0208153
350326,HOSPITEN LANZAROTE (CLÍNICAS DEL SUR S.L.U.),CANARIAS,LAS PALMAS,Tías,"LOMO GORDO, S/N",35510,928596100.0,928515635.0,61.0,PRIVADO NO BENÉFICO,PRIVADO NO BENÉFICO,GENERAL,,SI,NO,,
200219,"CLINICA SANTA MARÍA DE LA ASUNCIÓN, (INVIZA, S.A.)",PAÍS VASCO,GUIPÚZCOA,Tolosa,"CTRA. IZASKUN, 9",20400,943697000.0,943674438.0,120.0,PRIVADO NO BENÉFICO,PRIVADO NO BENÉFICO,GENERAL,,SI,SI,,
130128,HOSPITAL GENERAL DE TOMELLOSO,CASTILLA-LA MANCHA,CIUDAD REAL,Tomelloso,"VEREDA DE SOCUÉLLAMOS, S/N",13700,926525800.0,,155.0,COMUNIDAD AUTÓNOMA,SERVICIO DE SALUD DE CASTILLA-LA MANCHA-SESCAM,GENERAL,,NO,NO,,
281337,HOSPITAL UNIVERSITARIO DE TORREJÓN,MADRID,MADRID,Torrejón de Ardoz,"MATEO INURRIA, S/N",28850,916262518.0,914886624.0,250.0,COMUNIDAD AUTÓNOMA,SERVICIO MADRILEÑO DE SALUD,GENERAL,,NO,SI,40.46509355,-3.4362904832578587
390149,HOSPITAL SIERRALLANA,CANTABRIA,CANTABRIA,Torrelavega,"Bº. DE GANZO, S/N",39300,942847400.0,942847501.0,301.0,SEGURIDAD SOCIAL,SERVICIO CÁNTABRO DE SALUD-SCS,GENERAL,Se incluyen las camas del Dispositivo Asistencial Tres Mares,NO,SI,43.3661136,-4.0737284
281157,HOSPITAL UNIVERSITARIO HM TORRELODONES,MADRID,MADRID,Torrelodones,AV. CASTILLO OLIVARES S/N,28250,912675000.0,918591555.0,86.0,PRIVADO NO BENÉFICO,PRIVADO NO BENÉFICO,GENERAL,,SI,SI,,
290213,HOSPITAL MARÍTIMO DE TORREMOLINOS,ANDALUCÍA,MALAGA,Torremolinos,"C/ SANATORIO, 5",29620,951033735.0,951033705.0,0.0,COMUNIDAD AUTÓNOMA,SERVICIO ANDALUZ DE SALUD,GENERAL,,NO,SI,36.63713775,-4.487456676361466
290228,CLÍNICA SANTA ELENA,ANDALUCÍA,MALAGA,Torremolinos,"URBANIZACIÓN LOS ÁLAMOS, S/N",29620,952386266.0,952380309.0,90.0,PRIVADO NO BENÉFICO,PRIVADO NO BENÉFICO,GENERAL,,NO,NO,40.4456818,-3.716825558930167
30298,HOSPÌTAL QUIRONSALUD TORREVIEJA,COMUNIDAD VALENCIANA,ALICANTE,Torrevieja,"PARTIDA DE LA LOMA, S/N",3184,966921313.0,966922706.0,132.0,PRIVADO NO BENÉFICO,PRIVADO NO BENÉFICO,GENERAL,,SI,NO,,
30339,HOSPITAL UNIVERSITARIO DE TORREVIEJA,COMUNIDAD VALENCIANA,ALICANTE,Torrevieja,"CARRETERA CV95 SAN MIGUEL DE SALINAS-TORREVIEJA PARTIDA LA CEÑUELA, S/N",3186,965721200.0,965721368.0,269.0,COMUNIDAD AUTÓNOMA,CONSELLERIA DE SANIDAD. G. VALENCIANA,GENERAL,Concesión Administrativa a Entidad Privada,NO,SI,,
430167,HOSPITAL DE TORTOSA VERGE DE LA CINTA,CATALUÑA,TARRAGONA,Tortosa,"CR ESPLANETES, 44",43500,977519100.0,977519111.0,248.0,SEGURIDAD SOCIAL,INSTITUTO CATALÁN DE LA SALUD,GENERAL,,,SI,40.811145249999996,0.524653485015329
430173,HOSPITAL DE LA SANTA CREU,CATALUÑA,TARRAGONA,Tortosa,"PS MOSSÈN VALLS BARTOMEU, 1",43590,977500533.0,977500085.0,250.0,MUNICIPIO,MUNICIPIO,GERIATRÍA Y/O LARGA ESTANCIA,,NO,NO,40.827855,0.5095964465825074
430189,CLÍNICA TERRES DE L'EBRE,CATALUÑA,TARRAGONA,Tortosa,"PL JOAQUIM  BAU, 6-8",43500,977588200.0,977588195.0,40.0,MUNICIPIO,MUNICIPIO,GENERAL,,,NO,,
250143,HOSPITAL COMARCAL DEL PALLARS,CATALUÑA,LLEIDA,Tremp,"AV PAU CASALS, 5",25620,973652255.0,973651487.0,63.0,COMUNIDAD AUTÓNOMA,OTROS PÚBLICOS,GENERAL,,,NO,42.1644941,0.8973612
310137,HOSPITAL REINA SOFÍA,C. FORAL DE NAVARRA,NAVARRA,Tudela,CTRA. TARAZONA KM. 3,31500,848434000.0,848434111.0,190.0,COMUNIDAD AUTÓNOMA,SERVICIO NAVARRO DE SALUD-OSASUNBIDEA,GENERAL,,NO,SI,42.0408381,-1.6252839213207353
230098,HOSPITAL SAN JUAN DE LA CRUZ,ANDALUCÍA,JAÉN,Úbeda,"CTRA. DE LINARES, KM. 1",23400,953028200.0,953028251.0,231.0,COMUNIDAD AUTÓNOMA,SERVICIO ANDALUZ DE SALUD,GENERAL,,NO,SI,38.01945355,-3.385060102005597
480327,HOSPITAL URDULIZ OSPITALEA,PAÍS VASCO,VIZCAYA,Urduliz,GOIETA KALEA Nº 32,48610,946007005.0,,128.0,COMUNIDAD AUTÓNOMA,SERVICIO VASCO DE SALUD-OSAKIDETZA,GENERAL,,NO,NO,43.37511385,-2.9599093169928876
200230,"SANATORIO DE USURBIL, S.L.",PAÍS VASCO,GUIPÚZCOA,Usurbil,"BARRIO SAN ESTEBAN, 48",20170,943361124.0,943362898.0,80.0,PRIVADO NO BENÉFICO,PRIVADO NO BENÉFICO,PSIQUIÁTRICO,,SI,NO,43.2726308,-2.06106658895622
410386,HOSPITAL DE ALTA RESOLUCIÓN DE UTRERA,ANDALUCÍA,SEVILLA,Utrera,"BRIGADAS INTERNACIONALES, S/N",41710,955839097.0,955099147.0,14.0,COMUNIDAD AUTÓNOMA,SERVICIO ANDALUZ DE SALUD,GENERAL,,NO,NO,37.175694899999996,-5.785237272103666
281236,HOSPITAL UNIVERSITARIO INFANTA ELENA,MADRID,MADRID,Valdemoro,"AV. DE LOS REYES CATÓLICOS, 21",28342,918948410.0,918948538.0,158.0,COMUNIDAD AUTÓNOMA,SERVICIO MADRILEÑO DE SALUD,GENERAL,,NO,SI,,
130087,HOSPITAL GENERAL DE VALDEPEÑAS,CASTILLA-LA MANCHA,CIUDAD REAL,Valdepeñas,"AVDA. ESTUDIANTES, S/N",13300,926320200.0,,103.0,SEGURIDAD SOCIAL,SERVICIO DE SALUD DE CASTILLA-LA MANCHA-SESCAM,GENERAL,,NO,NO,,
330313,HOSPITAL DE LUARCA -ASISTENCIA MÉDICA OCCIDENTALSL,PPDO. DE ASTURIAS,ASTURIAS,Valdés,VILLAR S/N- LUARCA,33700,985470707.0,985470737.0,19.0,PRIVADO NO BENÉFICO,PRIVADO NO BENÉFICO,OTROS MONOGRÁFICOS,,NO,NO,,
30190,SANATORIO SAN FRANCISCO DE BORJA FONTILLES,COMUNIDAD VALENCIANA,ALICANTE,"Vall de Laguar, la","CARRETERA ORBA-VALL DE LAGUAR, KM 4",3791,965583350.0,965583376.0,96.0,OTRO PRIVADO BENÉFICO,OTRO PRIVADO-BENÉFICO,GERIATRÍA Y/O LARGA ESTANCIA,,NO,NO,38.77684945,-0.08776492322363694
430228,PIUS HOSPITAL DE VALLS,CATALUÑA,TARRAGONA,Valls,"PL SANT FRANCESC, S/N",43800,977613000.0,977605014.0,142.0,ENTIDADES PÚBLICAS,PRIVADO NO BENÉFICO,GENERAL,,,SI,41.2830927,1.2513744
430234,RESIDÈNCIA ALT CAMP,CATALUÑA,TARRAGONA,Valls,"CM DEL BOSC, S/N",43800,977600292.0,977603814.0,50.0,ENTIDADES PÚBLICAS,PRIVADO NO BENÉFICO,GERIATRÍA Y/O LARGA ESTANCIA,,NO,NO,41.221605049999994,1.2621495311509046
380276,HOSPITAL INSULAR NTRA. SRA. DE LOS REYES,CANARIAS,SANTA CRUZ DE TENERIFE,Valverde,"LOS BARRIALES, 1",38900,922553500.0,922553512.0,32.0,COMUNIDAD AUTÓNOMA,SERVICIO CANARIO DE SALUD,GENERAL,,NO,NO,,
290206,HOSPITAL DE LA AXARQUÍA,ANDALUCÍA,MALAGA,Vélez-Málaga,"URB. EL TOMILLAR, S/N",29700,951067010.0,951067009.0,197.0,COMUNIDAD AUTÓNOMA,SERVICIO ANDALUZ DE SALUD,GENERAL,,NO,SI,36.86647765,-4.111017160388603
290348,CLÍNICA EL SERANIL,ANDALUCÍA,MALAGA,Vélez-Málaga,CRTRA. DE ALMERÍA KM 261,29790,952513267.0,952513900.0,60.0,PRIVADO NO BENÉFICO,PRIVADO NO BENÉFICO,PSIQUIÁTRICO,,NO,NO,36.7157623,-4.1990574
430298,HOSPITAL DEL VENDRELL,CATALUÑA,TARRAGONA,"Vendrell, El","CT N-340, 1193",43700,977257900.0,977257915.0,120.0,OTRO PRIVADO BENÉFICO,OTRO PRIVADO-BENÉFICO,GENERAL,,,NO,41.227135149999995,1.5537422859808887
320150,HOSPITAL DE VERIN,GALICIA,OURENSE,Verín,"LAZA (DE), S/N",32600,988413636.0,988411087.0,80.0,COMUNIDAD AUTÓNOMA,SERVICIO GALLEGO DE SALUD-SERGAS,GENERAL,RM compartida (3 unidades móviles RM),NO,NO,41.9541059,-7.4302915
81120,HOSPITAL DE LA SANTA CREU,CATALUÑA,BARCELONA,Vic,"RB HOSPITAL, 52",8500,938833300.0,938895087.0,127.0,OTRO PRIVADO BENÉFICO,OTRO PRIVADO-BENÉFICO,GERIATRÍA Y/O LARGA ESTANCIA,,NO,NO,40.827855,0.5095964465825074
81115,CLÍNICA SANT JOSEP,CATALUÑA,BARCELONA,Vic,"CR SANT SEGIMON, 3",8500,938861700.0,938891779.0,21.0,PRIVADO-BENÉFICO (IGLESIA),PRIVADO-BENÉFICO (IGLESIA),GENERAL,,NO,NO,41.72265295,1.8323943362254926
81108,HOSPITAL  UNIVERSITARI DE VIC,CATALUÑA,BARCELONA,Vic,CR FRANCESC PLA 1,8500,938891111.0,938850308.0,292.0,ENTIDADES PÚBLICAS,OTROS PÚBLICOS,GENERAL,,,SI,41.93692715,2.260140198933186
250156,ESPITAU VAL D'ARAN,CATALUÑA,LLEIDA,Vielha e Mijaran,"CR ESPITAU,, 8",25530,973640004.0,973640529.0,31.0,COMUNIDAD AUTÓNOMA,PRIVADO NO BENÉFICO,GENERAL,,,NO,42.7022649,0.7973510489816078
360209,VITHAS HOSPITAL NOSA SEÑORA DE FATIMA,GALICIA,PONTEVEDRA,Vigo,"VIA NORTE, 48",36206,986821100.0,986480062.0,200.0,PRIVADO NO BENÉFICO,PRIVADO NO BENÉFICO,GENERAL,,SI,NO,,
360216,CONCHEIRO CENTRO MEDICO QUIRURGICO,GALICIA,PONTEVEDRA,Vigo,"MADRID, 4",36204,986413244.0,986419908.0,40.0,PRIVADO NO BENÉFICO,PRIVADO NO BENÉFICO,QUIRÚRGICO,,SI,NO,,
360255,CENTRO MEDICO PINTADO,GALICIA,PONTEVEDRA,Vigo,"HISPANIDADE, 40",36203,986413300.0,986412968.0,12.0,PRIVADO NO BENÉFICO,PRIVADO NO BENÉFICO,MATERNO-INFANTIL,,NO,NO,37.3779518,-6.1246623374915155
360268,SANATORIO PSIQUIATRICO SAN JOSE,GALICIA,PONTEVEDRA,Vigo,"TOMAS A ALONSO, 89",36208,986235606.0,986211249.0,48.0,PRIVADO NO BENÉFICO,PRIVADO NO BENÉFICO,PSIQUIÁTRICO,,NO,NO,,
360195,HOSPITAL HM VIGO,GALICIA,PONTEVEDRA,Vigo,"MANUEL OLIVIE, 11",36203,986411466.0,986485510.0,12.0,PRIVADO NO BENÉFICO,PRIVADO NO BENÉFICO,GENERAL,,NO,NO,,
360368,COMPLEXO HOSPITALARIO UNIVERSITARIO DE VIGO,GALICIA,PONTEVEDRA,Vigo,"CLARA CAMPOAMOR, 341",36312,986816000.0,986816029.0,1273.0,ENTIDADES PÚBLICAS,SERVICIO GALLEGO DE SALUD-SERGAS,GENERAL,,NO,SI,,
360118,HOSPITAL MEIXOEIRO,GALICIA,PONTEVEDRA,Vigo,"RUA DO MEIXOEIRO, S/N",36200,986811111.0,986276416.0,0.0,ENTIDADES PÚBLICAS,SERVICIO GALLEGO DE SALUD-SERGAS,GENERAL,,NO,SI,42.2145115,-8.6847362
360157,HOSPITAL NICOLAS PEÑA,GALICIA,PONTEVEDRA,Vigo,"CAMELIAS, 109",36211,986219115.0,986219124.0,0.0,ENTIDADES PÚBLICAS,SERVICIO GALLEGO DE SALUD-SERGAS,GENERAL,,NO,SI,42.2251833,-8.728477180410696
360182,HOSPITAL POVISA,GALICIA,PONTEVEDRA,Vigo,"SALAMANCA, 5",36211,986413144.0,986421439.0,573.0,PRIVADO NO BENÉFICO,PRIVADO NO BENÉFICO,GENERAL,,SI,SI,42.2236592,-8.726596918338643
360160,"FREMAP, HOSPITAL DE VIGO",GALICIA,PONTEVEDRA,Vigo,"FELICIANO ROLAN, 12",36203,986413033.0,986413099.0,17.0,MATEP,MATEP,TRAUMATOLOGÍA Y/O REHABILITACIÓN,,NO,NO,,
360274,CLINICA RESIDENCIA EL PINAR,GALICIA,PONTEVEDRA,Vigo,"VELLA MADRID, 120",36214,986266400.0,986267733.0,84.0,PRIVADO NO BENÉFICO,PRIVADO NO BENÉFICO,PSIQUIÁTRICO,,SI,NO,40.02372025,-3.916857633694903
360379,HOSPITAL UNIVERSITARIO ALVARO CUNQUEIRO,GALICIA,PONTEVEDRA,Vigo,"CLARA CAMPOAMOR, 341",36312,986811111.0,986825173.0,0.0,ENTIDADES PÚBLICAS,SERVICIO GALLEGO DE SALUD-SERGAS,GENERAL,,NO,SI,,
81141,HOSPITAL DE VILADECANS,CATALUÑA,BARCELONA,Viladecans,"AV GAVÀ, 38",8840,936590111.0,936590612.0,110.0,SEGURIDAD SOCIAL,INSTITUTO CATALÁN DE LA SALUD,GENERAL,,,SI,41.3163083,2.0156034
81896,CENTRE SOCIAL I SANITARI FREDERICA MONTSENY,CATALUÑA,BARCELONA,Viladecans,"CR ESLIDA, 6-8",8840,936473525.0,932111428.0,76.0,ENTIDADES PÚBLICAS,PRIVADO NO BENÉFICO,GERIATRÍA Y/O LARGA ESTANCIA,,NO,NO,,
81430,HOSPITAL COMARCAL DE L'ALT PENEDÈS.,CATALUÑA,BARCELONA,Vilafranca del Penedès,"CR ESPIRALL, S/N",8720,938180440.0,938180491.0,144.0,COMUNIDAD AUTÓNOMA,OTROS PÚBLICOS,GENERAL,,,SI,41.35659015,1.7050399634265236
81795,CENTRE SOCIOSANITARI RICARD FORTUNY,CATALUÑA,BARCELONA,Vilafranca del Penedès,"AV GARRAF, 3",8720,938172357.0,938904440.0,187.0,ENTIDADES PÚBLICAS,OTROS PÚBLICOS,GERIATRÍA Y/O LARGA ESTANCIA,,NO,NO,,
360353,HOSPITAL DO SALNES (*),GALICIA,PONTEVEDRA,Vilagarcía de Arousa,"HOSPITAL DO SALNES, 30",36619,986568000.0,986568001.0,122.0,COMUNIDAD AUTÓNOMA,SERVICIO GALLEGO DE SALUD-SERGAS,GENERAL,RM compartida (3 unidades móviles RM),NO,NO,42.5138575,-8.75159831498814
81189,HOSPITAL SANT ANTONI ABAT - CONSORCI SANITARI DEL GARRAF.,CATALUÑA,BARCELONA,Vilanova i la Geltrú,"CR SANT JOSEP, 21",8800,938931616.0,938140042.0,111.0,OTRO PRIVADO BENÉFICO,OTROS PÚBLICOS,GERIATRÍA Y/O LARGA ESTANCIA,,,NO,,
120136,HOSPITAL UNIVERSITARIO DE LA PLANA,COMUNIDAD VALENCIANA,CASTELLÓN,Vila-real,"CARRETERA VILA-REAL A BORRIANA, KM 0,5",12540,964399775.0,964399858.0,258.0,COMUNIDAD AUTÓNOMA,CONSELLERIA DE SANIDAD. G. VALENCIANA,GENERAL,,NO,SI,,
430276,RESIDÈNCIA VILA-SECA,CATALUÑA,TARRAGONA,Vila-seca,"CR REQUET DE FÈLIX, 35",43480,977395825.0,,35.0,MUNICIPIO,PRIVADO NO BENÉFICO,GERIATRÍA Y/O LARGA ESTANCIA,,NO,NO,41.11106475,1.1493389713169768
81022,CASAL DE CURACIÓ,CATALUÑA,BARCELONA,Vilassar de Mar,"CR MARIA VIDAL, 19",8340,937590241.0,937500420.0,81.0,OTRO PRIVADO BENÉFICO,OTRO PRIVADO-BENÉFICO,GERIATRÍA Y/O LARGA ESTANCIA,,NO,NO,41.501629449999996,2.3858982759032648
280936,HOSPITAL VIRGEN DE LA POVEDA,MADRID,MADRID,Villa del Prado,"CTRA. DEL HOSPITAL, S/N KM. 5",28630,918608000.0,918620100.0,202.0,COMUNIDAD AUTÓNOMA,SERVICIO MADRILEÑO DE SALUD,GERIATRÍA Y/O LARGA ESTANCIA,,NO,NO,,
240220,HOSPITAL VALLE DE LACIANA,CASTILLA Y LEÓN,LEÓN,Villablino,"AV. DE ASTURIAS, S/N",24100,987481057.0,987470837.0,15.0,MUNICIPIO,COMUNIDAD AUTÓNOMA,GERIATRÍA Y/O LARGA ESTANCIA,,SI,NO,,
30204,HOSPITAL MARINA BAIXA DE LA VILA JOIOSA,COMUNIDAD VALENCIANA,ALICANTE,"Villajoyosa/Vila Joiosa, la","AVENIDA ALCALDE EN JAUME BOTELLA MAYOR, 7",3570,966859800.0,966859900.0,286.0,COMUNIDAD AUTÓNOMA,CONSELLERIA DE SANIDAD. G. VALENCIANA,GENERAL,,SI,SI,38.5067502,-0.2311157
110218,HOSPITAL VIRGEN DE LAS MONTAÑAS,ANDALUCÍA,CÁDIZ,Villamartín,AV. AMBULATORIO S/N,11650,956041000.0,956041075.0,108.0,PRIVADO NO BENÉFICO,PRIVADO NO BENÉFICO,GENERAL,,SI,NO,37.37527,-6.0031429
60140,HOSPITAL QUIRÓNSALUD SANTA JUSTA,EXTREMADURA,BADAJOZ,Villanueva de la Serena,"CONCEPCIÓN, 24",6700,924840746.0,924847505.0,29.0,MUNICIPIO,PRIVADO NO BENÉFICO,QUIRÚRGICO,,SI,NO,,
240205,CLÍNICA ALTOLLANO,CASTILLA Y LEÓN,LEÓN,Villaquilambre,"LA FUENTINA, S/N. LLANOS DE NAVA. NAVATEJERA",24193,987286000.0,987286012.0,110.0,PRIVADO NO BENÉFICO,PRIVADO NO BENÉFICO,GENERAL,,SI,NO,42.6239351,-5.573699571057182
20147,HOSPITAL GENERAL DE VILLAROBLEDO,CASTILLA-LA MANCHA,ALBACETE,Villarrobledo,"AVENIDA MIGUEL DE CERVANTES, S/N",2600,967133000.0,967133002.0,114.0,COMUNIDAD AUTÓNOMA,SERVICIO DE SALUD DE CASTILLA-LA MANCHA-SESCAM,GENERAL,,NO,NO,,
120115,HOSPITAL COMARCAL DE VINARÒS,COMUNIDAD VALENCIANA,CASTELLÓN,Vinaròs,"AVENIDA GIL DE ATROCILLO, S/N",12500,964477000.0,964400736.0,150.0,COMUNIDAD AUTÓNOMA,CONSELLERIA DE SANIDAD. G. VALENCIANA,GENERAL,,NO,SI,40.4638585,0.4499678
460229,HOSPITAL LLUÍS ALCANYÍS DE XÀTIVA,COMUNIDAD VALENCIANA,VALENCIA,Xàtiva,"CARRETERA XÀTIVA - SILLA, KM 2",46800,962289300.0,962289354.0,273.0,COMUNIDAD AUTÓNOMA,CONSELLERIA DE SANIDAD. G. VALENCIANA,GENERAL,,NO,SI,39.0066786,-0.509620843764353
190061,U.R.R. DE ENFERMOS PSÍQUICOS ALCOHETE,CASTILLA-LA MANCHA,GUADALAJARA,Yebes,"CARRETERA DE GUADALAJARA A CUENCA, KM. 8.200",19141,949885402.0,949291001.0,165.0,COMUNIDAD AUTÓNOMA,COMUNIDAD AUTÓNOMA,PSIQUIÁTRICO,,NO,NO,,
300243,HOSPITAL VIRGEN DEL CASTILLO,REGIÓN DE MURCIA,MURCIA,Yecla,"AV. DE LA FERIA, S/N",30510,968719800.0,968719806.0,96.0,SEGURIDAD SOCIAL,SERVICIO MURCIANO DE SALUD,GENERAL,,NO,SI,38.61568215,-1.1079025116061842
60188,HOSPITAL PARQUE VIA DE LA PLATA,EXTREMADURA,BADAJOZ,Zafra,"CTRA. DE LOS SANTOS, S/N",6300,924552755.0,924555388.0,9.0,PRIVADO NO BENÉFICO,PRIVADO NO BENÉFICO,GENERAL,,SI,NO,39.48694535,-6.371813033242754
60208,HOSPITAL DE ZAFRA,EXTREMADURA,BADAJOZ,Zafra,"CRTA. BADAJOZ-GRANADA, S/N",6300,924029200.0,942029320.0,0.0,COMUNIDAD AUTÓNOMA,SERVICIO EXTREMEÑO DE SALUD-SES,GENERAL,,NO,SI,38.4304576,-6.421806477914258
480268,RED DE SALUD MENTAL DE BIZKAIA (HOSPITAL DE ZALDIBAR),PAÍS VASCO,VIZCAYA,Zaldibar,"AV. DE BILBAO, S/N",48250,946032800.0,946032819.0,111.0,COMUNIDAD AUTÓNOMA,SERVICIO VASCO DE SALUD-OSAKIDETZA,PSIQUIÁTRICO,,NO,SI,,
480274,RED DE SALUD MENTAL DE BIZKAIA (HOSPITAL DE ZAMUDIO),PAÍS VASCO,VIZCAYA,Zamudio,"ARTEAGA AUZOA, 45",48170,944006500.0,944006526.0,126.0,COMUNIDAD AUTÓNOMA,SERVICIO VASCO DE SALUD-OSAKIDETZA,PSIQUIÁTRICO,,NO,SI,,
200245,HOSPITAL DE ZUMARRAGA,PAÍS VASCO,GUIPÚZCOA,Zumarraga,"BARRIO ARGIXAO, S/N",20700,943035000.0,943035063.0,128.0,COMUNIDAD AUTÓNOMA,SERVICIO VASCO DE SALUD-OSAKIDETZA,GENERAL,,NO,SI,43.0835953,-2.3130193
20158,"CENTRO DE ATENCIÓN A LA SALUD MENTAL ""LA MILAGROSA""",CASTILLA-LA MANCHA,ALBACETE,Albacete,"TRAVESÍA DE LA IGUALDAD, S/N",2006,967192350.0,967248989.0,0.0,DIPUTACIÓN O CABILDO,SERVICIO DE SALUD DE CASTILLA-LA MANCHA-SESCAM,PSIQUIÁTRICO,,NO,SI,,
20117,HOSPITAL UNIVERSITARIO NUESTRA SEÑORA DEL PERPETUO SOCORRO,CASTILLA-LA MANCHA,ALBACETE,Albacete,"SEMINARIO, 4",2006,967597799.0,967597711.0,0.0,SEGURIDAD SOCIAL,SERVICIO DE SALUD DE CASTILLA-LA MANCHA-SESCAM,GENERAL,,NO,SI,,
20100,QUIRONSALUD HOSPITAL ALBACETE,CASTILLA-LA MANCHA,ALBACETE,Albacete,"PLAZA DEL MADROÑO, 11",2008,967247100.0,967245183.0,65.0,PRIVADO NO BENÉFICO,PRIVADO NO BENÉFICO,GENERAL,,SI,NO,38.985388400000005,-1.8441820482187483
20061,CLÍNICA SANTA CRISTINA ALBACETE,CASTILLA-LA MANCHA,ALBACETE,Albacete,"PÉREZ GALDÓS, 7",2003,967223300.0,967507790.0,42.0,PRIVADO NO BENÉFICO,PRIVADO NO BENÉFICO,GENERAL,,SI,NO,,
20030,HOSPITAL GENERAL UNIVERSITARIO DE ALBACETE,CASTILLA-LA MANCHA,ALBACETE,Albacete,"HERMANOS FALCÓ, 37",2006,967597100.0,967243952.0,0.0,SEGURIDAD SOCIAL,SERVICIO DE SALUD DE CASTILLA-LA MANCHA-SESCAM,GENERAL,,NO,SI,38.98513215,-1.8464878862457752
20019,COMPLEJO HOSPITALARIO UNIVERSITARIO DE ALBACETE,CASTILLA-LA MANCHA,ALBACETE,Albacete,"HERMANOS FALCÓ, 37",2006,967597100.0,967243952.0,705.0,SEGURIDAD SOCIAL,SERVICIO DE SALUD DE CASTILLA-LA MANCHA-SESCAM,GENERAL,,NO,SI,,
30015,HOSPITAL GENERAL UNIVERSITARIO DE ALICANTE,COMUNIDAD VALENCIANA,ALICANTE,Alicante/Alacant,"AVENIDA PINTOR BAEZA, 12",3010,965933000.0,965245971.0,794.0,COMUNIDAD AUTÓNOMA,CONSELLERIA DE SANIDAD. G. VALENCIANA,GENERAL,,NO,SI,38.3632372,-0.48591021612544627
30036,CLÍNICA VISTAHERMOSA GRUPO HLA,COMUNIDAD VALENCIANA,ALICANTE,Alicante/Alacant,"AVENIDA DENIA, 103",3015,965268000.0,965262405.0,106.0,PRIVADO NO BENÉFICO,PRIVADO NO BENÉFICO,GENERAL,,SI,SI,,
30041,VITHAS HOSPITAL PERPETUO INTERNACIONAL,COMUNIDAD VALENCIANA,ALICANTE,Alicante/Alacant,"PLAZA DOCTOR GÓMEZ ULLA, 15",3013,965201100.0,965144890.0,103.0,PRIVADO NO BENÉFICO,PRIVADO NO BENÉFICO,GENERAL,,SI,NO,,
30226,"HOSPITAL INTERNACIONAL MEDIMAR, S.A.",COMUNIDAD VALENCIANA,ALICANTE,Alicante/Alacant,"AVENIDA DENIA, 78",3016,965162200.0,965159038.0,66.0,PRIVADO NO BENÉFICO,PRIVADO NO BENÉFICO,GENERAL,,NO,NO,,
30328,HOSPITAL IMED LEVANTE,COMUNIDAD VALENCIANA,ALICANTE,Alicante/Alacant,"CALLE DR SANTIAGO RAMÓN Y CAJAL, 7",3503,966878787.0,965861756.0,100.0,PRIVADO NO BENÉFICO,PRIVADO NO BENÉFICO,GENERAL,,SI,NO,38.541087450000006,-0.10644662986050457
30232,HOSPITAL PSIQUIÁTRICO PENITENCIARIO DE FONTCALENT,COMUNIDAD VALENCIANA,ALICANTE,Alicante/Alacant,"COMPLEJO CENTRO PENITENCIARIO FONTCALENT, 1",3113,965102222.0,965101761.0,432.0,MINISTERIO DE INTERIOR,ADMINISTRACIÓN PENITENCIARIA,PSIQUIÁTRICO,,NO,NO,,
40031,HOSPITAL DE LA CRUZ ROJA,ANDALUCÍA,ALMERÍA,Almería,"CTRA. DE RONDA, KM. 196",4008,950017400.0,950017453.0,0.0,COMUNIDAD AUTÓNOMA,SERVICIO ANDALUZ DE SALUD,GENERAL,,NO,NO,36.843913,-2.452113724152164
40059,HOSPITAL VIRGEN DEL MAR,ANDALUCÍA,ALMERÍA,Almería,"CARRETERA DEL MAMÍ, KM.1",4009,950210100.0,950290625.0,76.0,PRIVADO NO BENÉFICO,PRIVADO NO BENÉFICO,GENERAL,,SI,NO,40.4593232,-3.678695195268791
40097,HOSPITAL UNIVERSITARIO TORRECÁRDENAS,ANDALUCÍA,ALMERÍA,Almería,"PARAJE DE TORRECÁRDENAS, S/N",4009,950016114.0,950016120.0,763.0,COMUNIDAD AUTÓNOMA,SERVICIO ANDALUZ DE SALUD,GENERAL,,NO,SI,36.862586750000006,-2.44116228068992
40127,HOSPITAL DE ALTA RESOLUCIÓN EL TOYO,ANDALUCÍA,ALMERÍA,Almería,CAMINO DE LA BOTICA S/N. RETAMAR,4131,950158015.0,950158020.0,44.0,COMUNIDAD AUTÓNOMA,COMUNIDAD AUTÓNOMA,GENERAL,,NO,NO,36.85068845,-2.312677824419808
40101,HOSPITAL MEDITERRÁNEO,ANDALUCÍA,ALMERÍA,Almería,"NUEVA MUSA, S/N",4007,950621063.0,950260894.0,89.0,PRIVADO NO BENÉFICO,PRIVADO NO BENÉFICO,GENERAL,,SI,NO,,
50034,HOSPITAL PROVINCIAL DE ÁVILA,CASTILLA Y LEÓN,ÁVILA,Ávila,"JESÚS DEL GRAN PODER, 42",5003,920357200.0,920357203.0,0.0,COMUNIDAD AUTÓNOMA,SANIDAD CASTILLA Y LEÓN-SACYL,GENERAL,,NO,NO,,
50049,CLÍNICA SANTA TERESA,CASTILLA Y LEÓN,ÁVILA,Ávila,"AV. SANTA CRUZ DE TENERIFE, 11",5005,920252525.0,920222342.0,33.0,PRIVADO NO BENÉFICO,PRIVADO NO BENÉFICO,GENERAL,,SI,NO,,
50013,HOSPITAL NUESTRA SEÑORA DE SONSOLES,CASTILLA Y LEÓN,ÁVILA,Ávila,"AV. JUAN CARLOS I, S/N",5071,920358000.0,920358064.0,0.0,SEGURIDAD SOCIAL,SANIDAD CASTILLA Y LEÓN-SACYL,GENERAL,,NO,SI,40.6650137,-4.6660615
50061,COMPLEJO ASISTENCIAL DE AVILA,CASTILLA Y LEÓN,ÁVILA,Ávila,"AVDA. JUAN CARLOS I, S/N",5071,920358000.0,920358064.0,430.0,ENTIDADES PÚBLICAS,SANIDAD CASTILLA Y LEÓN-SACYL,GENERAL,,NO,SI,,
60016,COMPLEJO HOSPITALARIO UNIVERSITARIO DE BADAJOZ,EXTREMADURA,BADAJOZ,Badajoz,"AVDA. DE ELVAS, S/N",6080,924218100.0,924218126.0,915.0,COMUNIDAD AUTÓNOMA,SERVICIO EXTREMEÑO DE SALUD-SES,GENERAL,,NO,SI,,
60021,HOSPITAL UNIVERSITARIO DE BADAJOZ,EXTREMADURA,BADAJOZ,Badajoz,"AVDA. DE ELVAS, S/N",6080,924218100.0,924218126.0,0.0,COMUNIDAD AUTÓNOMA,SERVICIO EXTREMEÑO DE SALUD-SES,GENERAL,,NO,SI,38.884472099999996,-7.001412677307712
60037,HOSPITAL MATERNO INFANTIL,EXTREMADURA,BADAJOZ,Badajoz,"LA VIOLETA, 1",6010,924215000.0,924215054.0,0.0,COMUNIDAD AUTÓNOMA,SERVICIO EXTREMEÑO DE SALUD-SES,MATERNO-INFANTIL,,NO,SI,,
60172,HOSPITAL QUIRONSALUD CLIDEBA,EXTREMADURA,BADAJOZ,Badajoz,"ELADIO SALINERO DE LOS SANTOS, 6",6011,924229050.0,924257859.0,73.0,PRIVADO NO BENÉFICO,PRIVADO NO BENÉFICO,GENERAL,,SI,NO,,
60286,CLÍNICA EXTREMEÑA DE SALUD,EXTREMADURA,BADAJOZ,Badajoz,FEDERICO MAYOR ZARAGOZA S/N,6006,924211818.0,924270888.0,20.0,PRIVADO NO BENÉFICO,PRIVADO NO BENÉFICO,GENERAL,,SI,SI,,
60220,HOSPITAL PERPETUO SOCORRO,EXTREMADURA,BADAJOZ,Badajoz,"AVDA. DAMIÁN TÉLLEZ LAFUENTE, S/N",6010,924215000.0,924215024.0,0.0,COMUNIDAD AUTÓNOMA,SERVICIO EXTREMEÑO DE SALUD-SES,GENERAL,,NO,SI,38.9896128,-1.8720842677027667
81347,HOSPITAL UNIVERSITARI VALL D'HEBRON,CATALUÑA,BARCELONA,Barcelona,"PS VALL D'HEBRON, 119-129",8035,934894524.0,934894401.0,1315.0,SEGURIDAD SOCIAL,INSTITUTO CATALÁN DE LA SALUD,GENERAL,,,SI,,
80431,HOSPITAL PLATÓ,CATALUÑA,BARCELONA,Barcelona,"CR PLATÓ, 21",8006,933069900.0,932005154.0,168.0,PRIVADO NO BENÉFICO,OTRO PRIVADO-BENÉFICO,GENERAL,,,NO,41.4016023,2.1418871
80410,CENTRE MÈDIC SANT JORDI DE SANT ANDREU,CATALUÑA,BARCELONA,Barcelona,"PL ESTACIÓ, 12",8030,933451604.0,932740496.0,57.0,PRIVADO NO BENÉFICO,PRIVADO NO BENÉFICO,GENERAL,,NO,NO,,
80403,CENTRE  MÈDIC  DELFOS,CATALUÑA,BARCELONA,Barcelona,"AV VALLCARCA ., 151",8023,932545000.0,934340675.0,264.0,PRIVADO NO BENÉFICO,PRIVADO NO BENÉFICO,GENERAL,,NO,NO,,
80399,HOSPITAL QUIRÓNSALUD BARCELONA,CATALUÑA,BARCELONA,Barcelona,"PL ALFONS COMÍN, 5-7",8023,932850000.0,932107561.0,192.0,PRIVADO NO BENÉFICO,PRIVADO NO BENÉFICO,GENERAL,,NO,NO,41.415843100000004,2.1384866665155404
80386,CLÍNICA TRES TORRES,CATALUÑA,BARCELONA,Barcelona,"CR DOCTOR ROUX, 76",8017,932041300.0,932806488.0,64.0,PRIVADO NO BENÉFICO,PRIVADO NO BENÉFICO,GENERAL,,NO,NO,41.61752165,2.293622063337013
80370,CLÍNICA CORACHAN,CATALUÑA,BARCELONA,Barcelona,"CR BUÏGAS, 19",8017,932545800.0,932801455.0,162.0,PRIVADO NO BENÉFICO,PRIVADO NO BENÉFICO,GENERAL,,NO,NO,41.3938163,2.130591235346064
80364,HOSPITAL UNIVERSITARI SAGRAT COR,CATALUÑA,BARCELONA,Barcelona,"CR VILADOMAT, 288",8029,933221111.0,934948969.0,367.0,PRIVADO NO BENÉFICO,PRIVADO NO BENÉFICO,GENERAL,,,SI,,
80351,HESTIA PALAU.,CATALUÑA,BARCELONA,Barcelona,"CR SANT ANTONI MARIA CLARET ,, 135",8025,934501819.0,934358505.0,317.0,PRIVADO NO BENÉFICO,PRIVADO NO BENÉFICO,GERIATRÍA Y/O LARGA ESTANCIA,,NO,NO,,
80348,FUNDACIÓ PUIGVERT - IUNA,CATALUÑA,BARCELONA,Barcelona,"CR CARTAGENA ., 340",8025,934169700.0,934169730.0,124.0,OTRO PRIVADO BENÉFICO,OTRO PRIVADO-BENÉFICO,OTROS MONOGRÁFICOS,,,NO,41.41291015,2.172711151495132
80327,HOSPITAL DE NENS DE BARCELONA,CATALUÑA,BARCELONA,Barcelona,"CR CONSELL  DE  CENT, 437",8009,932310512.0,932655017.0,18.0,OTRO PRIVADO BENÉFICO,OTRO PRIVADO-BENÉFICO,INFANTIL,,NO,NO,41.3970879,2.1733003
80312,NOU HOSPITAL EVANGÈLIC,CATALUÑA,BARCELONA,Barcelona,"CR CAMÈLIES, 15",8024,932859955.0,932194026.0,116.0,OTRO PRIVADO BENÉFICO,OTRO PRIVADO-BENÉFICO,GERIATRÍA Y/O LARGA ESTANCIA,,NO,NO,,
80291,HOSPITAL DE LA SANTA CREU I SANT PAU,CATALUÑA,BARCELONA,Barcelona,"CR SANT QUINTÍ, 89",8041,935537160.0,932919427.0,644.0,OTRO PRIVADO BENÉFICO,OTRO PRIVADO-BENÉFICO,GENERAL,,,SI,41.413976399999996,2.1755471851785164
80044,"HOSPITAL CLÍNIC DE BARCELONA, SEU SABINO DE ARANA",CATALUÑA,BARCELONA,Barcelona,"CR SABINO DE ARANA, 1",8028,932275600.0,932275605.0,130.0,DIPUTACIÓN O CABILDO,OTROS PÚBLICOS,MATERNO-INFANTIL,,,NO,,
80641,CLÍNICA PLANAS,CATALUÑA,BARCELONA,Barcelona,"CR PERE II DE MONTCADA, 16",8034,932032812.0,932057018.0,26.0,PRIVADO NO BENÉFICO,PRIVADO NO BENÉFICO,QUIRÚRGICO,,NO,NO,41.399796800000004,2.1155960820746547
80575,CLÍNICA COROLEU - SSR HESTIA.,CATALUÑA,BARCELONA,Barcelona,"CR COROLEU, 50",8030,931165500.0,933112005.0,74.0,PRIVADO NO BENÉFICO,PRIVADO NO BENÉFICO,PSIQUIÁTRICO,,NO,NO,,
80556,"SERVEIS CLÍNICS, S.A.",CATALUÑA,BARCELONA,Barcelona,"CR GARCIA MARIÑO, 4",8022,934174602.0,934189172.0,50.0,PRIVADO NO BENÉFICO,PRIVADO NO BENÉFICO,GERIATRÍA Y/O LARGA ESTANCIA,,NO,NO,,
80538,CENTRE D'OFTALMOLOGIA BARRAQUER,CATALUÑA,BARCELONA,Barcelona,"CR MUNTANER, 314",8021,932095311.0,932002469.0,70.0,PRIVADO NO BENÉFICO,PRIVADO NO BENÉFICO,OFTÁLMICO U ORL,,NO,NO,,
80497,CENTRE HOSPITALARI POLICLÍNICA BARCELONA,CATALUÑA,BARCELONA,Barcelona,"CR GUILLEM TELL, 4",8006,934161616.0,932184448.0,28.0,PRIVADO NO BENÉFICO,PRIVADO NO BENÉFICO,GENERAL,,NO,NO,,
80484,HOSPITAL  DE  BARCELONA,CATALUÑA,BARCELONA,Barcelona,"AV DIAGONAL ., 660",8034,932542400.0,932542402.0,350.0,PRIVADO NO BENÉFICO,PRIVADO NO BENÉFICO,GENERAL,,NO,NO,41.389908399999996,2.1297145497467387
80478,"CENTRO MÉDICO TEKNON,  GRUPO QUIRONSALUD",CATALUÑA,BARCELONA,Barcelona,"CR VILANA, 12",8022,932906242.0,932112690.0,285.0,PRIVADO NO BENÉFICO,PRIVADO NO BENÉFICO,GENERAL,,NO,NO,,
80446,HOSPITAL UNIVERSITARI QUIRÓN DEXEUS,CATALUÑA,BARCELONA,Barcelona,"CR SABINO DE  ARANA, 5-19",8028,932274747.0,932111654.0,170.0,PRIVADO NO BENÉFICO,PRIVADO NO BENÉFICO,GENERAL,,NO,NO,41.38482485,2.1257692963662347
81830,CENTRE SOCIOSANITARI BLAUCLÍNIC DOLORS ALEU,CATALUÑA,BARCELONA,Barcelona,"CR MARQUÈS DE SANTA ANNA, 9",8023,934343216.0,,174.0,ENTIDADES PÚBLICAS,PRIVADO NO BENÉFICO,GERIATRÍA Y/O LARGA ESTANCIA,,NO,NO,,
81829,CENTRE FÒRUM,CATALUÑA,BARCELONA,Barcelona,"CR LLULL, 410",8019,932483000.0,,223.0,ENTIDADES PÚBLICAS,OTROS PÚBLICOS,GERIATRÍA Y/O LARGA ESTANCIA,,NO,NO,,
81818,CENTRE RESIDENCIAL AMMA DIAGONAL,CATALUÑA,BARCELONA,Barcelona,"CR LLACUNA, 120-122",8018,933209630.0,,5.0,PRIVADO NO BENÉFICO,PRIVADO NO BENÉFICO,GERIATRÍA Y/O LARGA ESTANCIA,,NO,NO,,
81762,HESTIA GRÀCIA,CATALUÑA,BARCELONA,Barcelona,"CR SECRETARI COLOMA, 95",8024,934170400.0,932110065.0,153.0,PRIVADO NO BENÉFICO,PRIVADO NO BENÉFICO,GERIATRÍA Y/O LARGA ESTANCIA,,NO,NO,,
81751,CLÍNICA CREU BLANCA,CATALUÑA,BARCELONA,Barcelona,"PS REINA  ELISENDA  DE  MONTCADA,, 17",8034,932522522.0,932042187.0,51.0,PRIVADO NO BENÉFICO,PRIVADO NO BENÉFICO,GENERAL,,NO,NO,41.397948,2.1187401939937693
81740,SAR LA SALUT JOSEP SERVAT,CATALUÑA,BARCELONA,Barcelona,"CR ANTEQUERA,, 8-18",8024,932857512.0,,56.0,PRIVADO NO BENÉFICO,PRIVADO NO BENÉFICO,GERIATRÍA Y/O LARGA ESTANCIA,,NO,NO,,
81706,CENTRE COLLSEROLA MUTUAL,CATALUÑA,BARCELONA,Barcelona,"PS VALL D'HEBRON,, 159",8035,933613900.0,933613913.0,34.0,PRIVADO NO BENÉFICO,PRIVADO NO BENÉFICO,GERIATRÍA Y/O LARGA ESTANCIA,,NO,NO,,
81672,HOSPITAL  SANITAS CIMA,CATALUÑA,BARCELONA,Barcelona,"PS MANUEL GIRONA, 33",8034,935522700.0,935522749.0,83.0,PRIVADO NO BENÉFICO,PRIVADO NO BENÉFICO,GENERAL,,NO,NO,,
81649,HOSPITAL SOCIOSANITARI PERE VIRGILI,CATALUÑA,BARCELONA,Barcelona,"AV VALLCARCA, 169-205",8023,932594000.0,932594005.0,366.0,ENTIDADES PÚBLICAS,OTROS PÚBLICOS,GERIATRÍA Y/O LARGA ESTANCIA,,NO,NO,,
82224,SARQUAVITAE BONANOVA,CATALUÑA,BARCELONA,Barcelona,"CR CALATRAVA, 83",8017,932534940.0,,28.0,PRIVADO NO BENÉFICO,PRIVADO NO BENÉFICO,GERIATRÍA Y/O LARGA ESTANCIA,,NO,NO,,
82246,UNITAT TERAPÈUTICA-EDUCATIVA ACOMPANYA'M,CATALUÑA,BARCELONA,Barcelona,"CR JESÚS I MARIA, 18-20",8022,932532100.0,,30.0,PRIVADO-BENÉFICO (IGLESIA),PRIVADO-BENÉFICO (IGLESIA),PSIQUIÁTRICO,,NO,NO,,
82134,ITA MARESME,CATALUÑA,BARCELONA,Barcelona,"CR AVENIR, 14",8006,933621258.0,933621259.0,56.0,PRIVADO NO BENÉFICO,PRIVADO NO BENÉFICO,OTROS MONOGRÁFICOS,,NO,NO,41.54705145,2.3992675917026003
81964,UNITAT POLIVALENT SALUT MENTAL BARCELONA-NORD,CATALUÑA,BARCELONA,Barcelona,"AV JORDÀ, 8",8035,934275250.0,934271078.0,52.0,PRIVADO-BENÉFICO (IGLESIA),PRIVADO-BENÉFICO (IGLESIA),PSIQUIÁTRICO,,NO,NO,,
81953,MAPFRE QUAVITAE BARCELONA,CATALUÑA,BARCELONA,Barcelona,"CR SANT ANTONI MARIA CLARET, 200",8025,934579400.0,,38.0,PRIVADO NO BENÉFICO,PRIVADO NO BENÉFICO,GERIATRÍA Y/O LARGA ESTANCIA,,NO,NO,,
81942,"LEPANT RESIDENCIAL QGG, SL",CATALUÑA,BARCELONA,Barcelona,"CR LEPANT, 401-403",8025,934507438.0,,10.0,PRIVADO NO BENÉFICO,PRIVADO NO BENÉFICO,GERIATRÍA Y/O LARGA ESTANCIA,,NO,NO,,
82045,CENTRE SOCIOSANITARI STAUROS,CATALUÑA,BARCELONA,Barcelona,"PL KARL MARX, 1",8042,931171074.0,935157429.0,49.0,PRIVADO NO BENÉFICO,PRIVADO NO BENÉFICO,GERIATRÍA Y/O LARGA ESTANCIA,,NO,NO,,
80155,CLÍNICA MC LONDRES,CATALUÑA,BARCELONA,Barcelona,"CR LONDRES, 28-38",8029,934577200.0,,22.0,MATEP,MATEP,GENERAL,,NO,NO,,
82099,AMMA HORTA,CATALUÑA,BARCELONA,Barcelona,"AV CAN  MARCET, 11",8035,934280092.0,934278466.0,5.0,PRIVADO NO BENÉFICO,PRIVADO NO BENÉFICO,GERIATRÍA Y/O LARGA ESTANCIA,,NO,NO,,
82156,CLÍNICA SANT ANTONI,CATALUÑA,BARCELONA,Barcelona,"CR SANT ELOI, 6-8",8038,932974010.0,,224.0,PRIVADO NO BENÉFICO,PRIVADO NO BENÉFICO,GERIATRÍA Y/O LARGA ESTANCIA,,NO,NO,41.355740749999995,2.1435188374673015
82145,CENTRE SOCIOSANITARI DEL CENTRE INTEGRAL DE SALUT COTXERES,CATALUÑA,BARCELONA,Barcelona,"AV BORBÓ, 18-30",8016,932438991.0,932438992.0,209.0,COMUNIDAD AUTÓNOMA,PRIVADO NO BENÉFICO,GERIATRÍA Y/O LARGA ESTANCIA,,NO,NO,,
82189,CENTRE SOCIOSANITARI ISABEL ROIG,CATALUÑA,BARCELONA,Barcelona,"CR FERNANDO PESSOA, 47-51",8030,931780667.0,,251.0,COMUNIDAD AUTÓNOMA,PRIVADO NO BENÉFICO,GERIATRÍA Y/O LARGA ESTANCIA,,NO,NO,,
81874,CLÍNICA GALATEA,CATALUÑA,BARCELONA,Barcelona,"CR PALAFOLLS, 15-19",8017,932057267.0,,22.0,PRIVADO NO BENÉFICO,PRIVADO NO BENÉFICO,PSIQUIÁTRICO,,NO,NO,41.410765100000006,2.1136485643221556
80266,CLÍNICA  SOLARIUM,CATALUÑA,BARCELONA,Barcelona,"CR TICIÀ ., 21",8035,934172007.0,934177006.0,44.0,PRIVADO-BENÉFICO (IGLESIA),PRIVADO NO BENÉFICO,GERIATRÍA Y/O LARGA ESTANCIA,,NO,NO,43.309503250000006,-3.0521145738607176
80253,HOSPITAL MARE DE DÉU DE LA MERCÈ,CATALUÑA,BARCELONA,Barcelona,"PS UNIVERSAL, 34",8042,934275250.0,934271078.0,113.0,PRIVADO-BENÉFICO (IGLESIA),PRIVADO-BENÉFICO (IGLESIA),PSIQUIÁTRICO,,NO,NO,41.437874449999995,2.161609310582399
80235,CLÍNICA SAGRADA FAMÍLIA,CATALUÑA,BARCELONA,Barcelona,"CR TORRAS  I  PUJALT, 1",8022,932122300.0,932124050.0,150.0,PRIVADO NO BENÉFICO,PRIVADO NO BENÉFICO,GENERAL,,NO,NO,41.40045255,2.134144004161134
80229,CLÍNICA NOSTRA SENYORA DEL REMEI,CATALUÑA,BARCELONA,Barcelona,"CR ESCORIAL, 148",8024,932850010.0,932191083.0,134.0,PRIVADO-BENÉFICO (IGLESIA),PRIVADO-BENÉFICO (IGLESIA),GENERAL,,NO,NO,41.409650150000004,2.159804322506716
80214,HOSPITAL SANT RAFAEL,CATALUÑA,BARCELONA,Barcelona,"PS VALL D'HEBRON, 107",8035,932112508.0,934188448.0,213.0,PRIVADO-BENÉFICO (IGLESIA),PRIVADO-BENÉFICO (IGLESIA),GENERAL,,,NO,41.425792099999995,2.1406136856570956
80180,HOSPITAL EL PILAR,CATALUÑA,BARCELONA,Barcelona,"CR BALMES, 271",8006,932360500.0,,186.0,PRIVADO NO BENÉFICO,PRIVADO NO BENÉFICO,GENERAL,,NO,NO,,
80174,HOSPITAL DOS DE MAIG,CATALUÑA,BARCELONA,Barcelona,"CR DOS DE MAIG, 301",8025,935072700.0,934369026.0,229.0,PRIVADO-BENÉFICO (CRUZ ROJA),OTROS PÚBLICOS,GENERAL,,,SI,41.4109133,2.1765803
80168,HOSPITAL EGARSAT SANT HONORAT,CATALUÑA,BARCELONA,Barcelona,"AV TIBIDABO, 20",8022,932127000.0,934186478.0,14.0,SEGURIDAD SOCIAL,MATEP,GENERAL,,NO,NO,,
80142,CLÍNICA MC COPÈRNIC,CATALUÑA,BARCELONA,Barcelona,"CR COPÈRNIC, 58",8006,934141992.0,932000694.0,60.0,MATEP,MATEP,GENERAL,,NO,NO,,
80116,HOSPITAL FREMAP BARCELONA,CATALUÑA,BARCELONA,Barcelona,"CR MADRAZO, 8",8006,934169100.0,934160214.0,62.0,MATEP,MATEP,GENERAL,,NO,NO,41.413976399999996,2.1755471851785164
80109,HOSPITAL CLÍNIC DE BARCELONA,CATALUÑA,BARCELONA,Barcelona,"CR VILLARROEL, 170",8036,932275400.0,932275454.0,844.0,COMUNIDAD AUTÓNOMA,OTROS PÚBLICOS,GENERAL,,,SI,41.3880618,2.1506393
81931,CENTRE SOCIOSANITARI SANT JORDI DE LA VALL D'HEBRON,CATALUÑA,BARCELONA,Barcelona,"PS VALL D'HEBRON, 135-141",8035,934280000.0,934284017.0,57.0,OTRO PRIVADO BENÉFICO,PRIVADO NO BENÉFICO,GERIATRÍA Y/O LARGA ESTANCIA,,NO,NO,,
81920,CENTRE INTEGRAL DE SERVEIS EN SALUT MENTAL COMUNITÀRIA,CATALUÑA,BARCELONA,Barcelona,"CR VERNTALLAT, 11-19",8024,932184908.0,934151375.0,25.0,PRIVADO NO BENÉFICO,PRIVADO NO BENÉFICO,PSIQUIÁTRICO,,NO,NO,,
80060,HOSPITAL DE L'ESPERANÇA.,CATALUÑA,BARCELONA,Barcelona,"AV SANT JOSEP DE LA MUNTANYA, 12",8024,933674100.0,932190003.0,161.0,MUNICIPIO,OTROS PÚBLICOS,GENERAL,,,SI,41.410680150000005,2.1547100906261356
80057,HOSPITAL DEL MAR.,CATALUÑA,BARCELONA,Barcelona,"PS MARÍTIM DE LA BARCELONETA, 25",8003,932483000.0,932483254.0,470.0,MUNICIPIO,OTROS PÚBLICOS,GENERAL,,,SI,41.383587000000006,2.194025106793207
81593,PARC SANITARI SANT JOAN DE DÉU - NUMÀNCIA,CATALUÑA,BARCELONA,Barcelona,"CR NUMÀNCIA, 7-13",8029,933249600.0,933249603.0,159.0,OTRO PRIVADO BENÉFICO,OTRO PRIVADO-BENÉFICO,PSIQUIÁTRICO,,NO,NO,,
81574,CLÍNICA LLÚRIA,CATALUÑA,BARCELONA,Barcelona,"PG MERCADER, 14",8008,934882142.0,934878894.0,40.0,PRIVADO NO BENÉFICO,PRIVADO NO BENÉFICO,PSIQUIÁTRICO,,NO,NO,42.2285092,1.7357084
81496,REGINA SAR,CATALUÑA,BARCELONA,Barcelona,"CR MARE DE DÉU DEL COLL, 22",8023,932848635.0,932846051.0,12.0,PRIVADO NO BENÉFICO,PRIVADO NO BENÉFICO,GERIATRÍA Y/O LARGA ESTANCIA,,NO,NO,,
81379,HOSPITAL SOCIOSANITARI MUTUAM GÜELL,CATALUÑA,BARCELONA,Barcelona,"CR MARE DE DÉU DE LA SALUT, 49",8024,932133400.0,932102320.0,167.0,PRIVADO NO BENÉFICO,PRIVADO NO BENÉFICO,GERIATRÍA Y/O LARGA ESTANCIA,,NO,NO,,
480123,CLÍNICA GUIMON S.A.,PAÍS VASCO,VIZCAYA,Bilbao,"MANUEL ALLENDE, 24",48010,944215200.0,944431063.0,47.0,PRIVADO NO BENÉFICO,PRIVADO NO BENÉFICO,GENERAL,,NO,NO,,
480025,HOSPITAL INTERMUTUAL DE EUSKADI,PAÍS VASCO,VIZCAYA,Bilbao,"FONTECHA Y SALAZAR, 6",48007,944132380.0,944466767.0,44.0,MATEP,MATEP,GENERAL,,NO,NO,,
480031,CLÍNICA ERCILLA MUTUALIA,PAÍS VASCO,VIZCAYA,Bilbao,"ERCILLA, 10",48009,944252500.0,944252534.0,23.0,MATEP,MATEP,TRAUMATOLOGÍA Y/O REHABILITACIÓN,,SI,NO,43.265014449999995,-2.9311921255067386
480046,HOSPITAL CRUZ ROJA DE BILBAO,PAÍS VASCO,VIZCAYA,Bilbao,"ALAMEDA DE URQUIJO, 65",48013,944434792.0,944223771.0,68.0,PRIVADO-BENÉFICO (CRUZ ROJA),PRIVADO-BENÉFICO (CRUZ ROJA),GENERAL,,SI,NO,,
480059,SANATORIO BILBAÍNO,PAÍS VASCO,VIZCAYA,Bilbao,"GORDONIZ, 18",48010,944430150.0,944216822.0,40.0,PRIVADO-BENÉFICO (IGLESIA),PRIVADO-BENÉFICO (IGLESIA),GENERAL,,SI,NO,,
480316,CLÍNICA IMQ  ZORROTZAURRE,PAÍS VASCO,VIZCAYA,Bilbao,"BALLETS OLAETA, 4",48014,944755000.0,944479297.0,175.0,PRIVADO NO BENÉFICO,PRIVADO NO BENÉFICO,GENERAL,,NO,NO,43.2615257,-2.9410255
480160,CLÍNICA INDAUTXU,PAÍS VASCO,VIZCAYA,Bilbao,"GORDONIZ, 9",48010,944445012.0,944702824.0,30.0,PRIVADO NO BENÉFICO,PRIVADO NO BENÉFICO,GENERAL,,NO,NO,43.26295125,-2.9421176930180137
480010,HOSPITAL SANTA MARINA,PAÍS VASCO,VIZCAYA,Bilbao,"CTRA. SANTA MARINA, 41",48004,944006900.0,944006926.0,245.0,COMUNIDAD AUTÓNOMA,SERVICIO VASCO DE SALUD-OSAKIDETZA,GERIATRÍA Y/O LARGA ESTANCIA,,NO,NO,43.2623385,-2.8821925549865113
480097,IMQ CLÍNICA VIRGEN BLANCA,PAÍS VASCO,VIZCAYA,Bilbao,"MAESTRO MENDIRI, 2",48006,944127011.0,944126559.0,74.0,PRIVADO NO BENÉFICO,PRIVADO NO BENÉFICO,GENERAL,,SI,NO,,
480078,HOSPITAL DE BASURTO,PAÍS VASCO,VIZCAYA,Bilbao,"AV. MONTEVIDEO, 18",48013,944006000.0,944006180.0,733.0,COMUNIDAD AUTÓNOMA,SERVICIO VASCO DE SALUD-OSAKIDETZA,GENERAL,,NO,SI,43.261611450000004,-2.953289624384577
90026,HOSPITAL FUENTE BERMEJA,CASTILLA Y LEÓN,BURGOS,Burgos,"FRANCISCO SALINAS, S/N",9003,947256236.0,947208341.0,0.0,COMUNIDAD AUTÓNOMA,SANIDAD CASTILLA Y LEÓN-SACYL,PSIQUIÁTRICO,,SI,NO,28.3454257,-16.838398
90047,HOSPITAL RECOLETAS DE BURGOS,CASTILLA Y LEÓN,BURGOS,Burgos,"CRUZ ROJA, S/N",9006,947244055.0,947240424.0,92.0,PRIVADO-BENÉFICO (CRUZ ROJA),PRIVADO NO BENÉFICO,GENERAL,,SI,NO,42.34417345,-3.68296227310844
90050,HOSPITAL SAN JUAN DE DIOS DE BURGOS,CASTILLA Y LEÓN,BURGOS,Burgos,"Pº DE LA ISLA, 3",9003,947257730.0,947273009.0,160.0,PRIVADO-BENÉFICO (IGLESIA),PRIVADO-BENÉFICO (IGLESIA),GERIATRÍA Y/O LARGA ESTANCIA,,SI,NO,42.3393822,-3.7106959183961297
90133,COMPLEJO ASISTENCIAL UNIVERSITARIO DE BURGOS,CASTILLA Y LEÓN,BURGOS,Burgos,"AV. ISLAS BALEARES, 3",9006,947281800.0,947281829.0,865.0,ENTIDADES PÚBLICAS,SANIDAD CASTILLA Y LEÓN-SACYL,GENERAL,,NO,SI,,
90155,HOSPITAL UNIVERSITARIO DE BURGOS,CASTILLA Y LEÓN,BURGOS,Burgos,"ISLAS BALEARES, 3",9006,947281800.0,947281829.0,0.0,OTRA DEPENDENCIA PATRIMONIAL,SANIDAD CASTILLA Y LEÓN-SACYL,GENERAL,,NO,SI,42.3613402,-3.6855070886054726
100089,COMPLEJO HOSPITALARIO DE CÁCERES,EXTREMADURA,CÁCERES,Cáceres,"AV.PABLO NARANJO, S/N",10003,927256200.0,927256202.0,520.0,COMUNIDAD AUTÓNOMA,SERVICIO EXTREMEÑO DE SALUD-SES,GENERAL,,NO,SI,,
100092,HOSPITAL QUIRÓN SALUD DE CÁCERES,EXTREMADURA,CÁCERES,Cáceres,"AV. DE LA UNIVERSIDAD, 5",10004,927181360.0,927181362.0,35.0,PRIVADO NO BENÉFICO,PRIVADO NO BENÉFICO,GENERAL,,SI,NO,,
100113,"CLINICA QUIRÚRGICA CACEREÑA, S.A-(CLÍNICA SAN FRANCISCO)",EXTREMADURA,CÁCERES,Cáceres,"RONDA DE SAN FRANCISCO, 1",10002,927012200.0,927012239.0,32.0,PRIVADO NO BENÉFICO,PRIVADO NO BENÉFICO,GENERAL,,NO,NO,,
110051,HOSPITAL SAN RAFAEL,ANDALUCÍA,CÁDIZ,Cádiz,"DIEGO ARIAS, 2",11002,956017267.0,956017390.0,280.0,PRIVADO NO BENÉFICO,PRIVADO NO BENÉFICO,GENERAL,,SI,NO,,
110048,CLÍNICA LA SALUD,ANDALUCÍA,CÁDIZ,Cádiz,"FEDUCHY, 8-14",11001,956225301.0,956225193.0,58.0,PRIVADO NO BENÉFICO,PRIVADO NO BENÉFICO,GENERAL,,NO,NO,36.5320531,-6.29551843968164
110012,HOSPITAL UNIVERSITARIO PUERTA DEL MAR,ANDALUCÍA,CÁDIZ,Cádiz,"AV. ANA DE VIYA, 21",11009,956002040.0,956002220.0,738.0,COMUNIDAD AUTÓNOMA,SERVICIO ANDALUZ DE SALUD,GENERAL,,NO,SI,36.50918455,-6.277904865316896
120038,HOSPITAL LA MAGDALENA,COMUNIDAD VALENCIANA,CASTELLÓN,Castellón de la Plana/Castelló de la Plana,"CAMINO COLLET, 32",12004,964356800.0,964356835.0,128.0,COMUNIDAD AUTÓNOMA,CONSELLERIA DE SANIDAD. G. VALENCIANA,GERIATRÍA Y/O LARGA ESTANCIA,,NO,NO,,
120017,HOSPITAL GENERAL UNIVERSITARIO DE CASTELLÓN,COMUNIDAD VALENCIANA,CASTELLÓN,Castellón de la Plana/Castelló de la Plana,"AVENIDA BENICASIM, S/N",12004,964725000.0,964725026.0,580.0,COMUNIDAD AUTÓNOMA,CONSELLERIA DE SANIDAD. G. VALENCIANA,GENERAL,,NO,SI,,
120043,CONSORCIO HOSPITALARIO PROVINCIAL DE CASTELLÓN,COMUNIDAD VALENCIANA,CASTELLÓN,Castellón de la Plana/Castelló de la Plana,"AVENIDA DOCTOR CLARÁ, 19",12002,964359700.0,964354301.0,257.0,DIPUTACIÓN O CABILDO,CONSELLERIA DE SANIDAD. G. VALENCIANA,GENERAL,,NO,SI,,
120148,INSTITUTO DE TRAUMATOLOGIA DE UNIÓN DE MUTUAS (MATEPSS Nº 267),COMUNIDAD VALENCIANA,CASTELLÓN,Castellón de la Plana/Castelló de la Plana,"AVENIDA VIRGEN DE LIDÓN, 67",12004,964231212.0,964230624.0,28.0,MATEP,MATEP,TRAUMATOLOGÍA Y/O REHABILITACIÓN,,NO,NO,,
120159,HOSPITAL REY D. JAIME,COMUNIDAD VALENCIANA,CASTELLÓN,Castellón de la Plana/Castelló de la Plana,"CALLE MARÍA ROSA MOLAS, 25",12004,964726000.0,964228000.0,96.0,PRIVADO NO BENÉFICO,PRIVADO NO BENÉFICO,GENERAL,,SI,NO,40.429222,-3.7239872
510039,HOSPITAL UNIVERSITARIO DE CEUTA,CEUTA,CEUTA,Ceuta,"LOMA COLMENAR, S/N",51003,856907000.0,856907066.0,252.0,SEGURIDAD SOCIAL,INSTITUTO DE GESTIÓN SANITARIA-INGESA,GENERAL,,NO,SI,35.8803226,-5.3418945914881935
130034,SERVICIOS SANITARIOS Y ASISTENCIALES,CASTILLA-LA MANCHA,CIUDAD REAL,Ciudad Real,"RONDA DEL CARMEN, S/N",13002,926231276.0,926252002.0,85.0,DIPUTACIÓN O CABILDO,DIPUTACIÓN O CABILDO,PSIQUIÁTRICO,,NO,SI,,
130049,HOSPITAL QUIRÓNSALUD CIUDAD REAL,CASTILLA-LA MANCHA,CIUDAD REAL,Ciudad Real,"ALISOS, 19",13002,926255008.0,926250312.0,47.0,PRIVADO NO BENÉFICO,PRIVADO NO BENÉFICO,GENERAL,,SI,NO,,
130127,HOSPITAL GENERAL DE CIUDAD REAL,CASTILLA-LA MANCHA,CIUDAD REAL,Ciudad Real,"C/ OBISPO RAFAEL TORIJA, S/N",13005,926278000.0,926278501.0,564.0,COMUNIDAD AUTÓNOMA,SERVICIO DE SALUD DE CASTILLA-LA MANCHA-SESCAM,GENERAL,,NO,SI,38.97002620000001,-3.931547046696858
140230,HOSPITAL GENERAL DEL H.U. REINA SOFÍA,ANDALUCÍA,CÓRDOBA,Córdoba,"AVDA. MENÉNDEZ PIDAL, S/N",14004,957010380.0,957010340.0,0.0,COMUNIDAD AUTÓNOMA,SERVICIO ANDALUZ DE SALUD,GENERAL,,NO,SI,,
140023,HOSPITAL UNIVERSITARIO REINA SOFÍA,ANDALUCÍA,CÓRDOBA,Córdoba,"AV. MENÉNDEZ PIDAL, S/N",14004,957010380.0,957010340.0,1233.0,COMUNIDAD AUTÓNOMA,SERVICIO ANDALUZ DE SALUD,GENERAL,,NO,SI,37.86840305,-4.797182952409715
140076,HOSPITAL DE LA CRUZ ROJA DE CÓRDOBA,ANDALUCÍA,CÓRDOBA,Córdoba,"Pº DE LA VICTORIA, S/N",14004,957420666.0,957293993.0,138.0,PRIVADO-BENÉFICO (CRUZ ROJA),PRIVADO-BENÉFICO (CRUZ ROJA),GENERAL,,NO,NO,,
140082,HOSPITAL SAN JUAN DE DIOS DE CÓRDOBA,ANDALUCÍA,CÓRDOBA,Córdoba,"AV. DEL BRILLANTE, 106",14012,957274600.0,957283010.0,189.0,PRIVADO-BENÉFICO (IGLESIA),PRIVADO-BENÉFICO (IGLESIA),GENERAL,,SI,NO,37.9094628,-4.792721947860593
140039,HOSPITAL LOS MORALES,ANDALUCÍA,CÓRDOBA,Córdoba,"CTRA. DE LOS MORALES, S/N",14002,957012042.0,,0.0,COMUNIDAD AUTÓNOMA,SERVICIO ANDALUZ DE SALUD,GENERAL,,NO,SI,37.93415665,-4.804865865801263
140060,HOSPITAL PROVINCIAL,ANDALUCÍA,CÓRDOBA,Córdoba,"AV. MENÉNDEZ PIDAL, S/N",14004,957011604.0,957011600.0,0.0,DIPUTACIÓN O CABILDO,SERVICIO ANDALUZ DE SALUD,GENERAL,,NO,SI,41.652180200000004,-0.8870832026134046
140241,HOSPITAL QUIRONSALUD CÓRDOBA,ANDALUCÍA,CÓRDOBA,Córdoba,"AVDA. AEROPUERTO, 17",14004,957410000.0,,115.0,PRIVADO NO BENÉFICO,PRIVADO NO BENÉFICO,GENERAL,,NO,NO,37.8724141,-4.80204
140207,HOSPITAL LA ARRUZAFA-INSTITUTO DE OFTALMOLOGÍA,ANDALUCÍA,CÓRDOBA,Córdoba,"AV. DE LA ARRUZAFA, 9",14012,957767610.0,957401407.0,4.0,PRIVADO NO BENÉFICO,PRIVADO NO BENÉFICO,OFTÁLMICO U ORL,,SI,NO,,
140044,HOSPITAL MATERNO-INFANTIL DEL H.U. REINA SOFÍA,ANDALUCÍA,CÓRDOBA,Córdoba,"AVDA. MENÉNDEZ PIDAL, S/N",14004,957010380.0,957010340.0,0.0,COMUNIDAD AUTÓNOMA,SERVICIO ANDALUZ DE SALUD,MATERNO-INFANTIL,,NO,SI,,
150011,COMPLEXO HOSPITALARIO UNIVERSITARIO A CORUÑA,GALICIA,A CORUÑA,"Coruña, A","JUBIAS DE ARRIBA, 84",15006,981178000.0,981178001.0,1341.0,ENTIDADES PÚBLICAS,SERVICIO GALLEGO DE SALUD-SERGAS,GENERAL,,NO,SI,43.34411695,-8.388401883763521
150026,HOSPITAL UNIVERSITARIO A CORUÑA,GALICIA,A CORUÑA,"Coruña, A","JUBIAS DE ARRIBA, 84",15006,981178000.0,981178001.0,0.0,ENTIDADES PÚBLICAS,SERVICIO GALLEGO DE SALUD-SERGAS,GENERAL,,NO,SI,43.3441991,-8.386919
150032,HOSPITAL TERESA HERRERA (MATERNO-INFANTIL),GALICIA,A CORUÑA,"Coruña, A","JUBIAS DE ARRIBA, S/N",15006,981178000.0,981178001.0,0.0,ENTIDADES PÚBLICAS,SERVICIO GALLEGO DE SALUD-SERGAS,GENERAL,,NO,SI,,
150047,HOSPITAL MARITIMO DE OZA,GALICIA,A CORUÑA,"Coruña, A","JUBIAS DE ARRIBA, 1",15006,981178000.0,981178001.0,0.0,ENTIDADES PÚBLICAS,SERVICIO GALLEGO DE SALUD-SERGAS,GENERAL,,NO,SI,43.3465533,-8.38511137869949
150050,CENTRO ONCOLOXICO DE GALICIA,GALICIA,A CORUÑA,"Coruña, A","DOCTOR CAMILO VEIRAS, 1",15009,981287499.0,981287122.0,56.0,OTRO PRIVADO BENÉFICO,OTRO PRIVADO-BENÉFICO,ONCOLÓGICO,,SI,NO,43.33679955,-8.390590473488277
150063,HOSPITAL QUIRONSALUD A CORUÑA,GALICIA,A CORUÑA,"Coruña, A","LONDRES, 2",15009,981219800.0,981133586.0,127.0,PRIVADO NO BENÉFICO,PRIVADO NO BENÉFICO,GENERAL,,SI,NO,43.3288654,-8.400100182939795
150079,HOSPITAL SAN RAFAEL,GALICIA,A CORUÑA,"Coruña, A","JUBIAS DE ARRIBA, 82",15006,981179000.0,981283688.0,120.0,PRIVADO NO BENÉFICO,PRIVADO NO BENÉFICO,GENERAL,,SI,NO,,
150085,HOSPITAL HM MODELO,GALICIA,A CORUÑA,"Coruña, A","VIRREY OSORIO, 30",15011,981147300.0,981264920.0,0.0,PRIVADO NO BENÉFICO,PRIVADO NO BENÉFICO,GENERAL,,SI,NO,,
150102,MATERNIDAD HM BELEN,GALICIA,A CORUÑA,"Coruña, A","FILANTROPIA, 3",15011,981251600.0,981255155.0,0.0,PRIVADO NO BENÉFICO,PRIVADO NO BENÉFICO,GENERAL,,SI,NO,,
150124,HOSPITAL ABENTE Y LAGO,GALICIA,A CORUÑA,"Coruña, A","GENERAL SIR JOHN MOORE, S/N",15001,981178000.0,981178001.0,0.0,ENTIDADES PÚBLICAS,SERVICIO GALLEGO DE SALUD-SERGAS,GENERAL,,NO,SI,43.3683076,-8.3897842
150354,HM MODELO (GRUPO),GALICIA,A CORUÑA,"Coruña, A","VIRREY OSORIO, 30",15011,981147300.0,981264920.0,146.0,PRIVADO NO BENÉFICO,PRIVADO NO BENÉFICO,GENERAL,,SI,NO,,
160053,HOSPITAL RECOLETAS CUENCA S.L.U.,CASTILLA-LA MANCHA,CUENCA,Cuenca,"AVDA. SAN JULIÁN, 1",16003,969240559.0,969213752.0,30.0,PRIVADO NO BENÉFICO,PRIVADO NO BENÉFICO,MÉDICO-QUIRÚRGICO,,SI,NO,,
160014,HOSPITAL VIRGEN DE LA LUZ,CASTILLA-LA MANCHA,CUENCA,Cuenca,"HERMANDAD DONANTES DE SANGRE, 1",16002,969179900.0,,388.0,SEGURIDAD SOCIAL,SERVICIO DE SALUD DE CASTILLA-LA MANCHA-SESCAM,GENERAL,,NO,SI,40.075959299999994,-2.1479837268486675
200104,"POLICLÍNICA GIPUZKOA, S.A.",PAÍS VASCO,GUIPÚZCOA,Donostia/San Sebastián,"PARQUE  MIRAMÓN, 174",20014,943002851.0,943002859.0,149.0,PRIVADO NO BENÉFICO,PRIVADO NO BENÉFICO,GENERAL,,SI,SI,43.289849,-1.9816304255500448
200071,HOSPITAL RICARDO BERMINGHAM (FUNDACIÓN MATIA),PAÍS VASCO,GUIPÚZCOA,Donostia/San Sebastián,"CAMINO DE LOS PINOS, 35",20018,943317100.0,943312701.0,105.0,OTRO PRIVADO BENÉFICO,OTRO PRIVADO-BENÉFICO,GERIATRÍA Y/O LARGA ESTANCIA,,NO,SI,,
200049,MUTUALIA-CLINICA PAKEA,PAÍS VASCO,GUIPÚZCOA,Donostia/San Sebastián,"Pº DE ARRIOLA, 26",20018,943212600.0,943211188.0,29.0,PRIVADO NO BENÉFICO,MATEP,QUIRÚRGICO,,SI,SI,,
200261,HOSPITAL UNIVERSITARIO DONOSTIA-DONOSTIA UNIBERTSITATE OSPITALEA,PAÍS VASCO,GUIPÚZCOA,Donostia/San Sebastián,"Pº DR. BEGUIRISTAIN, 109",20014,943007060.0,943007233.0,1054.0,COMUNIDAD AUTÓNOMA,SERVICIO VASCO DE SALUD-OSAKIDETZA,GENERAL,,NO,SI,,
200126,HOSPITAL QUIRÓN SALUD DONOSTIA,PAÍS VASCO,GUIPÚZCOA,Donostia/San Sebastián,"ALKOLEA, 7",20012,943437100.0,943437115.0,48.0,PRIVADO NO BENÉFICO,PRIVADO NO BENÉFICO,GENERAL,,SI,NO,,
200271,HOSPITAL SAN JUAN DE DIOS DONOSTIA,PAÍS VASCO,GUIPÚZCOA,Donostia/San Sebastián,"CAMINO DE SAN JUAN DE DIOS, 12",20009,943460033.0,943470814.0,81.0,PRIVADO-BENÉFICO (IGLESIA),PRIVADO-BENÉFICO (IGLESIA),PSIQUIÁTRICO,,SI,NO,,
200132,FUNDACIÓN ONKOLOGIKOA FUNDAZIOA,PAÍS VASCO,GUIPÚZCOA,Donostia/San Sebastián,"Pº. DR. BEGIRISTAIN, 121",20014,943328000.0,943281278.0,45.0,PRIVADO NO BENÉFICO,PRIVADO NO BENÉFICO,ONCOLÓGICO,,SI,SI,,
170031,CLÍNICA BOFILL,CATALUÑA,GIRONA,Girona,"RD SANT ANTONI MARIA CLARET,, 20",17002,972204350.0,972208386.0,47.0,PRIVADO NO BENÉFICO,PRIVADO NO BENÉFICO,GENERAL,,NO,NO,42.2642488,2.9622958
170059,CLÍNICA GIRONA,CATALUÑA,GIRONA,Girona,"CR JOAN  MARAGALL, 26",17002,972204500.0,972206666.0,123.0,PRIVADO NO BENÉFICO,PRIVADO NO BENÉFICO,GENERAL,,,NO,41.96332275,2.8111323500069805
170062,CLÍNICA QUIRÚRGICA ONYAR,CATALUÑA,GIRONA,Girona,"CR HEROÏNES DE SANTA BÀRBARA, 6",17004,972204900.0,972222644.0,38.0,PRIVADO NO BENÉFICO,PRIVADO NO BENÉFICO,GENERAL,,NO,NO,41.9765586,2.8249891
170221,RESIDÈNCIA DE GENT GRAN PUIG D'EN ROCA,CATALUÑA,GIRONA,Girona,"CR ANTONI VARES I MARTINELL, 37",17007,972209250.0,972202788.0,55.0,COMUNIDAD AUTÓNOMA,COMUNIDAD AUTÓNOMA,GERIATRÍA Y/O LARGA ESTANCIA,,NO,NO,,
170242,RESIDÈNCIA GERIÀTRICA MARIA GAY,CATALUÑA,GIRONA,Girona,"CR PORTAL NOU, 12",17004,972205045.0,,24.0,PRIVADO-BENÉFICO (IGLESIA),PRIVADO-BENÉFICO (IGLESIA),GERIATRÍA Y/O LARGA ESTANCIA,,NO,NO,,
170255,HOSPITAL SOCIOSANITARI MUTUAM GIRONA,CATALUÑA,GIRONA,Girona,"AV FRANÇA, 64",17007,972171819.0,972171068.0,90.0,PRIVADO NO BENÉFICO,PRIVADO NO BENÉFICO,GERIATRÍA Y/O LARGA ESTANCIA,,NO,NO,,
170299,INSTITUT CATALÀ D'ONCOLOGIA GIRONA - HOSPITAL JOSEP TRUETA,CATALUÑA,GIRONA,Girona,"AV FRANÇA, S/N",17007,972940200.0,972940270.0,26.0,ENTIDADES PÚBLICAS,OTROS PÚBLICOS,ONCOLÓGICO,,,NO,,
170010,HOSPITAL UNIVERSITARI DE GIRONA DR. JOSEP TRUETA,CATALUÑA,GIRONA,Girona,"AV FRANÇA, S/N",17007,972940200.0,972940270.0,431.0,SEGURIDAD SOCIAL,INSTITUTO CATALÁN DE LA SALUD,GENERAL,,,SI,,
180114,HOSPITAL UNIVERSITARIO VIRGEN DE LAS NIEVES,ANDALUCÍA,GRANADA,Granada,"AV. FUERZAS ARMADAS, 2",18014,958020000.0,958020132.0,711.0,COMUNIDAD AUTÓNOMA,SERVICIO ANDALUZ DE SALUD,GENERAL,,NO,SI,37.19293935,-3.6071820011873106
180146,HOSPITAL VITHAS LA SALUD,ANDALUCÍA,GRANADA,Granada,AV. SANTA MARÍA DE LA ALHAMBRA S/N,18008,958001450.0,958808890.0,77.0,PRIVADO NO BENÉFICO,PRIVADO NO BENÉFICO,GENERAL,,NO,NO,,
180150,HOSPITAL UNIVERSITARIO SAN CECILIO,ANDALUCÍA,GRANADA,Granada,"AVDA. DE LA INVESTIGACIÓN, S/N.",18016,958020000.0,958020132.0,543.0,COMUNIDAD AUTÓNOMA,SERVICIO ANDALUZ DE SALUD,GENERAL,,NO,SI,,
180166,HOSPITAL MATERNO-INFANTIL VIRGEN DE LAS NIEVES,ANDALUCÍA,GRANADA,Granada,"AVENIDA DE LAS FUERZAS ARMADAS, 2",18014,958020000.0,958020226.0,0.0,COMUNIDAD AUTÓNOMA,SERVICIO ANDALUZ DE SALUD,MATERNO-INFANTIL,,NO,NO,,
180016,HOSPITAL GENERAL DEL H.U. VIRGEN DE LAS NIEVES,ANDALUCÍA,GRANADA,Granada,"AV. DE LAS FUERZAS ARMADAS, 2",18014,958020000.0,958020132.0,0.0,COMUNIDAD AUTÓNOMA,SERVICIO ANDALUZ DE SALUD,GENERAL,,NO,SI,,
180042,HOSPITAL DE NEUROTRAUMATOLOGÍA Y REHABILITACIÓN,ANDALUCÍA,GRANADA,Granada,"C/ SAN JUAN DE DIOS, 15",18001,958022339.0,958022305.0,0.0,COMUNIDAD AUTÓNOMA,SERVICIO ANDALUZ DE SALUD,GENERAL,,NO,SI,37.193021,-3.607196974628616
180074,HOSPITAL DE LA INMACULADA CONCEPCIÓN,ANDALUCÍA,GRANADA,Granada,"DR ALEJANDRO OTERO, 8",18004,958187700.0,958256368.0,95.0,PRIVADO NO BENÉFICO,PRIVADO NO BENÉFICO,QUIRÚRGICO,,NO,NO,,
180055,HOSPITAL SAN RAFAEL,ANDALUCÍA,GRANADA,Granada,"C/ SAN JUAN DE DIOS, 19-23",18001,958275700.0,958209110.0,166.0,PRIVADO-BENÉFICO (IGLESIA),PRIVADO-BENÉFICO (IGLESIA),GENERAL,,SI,NO,,
190077,INSTITUTO DE ENFERMEDADES NEUROLÓGICAS DE CASTILLA-LA MANCHA,CASTILLA-LA MANCHA,GUADALAJARA,Guadalajara,"PASEO DE LA ESTACIÓN, 2",19004,949211500.0,949215409.0,147.0,COMUNIDAD AUTÓNOMA,SERVICIO DE SALUD DE CASTILLA-LA MANCHA-SESCAM,OTROS MONOGRÁFICOS,,NO,NO,40.6413105,-3.172468508801463
190019,HOSPITAL UNIVERSITARIO DE GUADALAJARA,CASTILLA-LA MANCHA,GUADALAJARA,Guadalajara,"DONANTES DE SANGRE, S/N",19002,949209200.0,949209218.0,432.0,SEGURIDAD SOCIAL,SERVICIO DE SALUD DE CASTILLA-LA MANCHA-SESCAM,GENERAL,,NO,SI,40.6200993,-3.1523913
190045,CLÍNICA DR. SANZ VÁZQUEZ,CASTILLA-LA MANCHA,GUADALAJARA,Guadalajara,"PASEO DOCTOR FERNÁNDEZ IPARRAGUIRRE, 6",19001,949227200.0,,40.0,PRIVADO NO BENÉFICO,PRIVADO NO BENÉFICO,GENERAL,,NO,NO,,
190030,CLÍNICA LA ANTIGUA,CASTILLA-LA MANCHA,GUADALAJARA,Guadalajara,"CONSTITUCIÓN, 18",19003,949223600.0,949218603.0,57.0,PRIVADO NO BENÉFICO,PRIVADO NO BENÉFICO,GENERAL,,SI,NO,,
210059,HOSPITAL BLANCA PALOMA,ANDALUCÍA,HUELVA,Huelva,"AVDA. DIEGO MORÓN, 3",21005,959012100.0,959012125.0,203.0,PRIVADO NO BENÉFICO,PRIVADO NO BENÉFICO,GENERAL,,SI,NO,40.3430021,-3.717505
210025,HOSPITAL INFANTA ELENA,ANDALUCÍA,HUELVA,Huelva,"DR. PEDRO NARANJO RODRÍGUEZ, S/N",21080,959015132.0,959015145.0,304.0,COMUNIDAD AUTÓNOMA,SERVICIO ANDALUZ DE SALUD,GENERAL,,NO,NO,40.19951235,-3.697265943853283
210101,HOSPITAL UNIVERSITARIO JUAN RAMÓN JIMÉNEZ,ANDALUCÍA,HUELVA,Huelva,"RONDA NORTE, S/N",21005,959016000.0,959016202.0,891.0,COMUNIDAD AUTÓNOMA,SERVICIO ANDALUZ DE SALUD,GENERAL,,NO,SI,,
210137,HOSPITAL COSTA DE LA LUZ,ANDALUCÍA,HUELVA,Huelva,"C/ PUNTA UMBRÍA, 8",21002,959242100.0,959240652.0,56.0,PRIVADO NO BENÉFICO,PRIVADO NO BENÉFICO,GENERAL,,NO,NO,,
210084,CLÍNICA LOS NARANJOS,ANDALUCÍA,HUELVA,Huelva,"Pº DE LOS NARANJOS, 1",21004,959243900.0,959243099.0,25.0,PRIVADO NO BENÉFICO,PRIVADO NO BENÉFICO,GENERAL,,NO,NO,37.2623767,-6.9493227
210031,HOSPITAL VÁZQUEZ DÍAZ,ANDALUCÍA,HUELVA,Huelva,"CTRA. SEVILLA-HUELVA, S/N",21080,959014603.0,959014649.0,0.0,COMUNIDAD AUTÓNOMA,SERVICIO ANDALUZ DE SALUD,GENERAL,,NO,NO,37.28022205,-6.9215863706092
220041,HOSPITAL VIAMED SANTIAGO,ARAGÓN,HUESCA,Huesca,"SARIÑENA, 12",22004,974220600.0,974703011.0,40.0,PRIVADO NO BENÉFICO,PRIVADO NO BENÉFICO,GENERAL,,SI,NO,42.141452,-0.41699924566330526
220036,HOSPITAL SAGRADO CORAZÓN DE JESÚS,ARAGÓN,HUESCA,Huesca,"PASEO LUCAS MALLADA, 22",22006,974292000.0,974292009.0,70.0,COMUNIDAD AUTÓNOMA,SERVICIO ARAGONÉS DE SALUD-SALUD,GERIATRÍA Y/O LARGA ESTANCIA,,NO,SI,,
220020,CENTRO DE REHAB. PSICOSOCIAL SANTO CRISTO DE LOS MILAGROS,ARAGÓN,HUESCA,Huesca,"CTRA. DE ARGUIS, KM. 2,5",22006,974220772.0,974222604.0,110.0,COMUNIDAD AUTÓNOMA,SERVICIO ARAGONÉS DE SALUD-SALUD,PSIQUIÁTRICO,,NO,SI,,
220015,HOSPITAL GENERAL SAN JORGE,ARAGÓN,HUESCA,Huesca,"AV. MARTÍNEZ DE VELASCO, 36",22004,974247000.0,974211365.0,297.0,SEGURIDAD SOCIAL,SERVICIO ARAGONÉS DE SALUD-SALUD,GENERAL,,NO,SI,,
230151,HOSPITAL MATERNO-INFANTIL DEL H.U. DE JAÉN,ANDALUCÍA,JAÉN,Jaén,"AVDA. DEL EJÉRCITO ESPAÑOL, 10",23007,953008000.0,953008048.0,0.0,COMUNIDAD AUTÓNOMA,SERVICIO ANDALUZ DE SALUD,MATERNO-INFANTIL,,NO,NO,,
230119,HOSPITAL UNIVERSITARIO DE JAÉN,ANDALUCÍA,JAÉN,Jaén,"AVDA. DEL EJÉRCITO ESPAÑOL, 10",23007,953008010.0,953008048.0,805.0,COMUNIDAD AUTÓNOMA,SERVICIO ANDALUZ DE SALUD,GENERAL,,NO,SI,,
230011,HOSPITAL GENERAL DEL H.U. DE JAÉN,ANDALUCÍA,JAÉN,Jaén,"AVDA. DEL EJÉRCITO ESPAÑOL, 10",23007,953008000.0,953008048.0,0.0,COMUNIDAD AUTÓNOMA,SERVICIO ANDALUZ DE SALUD,GENERAL,,NO,SI,,
230047,HOSPITAL NEUROTRAUMATOLÓGICO DEL H.U. DE JAÉN,ANDALUCÍA,JAÉN,Jaén,"CTRA. BAILÉN-MOTRIL, S/N",23009,953008000.0,953008048.0,0.0,COMUNIDAD AUTÓNOMA,SERVICIO ANDALUZ DE SALUD,TRAUMATOLOGÍA Y/O REHABILITACIÓN,,NO,SI,37.7957185,-3.778470684892323
230026,HOSPITAL DOCTOR SAGAZ,ANDALUCÍA,JAÉN,Jaén,"CTRA. DEL NEVERAL, S/N",23071,953008001.0,953008048.0,0.0,COMUNIDAD AUTÓNOMA,SERVICIO ANDALUZ DE SALUD,GENERAL,,NO,SI,,
230063,CLÍNICA CRISTO REY,ANDALUCÍA,JAÉN,Jaén,"PASEO DE LA ESTACIÓN, 40",23008,953250440.0,953250458.0,39.0,PRIVADO NO BENÉFICO,PRIVADO NO BENÉFICO,QUIRÚRGICO,,NO,NO,37.77559155,-3.788789385541988
240093,HOSPITAL SANTA ISABEL,CASTILLA Y LEÓN,LEÓN,León,"AV. DE MADRID, 118",24080,987203000.0,987210405.0,0.0,PRIVADO NO BENÉFICO,SANIDAD CASTILLA Y LEÓN-SACYL,PSIQUIÁTRICO,,NO,NO,,
240191,COMPLEJO ASISTENCIAL UNIVERSITARIO DE LEÓN,CASTILLA Y LEÓN,LEÓN,León,ALTOS DE LA NAVA S/N,24080,987237400.0,987233322.0,1056.0,ENTIDADES PÚBLICAS,SANIDAD CASTILLA Y LEÓN-SACYL,GENERAL,,NO,SI,42.619350850000004,-5.573338583729345
240074,HOSPITAL HM SAN FRANCISCO,CASTILLA Y LEÓN,LEÓN,León,"MARQUESES DE SAN ISIDRO, 11",24004,987202111.0,987251012.0,75.0,PRIVADO NO BENÉFICO,PRIVADO NO BENÉFICO,GENERAL,,SI,NO,42.59001045,-5.572409309332597
240055,REGLA HM HOSPITALES,CASTILLA Y LEÓN,LEÓN,León,"CARDENAL LANDÁZURI, 2",24003,987236900.0,987220002.0,130.0,PRIVADO-BENÉFICO (IGLESIA),PRIVADO-BENÉFICO (IGLESIA),GENERAL,,SI,NO,,
240021,HOSPITAL MONTE SAN ISIDRO,CASTILLA Y LEÓN,LEÓN,León,"CTRA. DE ASTURIAS, S/N",24008,987227250.0,987243252.0,0.0,COMUNIDAD AUTÓNOMA,SANIDAD CASTILLA Y LEÓN-SACYL,GERIATRÍA Y/O LARGA ESTANCIA,,NO,NO,42.639161099999995,-5.5939803033406985
240016,HOSPITAL DE LEÓN,CASTILLA Y LEÓN,LEÓN,León,"ALTOS DE NAVA, S/N",24080,987237400.0,987233322.0,0.0,SEGURIDAD SOCIAL,SANIDAD CASTILLA Y LEÓN-SACYL,GENERAL,,NO,SI,,
250058,"CLÍNICA PERPETUO SOCORRO DE LÉRIDA, GRUPO HLA, SLU",CATALUÑA,LLEIDA,Lleida,"CR BISBE MESSEGUER, 3",25003,973266100.0,973280757.0,58.0,PRIVADO NO BENÉFICO,PRIVADO NO BENÉFICO,GENERAL,,NO,NO,,
250061,CLÍNICA TERRES DE PONENT,CATALUÑA,LLEIDA,Lleida,"AV ENRIC PRAT DE LA RIBA, 79-81",25004,973232943.0,973238540.0,123.0,PRIVADO NO BENÉFICO,PRIVADO NO BENÉFICO,GENERAL,,,NO,,
250077,CLÍNICA PSIQUIÀTRICA BELLAVISTA,CATALUÑA,LLEIDA,Lleida,"AV ROVIRA ROURE, 116",25198,973231698.0,973233364.0,75.0,PRIVADO NO BENÉFICO,PRIVADO NO BENÉFICO,PSIQUIÁTRICO,,NO,NO,,
250209,HOSPITAL JAUME NADAL MEROLES,CATALUÑA,LLEIDA,Lleida,"CR ACADÈMIA, 41",25002,973289333.0,,126.0,PRIVADO NO BENÉFICO,PRIVADO NO BENÉFICO,GERIATRÍA Y/O LARGA ESTANCIA,,NO,NO,41.610002249999994,0.6175042138349244
250019,HOSPITAL UNIVERSITARI ARNAU DE VILANOVA DE LLEIDA.,CATALUÑA,LLEIDA,Lleida,"AV ALCALDE  ROVIRA  ROURE, 80",25198,973248100.0,973248754.0,463.0,SEGURIDAD SOCIAL,INSTITUTO CATALÁN DE LA SALUD,GENERAL,,,SI,41.6268968,0.6128942241724484
250045,VITHAS HOSPITAL MONTSERRAT,CATALUÑA,LLEIDA,Lleida,"CR BISBE TORRES, 13",25002,973266300.0,973271870.0,47.0,PRIVADO NO BENÉFICO,PRIVADO NO BENÉFICO,GENERAL,,NO,NO,41.612859,0.6204697705346297
250024,HOSPITAL SANTA MARIA,CATALUÑA,LLEIDA,Lleida,"AV ALCALDE ROVIRA ROURE, 44",25198,973727222.0,973727223.0,229.0,COMUNIDAD AUTÓNOMA,OTROS PÚBLICOS,GENERAL,,,NO,,
260012,COMPLEJO HOSPITALARIO SAN MILLAN SAN PEDRO DE LA RIOJA,LA RIOJA,LA RIOJA,Logroño,C/ PIQUERAS 98,26006,941298000.0,941298660.0,590.0,COMUNIDAD AUTÓNOMA,SERVICIO RIOJANO DE SALUD,GENERAL,,NO,SI,,
260051,"POLICLÍNICO RIOJANO NUESTRA SEÑORA DE VALVANERA, S.A.",LA RIOJA,LA RIOJA,Logroño,CALLE RAMÓN Y CAJAL S/N,26006,941211900.0,941211231.0,87.0,PRIVADO NO BENÉFICO,PRIVADO NO BENÉFICO,GENERAL,,SI,NO,,
260048,HOSPITAL GENERAL DE LA RIOJA,LA RIOJA,LA RIOJA,Logroño,"AV. DE VIANA, S/N",26001,941298000.0,941297386.0,0.0,COMUNIDAD AUTÓNOMA,SERVICIO RIOJANO DE SALUD,GENERAL,,NO,SI,,
260027,HOSPITAL SAN PEDRO,LA RIOJA,LA RIOJA,Logroño,"CTRA. DE PIQUERAS, 98",26006,941298000.0,941297550.0,0.0,COMUNIDAD AUTÓNOMA,SERVICIO RIOJANO DE SALUD,GENERAL,,NO,SI,42.4510272,-2.426489382873572
270076,SANATORIO NOSA SEÑORA DOS OLLOS GRANDES,GALICIA,LUGO,Lugo,"MONTEVIDEO, 23",27001,982284040.0,982252047.0,69.0,PRIVADO NO BENÉFICO,PRIVADO NO BENÉFICO,GENERAL,,SI,NO,43.0117462,-7.5620632
270122,HOSPITAL UNIVERSITARIO LUCUS AUGUSTI,GALICIA,LUGO,Lugo,"ULISES ROMERO, 1",27003,982296000.0,,0.0,ENTIDADES PÚBLICAS,SERVICIO GALLEGO DE SALUD-SERGAS,GENERAL,,NO,SI,43.020695849999996,-7.533839337257778
270018,COMPLEXO HOSPITALARIO UNIVERSITARIO DE LUGO,GALICIA,LUGO,Lugo,"ULISES ROMERO, 1",27003,982296000.0,982295611.0,848.0,ENTIDADES PÚBLICAS,SERVICIO GALLEGO DE SALUD-SERGAS,GENERAL,,NO,SI,,
270039,HOSPITAL DE CALDE (PSIQUIATRICO),GALICIA,LUGO,Lugo,"RUA CALDE, S/N",27210,982296000.0,982295544.0,0.0,ENTIDADES PÚBLICAS,SERVICIO GALLEGO DE SALUD-SERGAS,GENERAL,,NO,SI,,
270057,HOSPITAL POLUSA,GALICIA,LUGO,Lugo,"DOUTOR IGLESIAS OTERO, S/N",27004,982222854.0,982267147.0,97.0,PRIVADO NO BENÉFICO,PRIVADO NO BENÉFICO,GENERAL,,SI,NO,,
280360,HOSPITAL BEATA MARÍA ANA. HH. HOSPITALARIAS SGDO. C. DE JESÚS,MADRID,MADRID,Madrid,"DR ESQUERDO, 83",28007,914097423.0,915732026.0,160.0,PRIVADO-BENÉFICO (IGLESIA),PRIVADO-BENÉFICO (IGLESIA),MÉDICO-QUIRÚRGICO,,SI,NO,,
280357,HOSPITAL QUIRÓNSALUD SAN JOSÉ,MADRID,MADRID,Madrid,"CARTAGENA, 111",28002,910687000.0,915103833.0,84.0,PRIVADO NO BENÉFICO,PRIVADO NO BENÉFICO,QUIRÚRGICO,,SI,NO,,
280344,HOSPITAL DE LA V.O.T. DE SAN FRANCISCO DE ASÍS,MADRID,MADRID,Madrid,"SAN BERNABÉ, 13",28005,913657600.0,913650860.0,72.0,PRIVADO-BENÉFICO (IGLESIA),PRIVADO-BENÉFICO (IGLESIA),GENERAL,,SI,NO,,
280339,HOSPITAL SAN RAFAEL,MADRID,MADRID,Madrid,"SERRANO, 199",28016,915649943.0,915635005.0,188.0,PRIVADO-BENÉFICO (IGLESIA),PRIVADO-BENÉFICO (IGLESIA),GENERAL,,SI,NO,,
280323,SANATORIO NUESTRA SEÑORA DEL ROSARIO,MADRID,MADRID,Madrid,"PRÍNCIPE DE VERGARA, 53",28006,914359100.0,915761800.0,176.0,PRIVADO-BENÉFICO (IGLESIA),PRIVADO-BENÉFICO (IGLESIA),GENERAL,,NO,NO,40.43221065,-3.6803222679672296
280262,HOSPITAL DR. R. LAFORA,MADRID,MADRID,Madrid,"CTRA. DE COLMENAR VIEJO, KM. 13,8",28049,915867500.0,915867391.0,334.0,COMUNIDAD AUTÓNOMA,SERVICIO MADRILEÑO DE SALUD,PSIQUIÁTRICO,,NO,SI,,
280246,HOSPITAL GENERAL UNIVERSITARIO GREGORIO MARAÑÓN,MADRID,MADRID,Madrid,"DR ESQUERDO, 46",28007,915868000.0,915868018.0,0.0,COMUNIDAD AUTÓNOMA,SERVICIO MADRILEÑO DE SALUD,GENERAL,,NO,SI,40.419688449999995,-3.6711262290170836
280225,COMPLEJO HOSPITALARIO GREGORIO MARAÑÓN,MADRID,MADRID,Madrid,"DR ESQUERDO, 46",28007,915868000.0,915868018.0,1349.0,COMUNIDAD AUTÓNOMA,SERVICIO MADRILEÑO DE SALUD,GENERAL,,NO,SI,,
280210,HOSPITAL CANTOBLANCO,MADRID,MADRID,Madrid,"CTRA. DE COLMENAR VIEJO, KM. 14,5",28049,917277000.0,913584699.0,0.0,COMUNIDAD AUTÓNOMA,SERVICIO MADRILEÑO DE SALUD,GENERAL,,NO,NO,42.836215,-2.9681851
280164,HOSPITAL CARLOS III,MADRID,MADRID,Madrid,"SINESIO DELGADO, 8-10",28029,917277000.0,913584699.0,0.0,COMUNIDAD AUTÓNOMA,SERVICIO MADRILEÑO DE SALUD,GENERAL,,NO,SI,40.47515315,-3.6962334469152305
280148,HOSPITAL CENTRAL DE LA CRUZ ROJA SAN JOSÉ Y SANTA ADELA,MADRID,MADRID,Madrid,"AV. DE LA REINA VICTORIA, 22-24",28003,914538300.0,915330515.0,154.0,PRIVADO-BENÉFICO (CRUZ ROJA),SERVICIO MADRILEÑO DE SALUD,GENERAL,,NO,SI,40.448003299999996,-3.707571441321388
280133,HOSPITAL INFANTIL UNIVERSITARIO NIÑO JESUS,MADRID,MADRID,Madrid,"AV. MENÉNDEZ PELAYO, 65",28009,915035900.0,915733546.0,170.0,COMUNIDAD AUTÓNOMA,SERVICIO MADRILEÑO DE SALUD,INFANTIL,,NO,SI,,
280127,HOSPITAL UNIVERSITARIO DE LA PRINCESA,MADRID,MADRID,Madrid,"DIEGO DE LEÓN, 62",28006,915202200.0,914021169.0,524.0,COMUNIDAD AUTÓNOMA,SERVICIO MADRILEÑO DE SALUD,GENERAL,,NO,SI,40.4340157,-3.6757531094540887
280112,HOSPITAL UNIVERSITARIO SANTA CRISTINA,MADRID,MADRID,Madrid,"MAESTRO VIVES, 2",28009,915574300.0,915574400.0,156.0,SEGURIDAD SOCIAL,SERVICIO MADRILEÑO DE SALUD,GENERAL,,NO,NO,40.421751549999996,-3.6710253463904463
280259,INSTITUTO PROVINCIAL DE REHABILITACIÓN,MADRID,MADRID,Madrid,"FRANCISCO SILVELA, 40",28028,915868967.0,915868996.0,0.0,COMUNIDAD AUTÓNOMA,SERVICIO MADRILEÑO DE SALUD,GERIATRÍA Y/O LARGA ESTANCIA,,NO,SI,40.4333333,-3.6724948110079776
280091,HOSPITAL VIRGEN DE LA TORRE,MADRID,MADRID,Madrid,"PUERTO LUMBRERAS, 5",28031,911918883.0,911919895.0,0.0,SEGURIDAD SOCIAL,SERVICIO MADRILEÑO DE SALUD,OTROS MONOGRÁFICOS,,NO,NO,40.38102185,-3.6192746080343383
280072,HOSPITAL CLÍNICO SAN CARLOS,MADRID,MADRID,Madrid,"PROF. MARTÍN LAGOS, S/N",28040,913303000.0,913303257.0,861.0,SEGURIDAD SOCIAL,SERVICIO MADRILEÑO DE SALUD,GENERAL,,NO,SI,,
280035,HOSPITAL UNIVERSITARIO 12 DE OCTUBRE,MADRID,MADRID,Madrid,"AV. DE CÓRDOBA, S/N",28041,913908373.0,913908582.0,1196.0,SEGURIDAD SOCIAL,SERVICIO MADRILEÑO DE SALUD,GENERAL,,NO,SI,40.376679499999995,-3.6988633268413382
280029,HOSPITAL RAMÓN Y CAJAL,MADRID,MADRID,Madrid,"CTRA. DE COLMENAR VIEJO, KM. 9,1",28034,913368000.0,913580614.0,901.0,SEGURIDAD SOCIAL,SERVICIO MADRILEÑO DE SALUD,GENERAL,,NO,SI,40.4877872,-3.6936785
280014,HOSPITAL UNIVERSITARIO LA PAZ,MADRID,MADRID,Madrid,"Pº DE LA CASTELLANA, 261",28046,917277000.0,913584699.0,0.0,SEGURIDAD SOCIAL,SERVICIO MADRILEÑO DE SALUD,GENERAL,,NO,SI,40.48144225,-3.6872531870474865
281405,COMPLEJO HOSPITALARIO UNIVERSITARIO INFANTA LEONOR,MADRID,MADRID,Madrid,"GRAN VÍA DEL ESTE, 80",28031,911918000.0,911919077.0,361.0,COMUNIDAD AUTÓNOMA,SERVICIO MADRILEÑO DE SALUD,GENERAL,,NO,SI,,
281393,CLÍNICA UNIVERSIDAD DE NAVARRA,MADRID,MADRID,Madrid,"MARQUESADO DE SANTA MARTA, 1",28027,913138400.0,,72.0,OTRO PRIVADO BENÉFICO,OTRO PRIVADO-BENÉFICO,GENERAL,,NO,NO,42.8058167,-1.6642959885309305
281270,HOSPITAL UNIVERSITARIO INFANTA LEONOR,MADRID,MADRID,Madrid,"GRAN VÍA DEL ESTE, 80",28031,911918000.0,911919077.0,0.0,COMUNIDAD AUTÓNOMA,SERVICIO MADRILEÑO DE SALUD,GENERAL,,NO,SI,40.3860763,-3.6176656559357574
281247,VITAS NISA PARDO DE ARAVACA.,MADRID,MADRID,Madrid,"LA SALLE, 12",28023,915129000.0,913079510.0,98.0,PRIVADO NO BENÉFICO,PRIVADO NO BENÉFICO,GENERAL,,SI,NO,,
281225,HOSPITAL UNIVERSITARIO MADRID SANCHINARRO,MADRID,MADRID,Madrid,"OÑA, 10",28050,917567800.0,917500133.0,198.0,PRIVADO NO BENÉFICO,PRIVADO NO BENÉFICO,GENERAL,,SI,SI,,
281214,HOSPITAL CENTRO DE CUIDADOS LAGUNA,MADRID,MADRID,Madrid,"CONCEJAL FRANCISCO JOSÉ JIMÉNEZ MARTÍN, 128",28047,915099137.0,914013649.0,47.0,OTRO PRIVADO BENÉFICO,OTRO PRIVADO-BENÉFICO,OTROS MONOGRÁFICOS,,SI,NO,,
281179,HOSPITAL LA MORALEJA,MADRID,MADRID,Madrid,"AV. FRANCISCO PI Y MARGALL, 81",28050,917679100.0,917679344.0,126.0,PRIVADO NO BENÉFICO,PRIVADO NO BENÉFICO,GENERAL,,NO,SI,40.0684627,-6.6604617
281168,COMPLEJO UNIVERSITARIO LA PAZ,MADRID,MADRID,Madrid,"Pº DE LA CASTELLANA, 261",28046,917277000.0,913584699.0,1268.0,SEGURIDAD SOCIAL,SERVICIO MADRILEÑO DE SALUD,GENERAL,,NO,SI,,
281113,CENTRO ONCOLÓGICO MD ANDERSON INTERNATIONAL ESPAÑA,MADRID,MADRID,Madrid,GÓMEZ HEMANS. 2-4,28033,917878600.0,917680687.0,99.0,MINISTERIO DE DEFENSA,PRIVADO NO BENÉFICO,ONCOLÓGICO,,SI,NO,,
281087,CLINICA CEMTRO,MADRID,MADRID,Madrid,"AV. VENTISQUERO DE LA CONDESA, 42",28035,917355757.0,917355758.0,94.0,PRIVADO NO BENÉFICO,PRIVADO NO BENÉFICO,MÉDICO-QUIRÚRGICO,,NO,NO,40.49403635,-3.7169277940032397
281049,HOSPITAL UNIVERSITARIO MONCLOA,MADRID,MADRID,Madrid,"AV. VALLADOLID, 83",28008,915957392.0,915957077.0,235.0,PRIVADO NO BENÉFICO,PRIVADO NO BENÉFICO,GENERAL,,SI,NO,,
281034,CLÍNICA ISADORA,MADRID,MADRID,Madrid,"PIRINEOS, 7",28040,913111000.0,913111659.0,19.0,PRIVADO NO BENÉFICO,PRIVADO NO BENÉFICO,MÉDICO-QUIRÚRGICO,,SI,NO,,
280954,HOSPITAL DE MADRID,MADRID,MADRID,Madrid,"PZA CONDE DEL VALLE DE SUCHILL, 16",28015,914476600.0,915941598.0,99.0,PRIVADO-BENÉFICO (IGLESIA),PRIVADO NO BENÉFICO,QUIRÚRGICO,,SI,SI,,
281416,CLÍNICA SAN VICENTE,MADRID,MADRID,Madrid,"AVDA. VENTISQUERO DE LA CONDESA, Nº46 4ªPLANTA",28035,916318212.0,917348731.0,45.0,PRIVADO NO BENÉFICO,PRIVADO NO BENÉFICO,REHABILITACIÓN PSICOFÍSICA,,SI,NO,,
280724,HOSPITAL CENTRAL DE LA DEFENSA GOMEZ ULLA,MADRID,MADRID,Madrid,"GLORIETA DEL EJÉRCITO, Nº 1",28047,914222000.0,914228201.0,475.0,MINISTERIO DE DEFENSA,MINISTERIO DE DEFENSA,GENERAL,,SI,SI,40.390138300000004,-3.74754307964808
280679,"SANATORIO ESQUERDO, S.A.",MADRID,MADRID,Madrid,"AV. DE LOS POBLADOS, 70",28044,917061100.0,917063521.0,115.0,PRIVADO NO BENÉFICO,PRIVADO NO BENÉFICO,PSIQUIÁTRICO,,NO,NO,,
280650,INSTITUTO DE INVESTIGACIONES NEUROPSIQUIÁTRICAS DR. LÓPEZ IBOR,MADRID,MADRID,Madrid,"DOCTOR JUAN JOSÉ LÓPEZ IBOR, 2",28035,913162740.0,913162844.0,67.0,PRIVADO NO BENÉFICO,PRIVADO NO BENÉFICO,PSIQUIÁTRICO,,NO,NO,,
280647,SANATORIO NEUROPSIQUIÁTRICO DOCTOR LEÓN,MADRID,MADRID,Madrid,"PZA MARIANO DE CAVIA, 3",28007,914332948.0,914334938.0,96.0,PRIVADO NO BENÉFICO,PRIVADO NO BENÉFICO,PSIQUIÁTRICO,,NO,NO,,
280626,HOSPITAL UNIVERSITARIO HM NUEVO BELEN,MADRID,MADRID,Madrid,"JOSÉ SILVA, 7",28043,917444100.0,914153305.0,60.0,PRIVADO NO BENÉFICO,PRIVADO NO BENÉFICO,MATERNAL,,NO,SI,,
280604,HOSPITAL UNIVERSITARIO LA ZARZUELA,MADRID,MADRID,Madrid,"PLÉYADES, 25 (ARAVACA)",28023,915858016.0,913572892.0,116.0,PRIVADO NO BENÉFICO,PRIVADO NO BENÉFICO,GENERAL,,NO,SI,,
280587,CLÍNICA LA MILAGROSA,MADRID,MADRID,Madrid,"MODESTO LAFUENTE, 14",28010,914472100.0,914473449.0,171.0,PRIVADO NO BENÉFICO,PRIVADO NO BENÉFICO,QUIRÚRGICO,,SI,NO,40.436998200000005,-3.6959394790546005
280565,HOSPITAL RUBER INTERNACIONAL,MADRID,MADRID,Madrid,"LA MASÓ, 38",28034,913875000.0,913875259.0,143.0,PRIVADO NO BENÉFICO,PRIVADO NO BENÉFICO,GENERAL,,SI,NO,40.4891353,-3.7140078
280552,HOSPITAL RUBER JUAN BRAVO 49,MADRID,MADRID,Madrid,"JUAN BRAVO, 49",28006,910687999.0,914024617.0,163.0,PRIVADO NO BENÉFICO,PRIVADO NO BENÉFICO,GENERAL,,SI,NO,,
280549,FUENSANTA S.L. (CLÍNICA FUENSANTA),MADRID,MADRID,Madrid,"ARTURO SORIA, 17",28027,914100200.0,914071512.0,30.0,PRIVADO NO BENÉFICO,PRIVADO NO BENÉFICO,QUIRÚRGICO,,SI,NO,,
280534,"CLÍNICA LA LUZ, S.L.",MADRID,MADRID,Madrid,"MAESTRO ÁNGEL LLORCA, 8",28003,914530200.0,914530425.0,180.0,PRIVADO NO BENÉFICO,PRIVADO NO BENÉFICO,MÉDICO-QUIRÚRGICO,,SI,NO,40.4441399,-3.713733268283735
280528,"HOSPITAL VIRGEN DE LA PALOMA, S.A.",MADRID,MADRID,Madrid,"LOMA, 1",28003,915348207.0,915532268.0,92.0,PRIVADO NO BENÉFICO,PRIVADO NO BENÉFICO,QUIRÚRGICO,,NO,NO,,
280474,HOSPITAL VITHAS NUESTRA SEÑORA DE AMÉRICA,MADRID,MADRID,Madrid,"ARTURO SORIA, 103",28043,902500112.0,914130974.0,100.0,PRIVADO NO BENÉFICO,PRIVADO NO BENÉFICO,GENERAL,,SI,NO,40.4496238,-3.6522874022312006
280468,HOSPITAL RUBER JUAN BRAVO 39,MADRID,MADRID,Madrid,"JUAN BRAVO, 39",28006,910687777.0,913098223.0,70.0,PRIVADO NO BENÉFICO,PRIVADO NO BENÉFICO,GENERAL,,SI,NO,,
280455,"HESTIA MADRID (CLÍNICA SEAR, S.A.)",MADRID,MADRID,Madrid,"CTRA. DE COLMENAR VIEJO, KM. 16",28049,917340500.0,917348734.0,250.0,PRIVADO NO BENÉFICO,PRIVADO NO BENÉFICO,GERIATRÍA Y/O LARGA ESTANCIA,,SI,NO,,
280442,HOSPITAL VIRGEN DEL MAR,MADRID,MADRID,Madrid,"CALLE HONDURAS, Nº 14",28016,913539500.0,913451013.0,76.0,PRIVADO NO BENÉFICO,PRIVADO NO BENÉFICO,GENERAL,,NO,NO,40.4593232,-3.678695195268791
280421,HOSPITAL UNIVERSITARIO FUNDACIÓN JIMÉNEZ DÍAZ,MADRID,MADRID,Madrid,"AV. DE LOS REYES CATÓLICOS, 2",28040,915504800.0,915443625.0,659.0,PRIVADO NO BENÉFICO,PRIVADO NO BENÉFICO,GENERAL,,SI,SI,,
280416,FUNDACIÓN INSTITUTO SAN JOSÉ,MADRID,MADRID,Madrid,"C\ PINAR DE SAN JOSÉ, 98",28054,915080140.0,915083760.0,259.0,OTRO PRIVADO BENÉFICO,PRIVADO-BENÉFICO (IGLESIA),GERIATRÍA Y/O LARGA ESTANCIA,,SI,NO,40.36313615,-3.773396371288738
280409,CLÍNICA NUESTRA SRA. DE LA PAZ,MADRID,MADRID,Madrid,"LÓPEZ DE HOYOS, 259",28043,914156000.0,915191509.0,99.0,PRIVADO-BENÉFICO (IGLESIA),PRIVADO-BENÉFICO (IGLESIA),PSIQUIÁTRICO,,SI,SI,36.4668448,-5.9277454
280395,CLÍNICA SAN MIGUEL,MADRID,MADRID,Madrid,"ARTURO SORIA, 204",28043,914135011.0,914135638.0,94.0,PRIVADO-BENÉFICO (IGLESIA),PRIVADO-BENÉFICO (IGLESIA),PSIQUIÁTRICO,,SI,NO,42.8191463,-1.620756392984834
280382,HOSPITAL SAN FRANCISCO DE ASÍS,MADRID,MADRID,Madrid,"JOAQUÍN COSTA, 28",28002,915617100.0,915643971.0,168.0,PRIVADO-BENÉFICO (IGLESIA),PRIVADO-BENÉFICO (IGLESIA),GENERAL,,SI,NO,,
280376,CLÍNICA SANTA ELENA,MADRID,MADRID,Madrid,"LA GRANJA, 8",28003,914539400.0,914539401.0,76.0,PRIVADO-BENÉFICO (IGLESIA),PRIVADO-BENÉFICO (IGLESIA),GENERAL,,SI,NO,40.4456818,-3.716825558930167
290115,CLÍNICA DE LA ENCARNACIÓN,ANDALUCÍA,MALAGA,Málaga,"FERNÁNDEZ DE ALARCÓN, 2",29007,952287766.0,952272473.0,105.0,PRIVADO NO BENÉFICO,PRIVADO NO BENÉFICO,GENERAL,,SI,NO,36.719875099999996,-4.454131674311508
290416,COMUNIDAD TERAPÉUTICA SAN ANTONIO,ANDALUCÍA,MALAGA,Málaga,"EXTREMADURA, 8",29018,952201464.0,952201463.0,35.0,PRIVADO NO BENÉFICO,PRIVADO NO BENÉFICO,PSIQUIÁTRICO,,NO,NO,,
290017,HOSPITAL GENERAL DEL H.U.R. DE MÁLAGA,ANDALUCÍA,MALAGA,Málaga,"AVDA. CARLOS HAYA, S/N",29010,951030100.0,951030157.0,0.0,COMUNIDAD AUTÓNOMA,SERVICIO ANDALUZ DE SALUD,GENERAL,,NO,SI,,
290022,HOSPITAL VIRGEN DE LA VICTORIA,ANDALUCÍA,MALAGA,Málaga,"CAMPUS UNIVERSITARIO TEATINOS, S/N",29010,951032000.0,951032188.0,0.0,COMUNIDAD AUTÓNOMA,SERVICIO ANDALUZ DE SALUD,GENERAL,,NO,SI,,
290038,HOSPITAL CIVIL,ANDALUCÍA,MALAGA,Málaga,"PLAZA DEL HOSPITAL CIVIL, S/N",29009,951030300.0,951030302.0,0.0,COMUNIDAD AUTÓNOMA,SERVICIO ANDALUZ DE SALUD,GENERAL,,NO,SI,36.72789245,-4.432454070990566
290069,CENTRO ASISTENCIAL SAN JUAN DE DIOS,ANDALUCÍA,MALAGA,Málaga,"CTRA. CASABERMEJA, 126",29014,952250550.0,952255039.0,351.0,PRIVADO-BENÉFICO (IGLESIA),PRIVADO-BENÉFICO (IGLESIA),PSIQUIÁTRICO,,NO,NO,41.9994166,-4.554387660668667
290075,CENTRO ASISTENCIAL HNAS. HOSP. DEL SAGRADO CORAZÓN DE JESÚS,ANDALUCÍA,MALAGA,Málaga,"SAN JUAN BOSCO, 41",29014,952256150.0,952251823.0,321.0,PRIVADO-BENÉFICO (IGLESIA),PRIVADO-BENÉFICO (IGLESIA),PSIQUIÁTRICO,,NO,NO,,
290081,HOSPITAL VITHAS PARQUE SAN ANTONIO,ANDALUCÍA,MALAGA,Málaga,"AV. PINTOR JOAQUÍN SOROLLA, 2",29016,952211050.0,952211059.0,100.0,PRIVADO NO BENÉFICO,PRIVADO NO BENÉFICO,GENERAL,,NO,NO,36.72278405,-4.397277908076109
290094,HOSPITAL EL ÁNGEL,ANDALUCÍA,MALAGA,Málaga,"CORREGIDOR NICOLÁS ISIDRO, 16",29007,952045000.0,952348144.0,138.0,PRIVADO NO BENÉFICO,PRIVADO NO BENÉFICO,GENERAL,,NO,NO,,
290108,HOSPITAL DOCTOR GÁLVEZ,ANDALUCÍA,MALAGA,Málaga,"SAN AGUSTÍN, 1",29015,952224295.0,952211885.0,62.0,PRIVADO NO BENÉFICO,PRIVADO NO BENÉFICO,GENERAL,,NO,NO,36.7209148,-4.41940843550202
290136,HOSPITAL PSIQUIÁTRICO SAN FRANCISCO DE ASÍS,ANDALUCÍA,MALAGA,Málaga,"AV. HERNÁN NÚÑEZ DE TOLEDO, 5",29018,952201464.0,952201463.0,150.0,PRIVADO NO BENÉFICO,PRIVADO NO BENÉFICO,PSIQUIÁTRICO,,NO,NO,,
290141,CLÍNICA NUESTRA SRA. DEL PILAR,ANDALUCÍA,MALAGA,Málaga,"Pº DE SANCHA, 15-17",29016,952217606.0,952217605.0,21.0,PRIVADO NO BENÉFICO,PRIVADO NO BENÉFICO,GENERAL,,SI,NO,,
290449,HOSPITAL QUIRONSALUD MÁLAGA,ANDALUCÍA,MALAGA,Málaga,AV IMPERIO ARGENTINA 1,29004,952176016.0,952176120.0,132.0,PRIVADO NO BENÉFICO,PRIVADO NO BENÉFICO,GENERAL,,NO,NO,,
290290,HOSPITAL  F.A.C. DOCTOR PASCUAL,ANDALUCÍA,MALAGA,Málaga,"AMARGURA, 31",29012,951019100.0,951019281.0,201.0,PRIVADO NO BENÉFICO,PRIVADO NO BENÉFICO,GENERAL,,SI,NO,36.8628149,-5.6512128
290265,HOSPITAL MATERNO-INFANTIL DEL H.U.R. DE MÁLAGA,ANDALUCÍA,MALAGA,Málaga,"AVDA. ARROYO DE LOS ÁNGELES, S/N",29011,951030200.0,951030245.0,0.0,COMUNIDAD AUTÓNOMA,SERVICIO ANDALUZ DE SALUD,MATERNO-INFANTIL,,NO,SI,,
290252,HOSPITAL UNIVERSITARIO VIRGEN DE LA VICTORIA,ANDALUCÍA,MALAGA,Málaga,"CAMPUS UNIVERSITARIO TEATINOS, S/N",29010,951032000.0,951032188.0,657.0,COMUNIDAD AUTÓNOMA,SERVICIO ANDALUZ DE SALUD,GENERAL,,NO,SI,,
290234,HOSPITAL UNIVERSITARIO REGIONAL DE MÁLAGA,ANDALUCÍA,MALAGA,Málaga,"AVDA. CARLOS HAYA, S/N",29010,951030100.0,951030157.0,1049.0,COMUNIDAD AUTÓNOMA,SERVICIO ANDALUZ DE SALUD,GENERAL,,NO,SI,,
520018,HOSPITAL COMARCAL,MELILLA,MELILLA,Melilla,"CTRA. REMONTA, 2",52005,952698001.0,952698032.0,168.0,SEGURIDAD SOCIAL,INSTITUTO DE GESTIÓN SANITARIA-INGESA,GENERAL,,NO,SI,35.2863723,-2.947384295577102
300011,HOSPITAL CLÍNICO UNIVERSITARIO VIRGEN DE LA ARRIXACA,REGIÓN DE MURCIA,MURCIA,Murcia,"CARRETERA MADRID-CARTAGENA, S/N (EL PALMAR)",30120,968369500.0,968369776.0,920.0,SEGURIDAD SOCIAL,SERVICIO MURCIANO DE SALUD,GENERAL,,NO,SI,37.93215975,-1.1625427931490806
300026,HOSPITAL GENERAL UNIVERSITARIO REINA SOFÍA,REGIÓN DE MURCIA,MURCIA,Murcia,"AV. INTENDENTE JORGE PALACIOS, 1",30003,968359000.0,968359819.0,339.0,COMUNIDAD AUTÓNOMA,SERVICIO MURCIANO DE SALUD,GENERAL,,NO,SI,37.982881250000005,-1.1210399437685714
300050,HOSPITAL QUIRÓNSALUD MURCIA,REGIÓN DE MURCIA,MURCIA,Murcia,"MIGUEL HERNÁNDEZ, 12",30011,968365000.0,968250977.0,131.0,PRIVADO NO BENÉFICO,PRIVADO NO BENÉFICO,GENERAL,,SI,NO,,
300079,HOSPITAL LA VEGA,REGIÓN DE MURCIA,MURCIA,Murcia,"ROMÁN ALBERCA, S/N",30008,968278100.0,968233116.0,123.0,PRIVADO NO BENÉFICO,PRIVADO NO BENÉFICO,GENERAL,,SI,NO,,
300085,HOSPITAL MESA DEL CASTILLO,REGIÓN DE MURCIA,MURCIA,Murcia,"RONDA SUR, 20",30010,968246116.0,968234036.0,76.0,PRIVADO NO BENÉFICO,PRIVADO NO BENÉFICO,MÉDICO-QUIRÚRGICO,,SI,NO,37.9694704,-1.1280926534515434
300098,SANATORIO DOCTOR MUÑOZ S.L.,REGIÓN DE MURCIA,MURCIA,Murcia,"CTRA. CARTAGENA, 59",30120,968885550.0,868042968.0,50.0,PRIVADO NO BENÉFICO,PRIVADO NO BENÉFICO,PSIQUIÁTRICO,,NO,NO,,
300269,HOSPITAL GENERAL UNIVERSITARIO J.M. MORALES MESEGUER,REGIÓN DE MURCIA,MURCIA,Murcia,"AV. MARQUÉS DE LOS VÉLEZ, S/N",30008,968244200.0,968243895.0,394.0,SEGURIDAD SOCIAL,SERVICIO MURCIANO DE SALUD,GENERAL,,NO,SI,,
300275,HOSPITAL IBERMUTUAMUR-PATOLOGÍA LABORAL,REGIÓN DE MURCIA,MURCIA,Murcia,"ANTONIO ROCAMORA, 4. EDIFICIO IBERMUTUAMUR (ESPINARDO)",30100,968394000.0,968394014.0,26.0,MATEP,MATEP,TRAUMATOLOGÍA Y/O REHABILITACIÓN,,NO,NO,,
300317,CLÍNICA SAN FELIPE DEL MEDITERRÁNEO,REGIÓN DE MURCIA,MURCIA,Murcia,"FINCA EL MAYAYO, 16 (EL PALMAR)",30120,968889096.0,968889097.0,62.0,PRIVADO NO BENÉFICO,PRIVADO NO BENÉFICO,PSIQUIÁTRICO,,SI,NO,,
300032,HOSPITAL PSIQUIÁTRICO ROMAN ALBERCA,REGIÓN DE MURCIA,MURCIA,Murcia,"LORCA, 58  (EL PALMAR)",30120,968365800.0,968365801.0,96.0,COMUNIDAD AUTÓNOMA,SERVICIO MURCIANO DE SALUD,PSIQUIÁTRICO,,NO,SI,37.942654399999995,-1.1672759573070917
320163,CLINICA SANTA TERESA,GALICIA,OURENSE,Ourense,"SAENZ DIEZ, 11",32003,988371710.0,988372357.0,49.0,PRIVADO NO BENÉFICO,PRIVADO NO BENÉFICO,GENERAL,,SI,NO,40.65949465,-4.686122414184396
320013,COMPLEXO HOSPITALARIO UNIVERSITARIO DE OURENSE,GALICIA,OURENSE,Ourense,"RAMON PUGA, 52",32005,988385500.0,988385551.0,869.0,ENTIDADES PÚBLICAS,SERVICIO GALLEGO DE SALUD-SERGAS,GENERAL,,NO,SI,42.3258516,-7.860444970248869
320028,HOSPITAL UNIVERSITARIO CRISTAL,GALICIA,OURENSE,Ourense,"RAMON PUGA, 52",32005,988385500.0,988385551.0,0.0,ENTIDADES PÚBLICAS,SERVICIO GALLEGO DE SALUD-SERGAS,GENERAL,,NO,SI,,
320052,HOSPITAL SANTA MARIA NAI,GALICIA,OURENSE,Ourense,"RAMON PUGA, 52",32005,988385500.0,988385551.0,0.0,ENTIDADES PÚBLICAS,SERVICIO GALLEGO DE SALUD-SERGAS,GENERAL,,NO,SI,42.326554900000005,-7.859673728712561
320087,CENTRO MEDICO EL CARMEN,GALICIA,OURENSE,Ourense,"HABANA (DE LA), 50",32003,988223400.0,988241300.0,43.0,PRIVADO NO BENÉFICO,PRIVADO NO BENÉFICO,GENERAL,,SI,NO,36.7809487,-4.1059629
330061,CENTRO MÉDICO DE ASTURIAS,PPDO. DE ASTURIAS,ASTURIAS,Oviedo,AVDA. RICHARD GRANDÍO S/N,33193,985250300.0,985238433.0,105.0,PRIVADO NO BENÉFICO,PRIVADO NO BENÉFICO,GENERAL,,SI,NO,43.34193625,-5.874346443123288
330077,CLÍNICA ASTURIAS,PPDO. DE ASTURIAS,ASTURIAS,Oviedo,"NARANJO DE BULNES, 4 Y 6",33012,985286000.0,985289954.0,46.0,PRIVADO NO BENÉFICO,PRIVADO NO BENÉFICO,GENERAL,,SI,NO,43.3678234,-5.8562017490518485
330096,CLÍNICA SAN RAFAEL,PPDO. DE ASTURIAS,ASTURIAS,Oviedo,LA ESTRECHA 33  LA CORREDORIA,33011,985282526.0,985290284.0,36.0,PRIVADO NO BENÉFICO,PRIVADO NO BENÉFICO,PSIQUIÁTRICO,,NO,NO,36.53315585,-6.302035775812517
330292,HOSPITAL UNIVERSITARIO CENTRAL DE ASTURIAS,PPDO. DE ASTURIAS,ASTURIAS,Oviedo,"AVDA. ROMA, S/N  LA CORREDORIA",33011,985108000.0,985108703.0,991.0,ENTIDADES PÚBLICAS,SERVICIO DE SALUD DEL PRINCIPADO DE ASTURIAS-SESPA,GENERAL,,NO,SI,43.37598885,-5.82928089365817
330343,CLÍNICA CIRUGÍA PLÁSTICA Y ESTÉTICA FERNÁNDEZ Y FERNÁNDEZ COSSÍO,PPDO. DE ASTURIAS,ASTURIAS,Oviedo,"BIMENES,18",33006,985220244.0,,3.0,PRIVADO NO BENÉFICO,PRIVADO NO BENÉFICO,QUIRÚRGICO,,NO,NO,,
330045,HOSPITAL MONTE NARANCO,PPDO. DE ASTURIAS,ASTURIAS,Oviedo,"AVDA. DRES. FERNÁNDEZ-VEGA, 107",33012,985106900.0,985106911.0,194.0,COMUNIDAD AUTÓNOMA,SERVICIO DE SALUD DEL PRINCIPADO DE ASTURIAS-SESPA,GENERAL,,NO,SI,43.3701561,-5.873005763217706
330376,INSTITUTO OFTALMOLÓGICO FERNÁNDEZ -VEGA,PPDO. DE ASTURIAS,ASTURIAS,Oviedo,"AVDA. DOCTORES FERNÁNDEZ-VEGA, 34",33012,985241512.0,985231254.0,13.0,PRIVADO NO BENÉFICO,PRIVADO NO BENÉFICO,OFTÁLMICO U ORL,,NO,NO,,
340063,COMPLEJO ASISTENCIAL UNIVERSITARIO DE PALENCIA,CASTILLA Y LEÓN,PALENCIA,Palencia,"AV. DONANTES DE SANGRE, S/N",34005,979167000.0,979167014.0,495.0,ENTIDADES PÚBLICAS,SANIDAD CASTILLA Y LEÓN-SACYL,GENERAL,,NO,SI,,
340053,HOSPITAL RECOLETAS DE PALENCIA,CASTILLA Y LEÓN,PALENCIA,Palencia,"AV. SIMÓN NIETO, 31-34",34005,979747700.0,979703329.0,44.0,PRIVADO NO BENÉFICO,PRIVADO NO BENÉFICO,GENERAL,,SI,NO,,
340040,ÁREA PSIQUIÁTRICA DEL CENTRO ASISTENCIAL SAN JUAN DE DIOS,CASTILLA Y LEÓN,PALENCIA,Palencia,"PS. PADRE FAUSTINO CALVO, 46",34005,979742300.0,979742890.0,97.0,PRIVADO-BENÉFICO (IGLESIA),PRIVADO-BENÉFICO (IGLESIA),PSIQUIÁTRICO,,SI,NO,,
340035,HOSPITAL PSIQUIATRICO SAN LUIS,CASTILLA Y LEÓN,PALENCIA,Palencia,"CTRA. DE BURGOS, S/N",34004,979165324.0,979165443.0,206.0,PRIVADO-BENÉFICO (IGLESIA),PRIVADO-BENÉFICO (IGLESIA),PSIQUIÁTRICO,,NO,NO,41.99361155,-4.506501179765371
340029,HOSPITAL SAN TELMO,CASTILLA Y LEÓN,PALENCIA,Palencia,"AV. SAN TELMO, S/N",34004,979167000.0,979167014.0,0.0,DIPUTACIÓN O CABILDO,SANIDAD CASTILLA Y LEÓN-SACYL,GENERAL,,NO,SI,41.9972544,-4.518894338985511
340014,HOSPITAL RIO CARRIÓN,CASTILLA Y LEÓN,PALENCIA,Palencia,"AV. DONANTES DE SANGRE, S/N",34005,979167000.0,979167014.0,0.0,SEGURIDAD SOCIAL,SANIDAD CASTILLA Y LEÓN-SACYL,GENERAL,,NO,SI,42.000819,-4.539802900320144
70048,HOSPITAL GENERAL DE MALLORCA,ILLES BALEARS,ILLES BALEARS,Palma de Mallorca,"PZA DEL HOSPITAL, 3",7012,871205000.0,971212383.0,100.0,DIPUTACIÓN O CABILDO,COMUNIDAD AUTÓNOMA,GERIATRÍA Y/O LARGA ESTANCIA,,SI,NO,39.57414235,2.6464275423048758
70434,CLÍNICA LUZ DE PALMA,ILLES BALEARS,ILLES BALEARS,Palma de Mallorca,"C/CAMILO JOSÉ CELA, 20",7014,971599167.0,,38.0,PRIVADO NO BENÉFICO,PRIVADO NO BENÉFICO,GENERAL,,NO,NO,,
70051,HOSPITAL PSIQUIÀTRIC,ILLES BALEARS,ILLES BALEARS,Palma de Mallorca,"CAMÍ DE JESÚS, 40",7010,871205000.0,971212383.0,168.0,DIPUTACIÓN O CABILDO,COMUNIDAD AUTÓNOMA,PSIQUIÁTRICO,,SI,NO,39.58452835,2.643167766932394
70064,CLÍNICA MUTUA BALEAR,ILLES BALEARS,ILLES BALEARS,Palma de Mallorca,"BISBE CAMPINS, 4",7012,971213400.0,971715858.0,40.0,MATEP,MATEP,TRAUMATOLOGÍA Y/O REHABILITACIÓN,,SI,SI,39.6075815,2.6623890499999994
70070,HOSPITAL DE LA CRUZ ROJA ESPAÑOLA,ILLES BALEARS,ILLES BALEARS,Palma de Mallorca,"PONS Y GALLARZA, 90",7004,971751445.0,971761101.0,73.0,PRIVADO-BENÉFICO (CRUZ ROJA),PRIVADO-BENÉFICO (CRUZ ROJA),MÉDICO-QUIRÚRGICO,,SI,NO,38.36110825,-0.4918308733885922
70086,HOSPITAL SANT JOAN DE DEU,ILLES BALEARS,ILLES BALEARS,Palma de Mallorca,"SANT JOAN DE DÉU, 7",7007,971265854.0,971269308.0,200.0,PRIVADO-BENÉFICO (IGLESIA),PRIVADO-BENÉFICO (IGLESIA),MÉDICO-QUIRÚRGICO,,SI,NO,41.3843547,2.1019053154910337
70099,CLÍNICA ROTGER,ILLES BALEARS,ILLES BALEARS,Palma de Mallorca,"SANTIAGO RUSIÑOL, 9",7012,971448500.0,971722704.0,186.0,PRIVADO NO BENÉFICO,PRIVADO NO BENÉFICO,GENERAL,,NO,NO,39.5754825,2.646900992186171
70110,CLINICA JUANEDA,ILLES BALEARS,ILLES BALEARS,Palma de Mallorca,"COMPANY, 30",7014,971221257.0,971221297.0,196.0,PRIVADO NO BENÉFICO,PRIVADO NO BENÉFICO,GENERAL,,NO,NO,39.5773719,2.6271314034578044
70131,POLICLÍNICA MIRAMAR,ILLES BALEARS,ILLES BALEARS,Palma de Mallorca,"CAMINO DE LA VILETA, 30",7011,971767000.0,971767379.0,206.0,PRIVADO NO BENÉFICO,PRIVADO NO BENÉFICO,GENERAL,,SI,NO,39.5834953,2.630276
70399,HOSPITAL UNIVERSITARI SON ESPASES,ILLES BALEARS,ILLES BALEARS,Palma de Mallorca,"CARRETERA VALDEMOSSA, 79",7120,871205000.0,871205500.0,839.0,SEGURIDAD SOCIAL,SERVEI DE SALUT DE LES ILLES BALEARS- IB-SALUT,GENERAL,,NO,SI,39.60701435,2.6447544813981168
70333,HOSPITAL SON LLATZER,ILLES BALEARS,ILLES BALEARS,Palma de Mallorca,"CTRA. MANACOR, KM.4",7198,871202000.0,871202027.0,419.0,SEGURIDAD SOCIAL,SERVEI DE SALUT DE LES ILLES BALEARS- IB-SALUT,GENERAL,,NO,SI,39.5698335,2.6980668
70344,HOSPITAL QUIRÓNSALUD PALMAPLANAS,ILLES BALEARS,ILLES BALEARS,Palma de Mallorca,"CAMÍ DELS REIS, 308",7010,971918000.0,971918012.0,169.0,PRIVADO NO BENÉFICO,PRIVADO NO BENÉFICO,GENERAL,,SI,NO,39.59868325,2.643837330148715
350081,SANATORIO DERMATOLÓGICO REGIONAL,CANARIAS,LAS PALMAS,"Palmas de Gran Canaria, Las","HOYA DEL PARRADO, 2 (TAFIRA ALTA)",35017,928350354.0,928350100.0,54.0,DIPUTACIÓN O CABILDO,DIPUTACIÓN O CABILDO,GERIATRÍA Y/O LARGA ESTANCIA,,SI,NO,,
350332,COMPLEJO HOSPITALARIO UNIVERSITARIO DE GRAN CANARIA DR. NEGRÍN,CANARIAS,LAS PALMAS,"Palmas de Gran Canaria, Las",BARRANCO DE LA BALLENA S/N,35010,928450001.0,928449085.0,828.0,COMUNIDAD AUTÓNOMA,SERVICIO CANARIO DE SALUD,GENERAL,,NO,SI,,
350069,UNIDADES CLÍNICAS Y DE REHABILITACIÓN (UCYR),CANARIAS,LAS PALMAS,"Palmas de Gran Canaria, Las","REAL DEL CASTILLO, 152",35014,928303834.0,,0.0,COMUNIDAD AUTÓNOMA,SERVICIO CANARIO DE SALUD,PSIQUIÁTRICO,,NO,NO,,
350311,HOSPITAL UNIVERSITARIO  DE GRAN CANARIA DR. NEGRÍN,CANARIAS,LAS PALMAS,"Palmas de Gran Canaria, Las","BARRANCO DE LA BALLENA, S/N",35010,928450001.0,928449085.0,0.0,COMUNIDAD AUTÓNOMA,SERVICIO CANARIO DE SALUD,GENERAL,,NO,SI,28.120919999999998,-15.444681301510293
350290,COMPLEJO HOSPITALARIO UNIVERSITARIO INSULAR-MATERNO INFANTIL,CANARIAS,LAS PALMAS,"Palmas de Gran Canaria, Las","AV. MARÍTIMA DEL SUR, S/N",35016,928444000.0,928444732.0,916.0,COMUNIDAD AUTÓNOMA,SERVICIO CANARIO DE SALUD,GENERAL,,NO,SI,,
350056,HOSPITAL UNIVERSITARIO INSULAR DE GRAN CANARIA,CANARIAS,LAS PALMAS,"Palmas de Gran Canaria, Las","AV MARÍTIMA DEL SUR, S/N",35016,928444000.0,928444732.0,0.0,COMUNIDAD AUTÓNOMA,SERVICIO CANARIO DE SALUD,GENERAL,,NO,SI,,
350043,HOSPITAL UNIVERSITARIO MATERNO-INFANTIL DE CANARIAS,CANARIAS,LAS PALMAS,"Palmas de Gran Canaria, Las","AV. MARÍTIMA DEL SUR, S/N",35016,928444400.0,928444732.0,0.0,SEGURIDAD SOCIAL,SERVICIO CANARIO DE SALUD,MATERNO-INFANTIL,,NO,SI,,
350206,HOSPITAL NUESTRA SEÑORA DEL PERPETUO SOCORRO,CANARIAS,LAS PALMAS,"Palmas de Gran Canaria, Las","LEÓN Y CASTILLO, 407",35007,928499900.0,928266627.0,187.0,PRIVADO NO BENÉFICO,PRIVADO NO BENÉFICO,GENERAL,,SI,NO,,
350192,CLÍNICA BANDAMA,CANARIAS,LAS PALMAS,"Palmas de Gran Canaria, Las","LA TORNERA, 16 (TAFIRA ALTA)",35017,928350050.0,928353264.0,64.0,PRIVADO NO BENÉFICO,PRIVADO NO BENÉFICO,PSIQUIÁTRICO,,NO,NO,,
350173,HOSPITAL SAN ROQUE LAS PALMAS DE GRAN CANARIA,CANARIAS,LAS PALMAS,"Palmas de Gran Canaria, Las","DOLORES DE LA ROCHA, 5",35001,928012630.0,928316048.0,162.0,PRIVADO NO BENÉFICO,PRIVADO NO BENÉFICO,GENERAL,,SI,NO,28.0977378,-15.4267554
350167,"INSTITUTO POLICLÍNICO CAJAL, S.L.",CANARIAS,LAS PALMAS,"Palmas de Gran Canaria, Las","SENADOR CASTILLO OLIVARES, 15",35003,928369166.0,928363475.0,136.0,PRIVADO NO BENÉFICO,PRIVADO NO BENÉFICO,GENERAL,,SI,NO,,
350154,"HOSPITAL POLICLÍNICO LA PALOMA, S.A.",CANARIAS,LAS PALMAS,"Palmas de Gran Canaria, Las","MAESTRO VALLE, 20",35005,928234466.0,928242840.0,108.0,PRIVADO NO BENÉFICO,PRIVADO NO BENÉFICO,GENERAL,,SI,NO,,
350120,VITHAS HOSPITAL SANTA CATALINA,CANARIAS,LAS PALMAS,"Palmas de Gran Canaria, Las","LEÓN Y CASTILLO, 292",35005,928297151.0,928233485.0,152.0,PRIVADO NO BENÉFICO,PRIVADO NO BENÉFICO,GENERAL,,SI,NO,,
350115,FUNDACIÓN BENÉFICA CANARIA CASA ASILO SAN JOSÉ,CANARIAS,LAS PALMAS,"Palmas de Gran Canaria, Las","PADRE CUETO, 26",35008,928263708.0,928264393.0,66.0,OTRO PRIVADO BENÉFICO,OTRO PRIVADO-BENÉFICO,GENERAL,,SI,NO,,
310039,CENTRO SAN FRANCISCO JAVIER,C. FORAL DE NAVARRA,NAVARRA,Pamplona/Iruña,"AV. VILLAVA, 53",31015,848422730.0,848428301.0,28.0,COMUNIDAD AUTÓNOMA,SERVICIO NAVARRO DE SALUD-OSASUNBIDEA,PSIQUIÁTRICO,,NO,NO,,
310044,HOSPITAL SAN JUAN DE DIOS,C. FORAL DE NAVARRA,NAVARRA,Pamplona/Iruña,"BELOSO ALTO, 3",31006,948231800.0,948012160.0,190.0,PRIVADO-BENÉFICO (IGLESIA),PRIVADO-BENÉFICO (IGLESIA),GENERAL,,SI,NO,,
310057,CLINICA PSIQUIATRICA PADRE MENNI,C. FORAL DE NAVARRA,NAVARRA,Pamplona/Iruña,CALLE JOAQUÍN BEUNZA 45,31014,948140611.0,,226.0,PRIVADO-BENÉFICO (IGLESIA),PRIVADO-BENÉFICO (IGLESIA),PSIQUIÁTRICO,,SI,NO,42.82515895,-1.6546941690703432
310060,CLINICA UNIVERSIDAD DE NAVARRA,C. FORAL DE NAVARRA,NAVARRA,Pamplona/Iruña,"AV. PIO XII, 36",31008,948255400.0,948296500.0,241.0,OTRO PRIVADO BENÉFICO,OTRO PRIVADO-BENÉFICO,GENERAL,,SI,SI,42.8058167,-1.6642959885309305
310076,CLINICA SAN MIGUEL,C. FORAL DE NAVARRA,NAVARRA,Pamplona/Iruña,"BELOSO ALTO, 32",31006,948296000.0,,72.0,PRIVADO NO BENÉFICO,PRIVADO NO BENÉFICO,GENERAL,,SI,NO,,
310095,CLÍNICA SAN FERMÍN,C. FORAL DE NAVARRA,NAVARRA,Pamplona/Iruña,"AV. DE GALICIA, 2-A",31003,948235850.0,948239941.0,5.0,PRIVADO NO BENÉFICO,PRIVADO NO BENÉFICO,GENERAL,,NO,NO,40.371562,-3.6929670589467003
310150,COMPLEJO HOSPITALARIO DE NAVARRA,C. FORAL DE NAVARRA,NAVARRA,Pamplona/Iruña,"IRUNLARREA, 3",31008,84842222.0,848422281.0,1086.0,COMUNIDAD AUTÓNOMA,SERVICIO NAVARRO DE SALUD-OSASUNBIDEA,GENERAL,,NO,SI,42.805091399999995,-1.6685624933271659
360010,HOSPITAL UNIVERSITARIO MONTECELO,GALICIA,PONTEVEDRA,Pontevedra,"MOURENTE, S/N",36071,986800000.0,986800004.0,0.0,ENTIDADES PÚBLICAS,SERVICIO GALLEGO DE SALUD-SERGAS,GENERAL,,NO,SI,,
360025,HOSPITAL PROVINCIAL DE PONTEVEDRA,GALICIA,PONTEVEDRA,Pontevedra,"DOCTOR LOUREIRO CRESPO, 002",36004,986800000.0,986800001.0,0.0,ENTIDADES PÚBLICAS,SERVICIO GALLEGO DE SALUD-SERGAS,GENERAL,,NO,SI,42.428488349999995,-8.637367592749655
360031,HESTIA SANTA MARIA,GALICIA,PONTEVEDRA,Pontevedra,"SANTA MARIA (DE), 9",36002,986856562.0,986853619.0,70.0,PRIVADO NO BENÉFICO,PRIVADO NO BENÉFICO,GERIATRÍA Y/O LARGA ESTANCIA,,SI,NO,,
360059,HOSPITAL QUIRONSALUD MIGUEL DOMINGUEZ,GALICIA,PONTEVEDRA,Pontevedra,"FRAY JUAN NAVARRETE, 9",36001,986856800.0,986864122.0,127.0,PRIVADO NO BENÉFICO,PRIVADO NO BENÉFICO,GENERAL,,SI,NO,,
360340,COMPLEXO HOSPITALARIO UNIVERSITARIO DE PONTEVEDRA,GALICIA,PONTEVEDRA,Pontevedra,"MOURENTE, S/N",36071,986800000.0,986800004.0,605.0,ENTIDADES PÚBLICAS,SERVICIO GALLEGO DE SALUD-SERGAS,GENERAL,,NO,SI,,
370055,HOSPITAL GENERAL DE LA SANTÍSIMA TRINIDAD,CASTILLA Y LEÓN,SALAMANCA,Salamanca,"Pº DE CARMELITAS, 74-94",37007,923269300.0,923269787.0,106.0,OTRO PRIVADO BENÉFICO,OTRO PRIVADO-BENÉFICO,GENERAL,,SI,NO,,
370037,HOSPITAL UNIVERSITARIO DE SALAMANCA,CASTILLA Y LEÓN,SALAMANCA,Salamanca,"Pº DE SAN VICENTE, 58-182",37007,923291100.0,923291131.0,0.0,SEGURIDAD SOCIAL,SANIDAD CASTILLA Y LEÓN-SACYL,GENERAL,,NO,SI,,
370016,COMPLEJO ASISTENCIAL UNIVERSITARIO DE SALAMANCA,CASTILLA Y LEÓN,SALAMANCA,Salamanca,"Pº DE SAN VICENTE, 58-182",37007,923291100.0,923291131.0,914.0,ENTIDADES PÚBLICAS,SANIDAD CASTILLA Y LEÓN-SACYL,GENERAL,,NO,SI,,
82202,INSTITUT TRASTORN LÍMIT,CATALUÑA,BARCELONA,Sant Cugat del Vallès,"CR PEDRO I PONS, 1",8195,666301013.0,,14.0,PRIVADO NO BENÉFICO,PRIVADO NO BENÉFICO,PSIQUIÁTRICO,,NO,NO,,
380051,HOSPITAL FEBLES CAMPOS,CANARIAS,SANTA CRUZ DE TENERIFE,Santa Cruz de Tenerife,"DOMINGO JORGE MANRIQUE, 2",38006,922843300.0,922241841.0,258.0,DIPUTACIÓN O CABILDO,DIPUTACIÓN O CABILDO,GERIATRÍA Y/O LARGA ESTANCIA,,SI,NO,28.4700575,-16.267872211542986
380064,HOSPITAL SAN JUAN DE DIOS,CANARIAS,SANTA CRUZ DE TENERIFE,Santa Cruz de Tenerife,"CTRA. GENERAL  NORTE, 53",38009,922645511.0,922661208.0,152.0,PRIVADO-BENÉFICO (IGLESIA),PRIVADO-BENÉFICO (IGLESIA),GENERAL,,SI,NO,,
380103,"CLÍNICA PARQUE, S.A.",CANARIAS,SANTA CRUZ DE TENERIFE,Santa Cruz de Tenerife,"MÉNDEZ NÚÑEZ, 40",38002,922274400.0,922247674.0,64.0,PRIVADO NO BENÉFICO,PRIVADO NO BENÉFICO,GENERAL,,SI,NO,,
380295,HOSPITAL RAMBLA S.L.,CANARIAS,SANTA CRUZ DE TENERIFE,Santa Cruz de Tenerife,"RAMBLA SANTA CRUZ, 115",38001,922291600.0,922291088.0,97.0,PRIVADO NO BENÉFICO,PRIVADO NO BENÉFICO,GENERAL,,SI,NO,,
380048,UNIDADES CLÍNICAS Y DE REHABILITACIÓN DE SALUD MENTAL,CANARIAS,SANTA CRUZ DE TENERIFE,Santa Cruz de Tenerife,"DOMINGO JOSÉ MANRIQUE, 2",38006,922678061.0,922241841.0,0.0,COMUNIDAD AUTÓNOMA,SERVICIO CANARIO DE SALUD,PSIQUIÁTRICO,,NO,SI,,
380033,HOSPITAL DE OFRA,CANARIAS,SANTA CRUZ DE TENERIFE,Santa Cruz de Tenerife,"LA CUESTA, S/N",38008,922602000.0,922602466.0,0.0,SEGURIDAD SOCIAL,SERVICIO CANARIO DE SALUD,GENERAL,,NO,SI,28.4571514,-16.29028292862879
380027,HOSPITAL UNIVERSITARIO NUESTRA SEÑORA DE CANDELARIA,CANARIAS,SANTA CRUZ DE TENERIFE,Santa Cruz de Tenerife,"CTRA. DEL ROSARIO, 145",38010,922602000.0,922602334.0,0.0,SEGURIDAD SOCIAL,SERVICIO CANARIO DE SALUD,GENERAL,,NO,SI,28.4485003,-16.28464280388927
380012,COMPLEJO HOSPITALARIO UNIVERSITARIO NTRA. SRA. DE CANDELARIA,CANARIAS,SANTA CRUZ DE TENERIFE,Santa Cruz de Tenerife,"CTRA. DEL ROSARIO, 145",38010,922602000.0,922602334.0,1066.0,SEGURIDAD SOCIAL,SERVICIO CANARIO DE SALUD,GENERAL,,NO,SI,,
380086,HOSPITAL QUIRÓN TENERIFE,CANARIAS,SANTA CRUZ DE TENERIFE,Santa Cruz de Tenerife,"POETA RODRÍGUEZ HERRERA, 1",38006,922280700.0,922270908.0,187.0,PRIVADO NO BENÉFICO,PRIVADO NO BENÉFICO,GENERAL,,SI,NO,,
390015,HOSPITAL UNIVERSITARIO MARQUÉS DE VALDECILLA,CANTABRIA,CANTABRIA,Santander,"AV. DE VALDECILLA, S/N",39008,942202520.0,942202655.0,923.0,SEGURIDAD SOCIAL,SERVICIO CÁNTABRO DE SALUD-SCS,GENERAL,,NO,SI,43.45581635,-3.8295046748461123
390054,HOSPITAL SANTA CLOTILDE - ORDEN HOSPITALARIA SAN JUAN DE DIOS.,CANTABRIA,CANTABRIA,Santander,"AV. GENERAL DÁVILA, 35",39006,942217711.0,942218711.0,127.0,PRIVADO-BENÉFICO (IGLESIA),PRIVADO-BENÉFICO (IGLESIA),GERIATRÍA Y/O LARGA ESTANCIA,,SI,NO,,
390041,HOSPITAL RAMÓN NEGRETE,CANTABRIA,CANTABRIA,Santander,AV. DEL FARO-PINTOR EDUARDO SANZ Nº 19,39012,942204100.0,942204111.0,30.0,MATEP,MATEP,TRAUMATOLOGÍA Y/O REHABILITACIÓN,,SI,NO,,
390067,CENTRO HOSPITALARIO PADRE MENNI,CANTABRIA,CANTABRIA,Santander,"AV. DE CANTABRIA, 52",39012,942390060.0,942391266.0,403.0,PRIVADO-BENÉFICO (IGLESIA),PRIVADO-BENÉFICO (IGLESIA),PSIQUIÁTRICO,,SI,NO,43.47713775,-3.802275864049727
400019,COMPLEJO ASISTENCIAL DE SEGOVIA,CASTILLA Y LEÓN,SEGOVIA,Segovia,"LUIS ERIK CLAVERÍA NEURÓLOGO, S/NÚM.",40002,921419100.0,921419149.0,375.0,SEGURIDAD SOCIAL,SANIDAD CASTILLA Y LEÓN-SACYL,GENERAL,,NO,SI,40.942846849999995,-4.128734630432394
400030,HOSPITAL GENERAL DE SEGOVIA,CASTILLA Y LEÓN,SEGOVIA,Segovia,"LUIS ERIK CLAVERÍA NEURÓLOGO, S/NÚM",40002,921419100.0,921419149.0,0.0,SEGURIDAD SOCIAL,SANIDAD CASTILLA Y LEÓN-SACYL,GENERAL,,NO,SI,,
400045,HOSPITAL RECOLETAS SEGOVIA NTRA. SRA. DE LA MISERICORDIA,CASTILLA Y LEÓN,SEGOVIA,Segovia,"CALLE DR. VELASCO, 21-23",40003,921460115.0,921460117.0,48.0,OTRO PRIVADO BENÉFICO,PRIVADO NO BENÉFICO,GENERAL,,SI,NO,,
410042,HOSPITAL VIRGEN MACARENA,ANDALUCÍA,SEVILLA,Sevilla,"AVDA. DOCTOR FEDRIANI, 3",41071,955008000.0,955008021.0,0.0,COMUNIDAD AUTÓNOMA,SERVICIO ANDALUZ DE SALUD,GENERAL,,NO,SI,,
410055,HOSPITAL SAN LÁZARO,ANDALUCÍA,SEVILLA,Sevilla,"AVDA. DOCTOR FEDRIANI, 56",41009,955017800.0,955017941.0,0.0,COMUNIDAD AUTÓNOMA,SERVICIO ANDALUZ DE SALUD,GENERAL,,NO,SI,,
410074,HOSPITAL VICTORIA EUGENIA DE LA CRUZ ROJA ESPAÑOLA,ANDALUCÍA,SEVILLA,Sevilla,"AV. CRUZ ROJA, 1",41009,954352082.0,954353025.0,39.0,PRIVADO-BENÉFICO (CRUZ ROJA),PRIVADO-BENÉFICO (CRUZ ROJA),GENERAL,,SI,NO,,
410080,HOSPITAL SAN JUAN DE DIOS DE SEVILLA,ANDALUCÍA,SEVILLA,Sevilla,"AV. EDUARDO DATO, 42",41005,954933870.0,954933871.0,47.0,PRIVADO-BENÉFICO (IGLESIA),PRIVADO-BENÉFICO (IGLESIA),GENERAL,,SI,NO,37.3813881,-5.969162100794513
410093,HOSPITAL DUQUES DEL INFANTADO,ANDALUCÍA,SEVILLA,Sevilla,"C/ SOR GREGORIA DE SANTA TERESA, S/N",41012,955016300.0,955016310.0,0.0,COMUNIDAD AUTÓNOMA,SERVICIO ANDALUZ DE SALUD,GENERAL,,NO,SI,37.36309825,-5.987915075531994
410107,CLÍNICA SANTA ISABEL,ANDALUCÍA,SEVILLA,Sevilla,"LUIS MONTOTO, 100",41018,954919000.0,954571170.0,96.0,PRIVADO NO BENÉFICO,PRIVADO NO BENÉFICO,GENERAL,,NO,NO,,
410114,HOSPITAL QUIRONSALUD SAGRADO CORAZÓN,ANDALUCÍA,SEVILLA,Sevilla,"RAFAEL SALGADO, 3",41013,954937676.0,954628155.0,147.0,PRIVADO NO BENÉFICO,PRIVADO NO BENÉFICO,GENERAL,,NO,NO,,
410129,HOSPITAL FÁTIMA,ANDALUCÍA,SEVILLA,Sevilla,"GLORIETA DE MÉXICO, 1",41012,954613300.0,955040362.0,73.0,PRIVADO NO BENÉFICO,PRIVADO NO BENÉFICO,GENERAL,,NO,NO,37.3686476,-5.9880706862921755
410135,HOSPITAL QUIRONSALUD INFANTA LUISA,ANDALUCÍA,SEVILLA,Sevilla,"SAN JACINTO, 87",41010,954330100.0,954001824.0,139.0,PRIVADO NO BENÉFICO,PRIVADO NO BENÉFICO,GENERAL,,NO,NO,,
410191,CLÍNICA NUESTRA SEÑORA DE ARÁNZAZU,ANDALUCÍA,SEVILLA,Sevilla,"C/ JESÚS DEL GRAN PODER, 29",41002,954382110.0,954907675.0,10.0,PRIVADO NO BENÉFICO,PRIVADO NO BENÉFICO,QUIRÚRGICO,,NO,NO,,
410325,"FREMAP, HOSPITAL Y CENTRO DE REHABILITACIÓN DE SEVILLA",ANDALUCÍA,SEVILLA,Sevilla,"AV. DE JEREZ, S/N",41014,954249102.0,954249283.0,102.0,MATEP,MATEP,TRAUMATOLOGÍA Y/O REHABILITACIÓN,,NO,NO,,
410346,HOSPITAL PSIQUIÁTRICO PENITENCIARIO,ANDALUCÍA,SEVILLA,Sevilla,"CRTA. TORREBLANCA-MAIRENA, KM. 3,5",41007,955616666.0,955614300.0,26.0,MINISTERIO DE INTERIOR,ADMINISTRACIÓN PENITENCIARIA,PSIQUIÁTRICO,,NO,NO,38.3500732,-0.563469
410016,HOSPITAL GENERAL DEL H.U. VIRGEN DEL ROCÍO,ANDALUCÍA,SEVILLA,Sevilla,"AVDA. MANUEL SIUROT, S/N",41013,955012000.0,955013465.0,0.0,COMUNIDAD AUTÓNOMA,SERVICIO ANDALUZ DE SALUD,GENERAL,,NO,SI,,
410021,HOSPITAL VIRGEN DE VALME,ANDALUCÍA,SEVILLA,Sevilla,"CTRA. CÁDIZ-BELLAVISTA, KM. 548,9",41014,955015000.0,955015143.0,0.0,COMUNIDAD AUTÓNOMA,SERVICIO ANDALUZ DE SALUD,GENERAL,,NO,SI,,
410409,HOSPITAL VIAMED SANTA ÁNGELA DE LA CRUZ,ANDALUCÍA,SEVILLA,Sevilla,"AVDA. DE JEREZ, 59",41013,954032000.0,954032001.0,105.0,PRIVADO NO BENÉFICO,PRIVADO NO BENÉFICO,GENERAL,,NO,NO,,
410286,HOSPITAL UNIVERSITARIO VIRGEN DEL ROCÍO,ANDALUCÍA,SEVILLA,Sevilla,"AVDA. MANUEL SIUROT, S/N",41013,955013466.0,955013465.0,1350.0,COMUNIDAD AUTÓNOMA,SERVICIO ANDALUZ DE SALUD,GENERAL,,NO,SI,37.3629504,-5.978930232248761
410443,HOSPITAL DE REHABILITACIÓN Y TRAUMATOLOGÍA VIRGEN DEL ROCÍO,ANDALUCÍA,SEVILLA,Sevilla,"AVDA. MANUEL SIUROT, S/N",41013,955012000.0,955013473.0,0.0,COMUNIDAD AUTÓNOMA,SERVICIO ANDALUZ DE SALUD,TRAUMATOLOGÍA Y/O REHABILITACIÓN,,NO,NO,,
410465,HOSPITAL INFANTIL,ANDALUCÍA,SEVILLA,Sevilla,"AVDA. MANUEL SIUROT, S/N",41013,955012000.0,955013473.0,0.0,COMUNIDAD AUTÓNOMA,SERVICIO ANDALUZ DE SALUD,INFANTIL,,NO,NO,,
410476,HOSPITAL DE LA MUJER,ANDALUCÍA,SEVILLA,Sevilla,"AVDA. MANUEL SIUROT, S/N",41013,955012000.0,955013473.0,0.0,COMUNIDAD AUTÓNOMA,SERVICIO ANDALUZ DE SALUD,GENERAL,,NO,NO,37.3631192,-5.978212645844351
410303,HOSPITAL UNIVERSITARIO VIRGEN DE VALME,ANDALUCÍA,SEVILLA,Sevilla,"AVDA. DE BELLAVISTA, S/N",41014,955015160.0,955015186.0,617.0,COMUNIDAD AUTÓNOMA,SERVICIO ANDALUZ DE SALUD,GENERAL,,NO,SI,37.3188246,-5.971218203465227
410299,HOSPITAL UNIVERSITARIO VIRGEN MACARENA,ANDALUCÍA,SEVILLA,Sevilla,"AVDA. DOCTOR FEDRIANI, 3",41009,955008000.0,955008021.0,960.0,COMUNIDAD AUTÓNOMA,SERVICIO ANDALUZ DE SALUD,GENERAL,,NO,SI,37.40675795,-5.9868499784072
420026,HOSPITAL VIRGEN DEL MIRÓN,CASTILLA Y LEÓN,SORIA,Soria,"CTRA. DE LOGROÑO, 8",42005,975220850.0,975220547.0,0.0,COMUNIDAD AUTÓNOMA,SANIDAD CASTILLA Y LEÓN-SACYL,GERIATRÍA Y/O LARGA ESTANCIA,,NO,SI,41.7713567,-2.4638832301330957
420040,COMPLEJO ASISTENCIAL DE SORIA,CASTILLA Y LEÓN,SORIA,Soria,"Pº. STA. BÁRBARA, S/N",42005,975234300.0,975234305.0,319.0,ENTIDADES PÚBLICAS,SANIDAD CASTILLA Y LEÓN-SACYL,GENERAL,,NO,SI,,
420011,HOSPITAL SANTA BÁRBARA,CASTILLA Y LEÓN,SORIA,Soria,"Pº SANTA BÁRBARA, S/N",42005,975234300.0,975234305.0,0.0,SEGURIDAD SOCIAL,SANIDAD CASTILLA Y LEÓN-SACYL,GENERAL,,NO,SI,41.77195705,-2.471252159575303
430022,HOSPITAL SOCIOSANITARI FRANCOLÍ,CATALUÑA,TARRAGONA,Tarragona,"CR DOCTOR MALLAFRE GUASCH, S/N",43005,977232714.0,977237844.0,156.0,COMUNIDAD AUTÓNOMA,OTROS PÚBLICOS,GERIATRÍA Y/O LARGA ESTANCIA,,NO,NO,41.12497555,1.2391452645069752
430043,HOSPITAL DE SANT PAU I SANTA TECLA,CATALUÑA,TARRAGONA,Tarragona,"RB VELLA, 14",43003,977259900.0,977234942.0,186.0,OTRO PRIVADO BENÉFICO,OTRO PRIVADO-BENÉFICO,GENERAL,,,SI,41.1160384,1.2545976295496897
430017,HOSPITAL UNIVERSITARI JOAN XXIII DE TARRAGONA,CATALUÑA,TARRAGONA,Tarragona,"CR DOCTOR MALLAFRÉ GUASCH, 4",43005,977295800.0,977224011.0,372.0,SEGURIDAD SOCIAL,INSTITUTO CATALÁN DE LA SALUD,GENERAL,,,SI,,
430322,RESIDÈNCIA SANTA TECLA PONENT,CATALUÑA,TARRAGONA,Tarragona,"CR MENORCA, 26",43006,977540678.0,977922011.0,70.0,OTRO PRIVADO BENÉFICO,OTRO PRIVADO-BENÉFICO,GERIATRÍA Y/O LARGA ESTANCIA,,NO,NO,,
430265,CENTRE SOCIOSANITARI LLEVANT,CATALUÑA,TARRAGONA,Tarragona,"CR JOAN FUSTER ORTELLS, S/N",43007,977239412.0,977236628.0,60.0,COMUNIDAD AUTÓNOMA,OTRO PRIVADO-BENÉFICO,GERIATRÍA Y/O LARGA ESTANCIA,,NO,NO,41.1219413,1.2670169
430069,CLÍNICA ACTIVA MÚTUA 2008,CATALUÑA,TARRAGONA,Tarragona,"CR PIN I SOLER, 12",43002,977217900.0,977230716.0,22.0,MATEP,MATEP,OTROS MONOGRÁFICOS,,NO,NO,37.3745926,-5.9957492
430056,HOSPITAL VIAMED MONEGAL,CATALUÑA,TARRAGONA,Tarragona,"CR LÓPEZ PELÁEZ, 15-17",43002,977225012.0,977244568.0,53.0,PRIVADO NO BENÉFICO,PRIVADO NO BENÉFICO,GENERAL,,NO,NO,,
440012,HOSPITAL OBISPO POLANCO,ARAGÓN,TERUEL,Teruel,AVDA RUIZ JARABO S/N,44002,978654000.0,978654195.0,215.0,SEGURIDAD SOCIAL,SERVICIO ARAGONÉS DE SALUD-SALUD,GENERAL,,NO,SI,40.3330796,-1.1068770452114853
440033,CENTRO DE REHABILITACION PSICOSOCIAL SAN JUAN DE DIOS,ARAGÓN,TERUEL,Teruel,"AV. DE ZARAGOZA, 10",44001,978654040.0,978654041.0,150.0,COMUNIDAD AUTÓNOMA,SERVICIO ARAGONÉS DE SALUD-SALUD,PSIQUIÁTRICO,,NO,SI,,
440027,HOSPITAL SAN JOSÉ,ARAGÓN,TERUEL,Teruel,"AV. ZARAGOZA, 16",44001,978654070.0,978654071.0,50.0,COMUNIDAD AUTÓNOMA,SERVICIO ARAGONÉS DE SALUD-SALUD,GERIATRÍA Y/O LARGA ESTANCIA,,NO,SI,,
450133,"CENTRO DE TRAT. DE DROGODEP. ""EL ALBA""",CASTILLA-LA MANCHA,TOLEDO,Toledo,"CARRETERA TOLEDO-PUEBLA DE MONTALBÁN, KM. 3,500",45005,925216154.0,925216250.0,30.0,COMUNIDAD AUTÓNOMA,COMUNIDAD AUTÓNOMA,OTRA FINALIDAD,,NO,NO,,
450122,QUIRÓN SALUD TOLEDO,CASTILLA-LA MANCHA,TOLEDO,Toledo,"URBANIZACIÓN TRES CULTURAS, S/N",45005,925266100.0,925266104.0,80.0,PRIVADO NO BENÉFICO,PRIVADO NO BENÉFICO,MÉDICO-QUIRÚRGICO,,SI,NO,,
450113,HOSPITAL LABORAL SOLIMAT MUTUA COLABORADORA CON LA SS Nº 72,CASTILLA-LA MANCHA,TOLEDO,Toledo,"SAN PEDRO EL VERDE, 35",45004,925215267.0,925215254.0,10.0,MATEP,MATEP,TRAUMATOLOGÍA Y/O REHABILITACIÓN,,NO,NO,,
450092,COMPLEJO HOSPITALARIO DE TOLEDO,CASTILLA-LA MANCHA,TOLEDO,Toledo,"AVDA. DE BARBER, 30",45004,925269200.0,925214836.0,953.0,SEGURIDAD SOCIAL,SERVICIO DE SALUD DE CASTILLA-LA MANCHA-SESCAM,GENERAL,,NO,SI,,
450041,HOSPITAL PROVINCIAL NUESTRA SEÑORA DE LA MISERICORDIA,CASTILLA-LA MANCHA,TOLEDO,Toledo,"SUBIDA DE SAN SERVANDO, S/N",45006,925259350.0,925259360.0,0.0,DIPUTACIÓN O CABILDO,SERVICIO DE SALUD DE CASTILLA-LA MANCHA-SESCAM,GENERAL,,NO,SI,,
450036,HOSPITAL NACIONAL DE PARAPLÉJICOS,CASTILLA-LA MANCHA,TOLEDO,Toledo,"FINCA LA PERALEDA, S/N",45071,925247700.0,925247745.0,210.0,SEGURIDAD SOCIAL,SERVICIO DE SALUD DE CASTILLA-LA MANCHA-SESCAM,TRAUMATOLOGÍA Y/O REHABILITACIÓN,,NO,SI,,
450020,HOSPITAL GERIÁTRICO VIRGEN DEL VALLE,CASTILLA-LA MANCHA,TOLEDO,Toledo,"CARRETERA DE COBISA, S/N",45071,925269300.0,925269355.0,0.0,SEGURIDAD SOCIAL,SERVICIO DE SALUD DE CASTILLA-LA MANCHA-SESCAM,GERIATRÍA Y/O LARGA ESTANCIA,,NO,SI,,
450015,HOSPITAL VIRGEN DE LA SALUD,CASTILLA-LA MANCHA,TOLEDO,Toledo,"AVDA.BARBER, 30",45004,925269200.0,925214836.0,0.0,SEGURIDAD SOCIAL,SERVICIO DE SALUD DE CASTILLA-LA MANCHA-SESCAM,GENERAL,,NO,SI,39.8714711,-4.035046834817454
460116,HOSPITAL VIRGEN DEL CONSUELO,COMUNIDAD VALENCIANA,VALENCIA,Valencia,"CALLE CALLOSA D'EN SARRIÁ, 12",46007,963177800.0,963177870.0,156.0,PRIVADO NO BENÉFICO,PRIVADO NO BENÉFICO,GENERAL,,SI,NO,,
460137,HOSPITAL QUIRÓN VALENCIA,COMUNIDAD VALENCIANA,VALENCIA,Valencia,"AVENIDA BLASCO IBÁÑEZ, 14",46010,963690600.0,963931706.0,88.0,PRIVADO NO BENÉFICO,PRIVADO NO BENÉFICO,GENERAL,,SI,NO,39.4782496,-0.3641254
460018,HOSPITAL UNIVERSITARIO Y POLITÉCNICO LA FE,COMUNIDAD VALENCIANA,VALENCIA,Valencia,"AVENIDA FERNANDO ABRIL MARTORELL, 106",46026,961244000.0,961245746.0,1000.0,COMUNIDAD AUTÓNOMA,CONSELLERIA DE SANIDAD. G. VALENCIANA,GENERAL,,NO,SI,,
460023,HOSPITAL UNIVERSITARIO DR. PESET ALEIXANDRE,COMUNIDAD VALENCIANA,VALENCIA,Valencia,"AVENIDA GASPAR AGUILAR, 90",46017,961622300.0,961622501.0,539.0,COMUNIDAD AUTÓNOMA,CONSELLERIA DE SANIDAD. G. VALENCIANA,GENERAL,,NO,SI,,
460039,HOSPITAL ARNAU DE VILANOVA,COMUNIDAD VALENCIANA,VALENCIA,Valencia,"CALLE SAN CLEMENTE, 12",46015,961976000.0,,302.0,COMUNIDAD AUTÓNOMA,CONSELLERIA DE SANIDAD. G. VALENCIANA,GENERAL,,NO,SI,41.62645155,0.6126824875765899
460369,HOSPITAL PARE JOFRÉ,COMUNIDAD VALENCIANA,VALENCIA,Valencia,"CALLE SAN LÁZARO, S/N",46017,961925200.0,961925208.0,125.0,SEGURIDAD SOCIAL,CONSELLERIA DE SANIDAD. G. VALENCIANA,GERIATRÍA Y/O LARGA ESTANCIA,,NO,NO,39.4677401,-0.3814758
460044,HOSPITAL CLÍNICO UNIVERSITARIO DE VALENCIA,COMUNIDAD VALENCIANA,VALENCIA,Valencia,"AVENIDA BLASCO IBÁÑEZ, 17",46010,961973500.0,961973694.0,582.0,COMUNIDAD AUTÓNOMA,CONSELLERIA DE SANIDAD. G. VALENCIANA,GENERAL,,NO,SI,39.47898265,-0.3619728488623393
460291,HOSPITAL 9 DE OCTUBRE,COMUNIDAD VALENCIANA,VALENCIA,Valencia,"CALLE VALLE DE LA BALLESTERA, 59",46015,963179100.0,963460033.0,300.0,PRIVADO NO BENÉFICO,PRIVADO NO BENÉFICO,GENERAL,,SI,SI,39.4778549,-0.40132487361918545
460109,FUNDACIÓN INSTITUTO VALENCIANO DE ONCOLOGÍA,COMUNIDAD VALENCIANA,VALENCIA,Valencia,"CALLE PROFESOR BELTRÁN BÁGUENA, 8",46009,961114000.0,961114001.0,160.0,OTRO PRIVADO BENÉFICO,OTRO PRIVADO-BENÉFICO,ONCOLÓGICO,,SI,SI,,
460095,HOSPITAL NISA VALENCIA AL MAR,COMUNIDAD VALENCIANA,VALENCIA,Valencia,"CALLE RÍO TAJO, 1",46011,963352500.0,963352501.0,70.0,PRIVADO NO BENÉFICO,PRIVADO NO BENÉFICO,GENERAL,,SI,NO,,
460082,HOSPITAL CATÓLICO CASA DE SALUD,COMUNIDAD VALENCIANA,VALENCIA,Valencia,"CALLE DOCTOR MANUEL CANDELA, 41",46021,963897700.0,963692635.0,192.0,PRIVADO-BENÉFICO (IGLESIA),PRIVADO-BENÉFICO (IGLESIA),GENERAL,,NO,NO,,
460060,CONSORCIO HOSPITAL GENERAL UNIVERSITARIO DE VALENCIA,COMUNIDAD VALENCIANA,VALENCIA,Valencia,"AVENIDA TRES CRUCES, 2",46014,963131813.0,963131863.0,546.0,DIPUTACIÓN O CABILDO,DIPUTACIÓN O CABILDO,GENERAL,,NO,SI,,
460057,HOSPITAL DE LA MALVA-ROSA,COMUNIDAD VALENCIANA,VALENCIA,Valencia,"CALLE ISABEL DE VILLENA, 2",46011,961925400.0,961925433.0,33.0,COMUNIDAD AUTÓNOMA,CONSELLERIA DE SANIDAD. G. VALENCIANA,QUIRÚRGICO,,NO,NO,39.4802716,-0.3284819
460348,CLINICA FONTANA,COMUNIDAD VALENCIANA,VALENCIA,Valencia,"CALLE ALICANTE, 31",46004,963410600.0,,7.0,PRIVADO NO BENÉFICO,PRIVADO NO BENÉFICO,QUIRÚRGICO,,NO,NO,,
470029,HOSPITAL CLÍNICO UNIVERSITARIO DE VALLADOLID,CASTILLA Y LEÓN,VALLADOLID,Valladolid,"AV. RAMÓN Y CAJAL, 3",47003,983420000.0,983257511.0,777.0,SEGURIDAD SOCIAL,SANIDAD CASTILLA Y LEÓN-SACYL,GENERAL,,NO,SI,41.656005750000006,-4.718737949587745
470014,HOSPITAL UNIVERSITARIO RIO HORTEGA,CASTILLA Y LEÓN,VALLADOLID,Valladolid,"DULZAINA, 2",47012,983420400.0,983215365.0,606.0,COMUNIDAD AUTÓNOMA,SANIDAD CASTILLA Y LEÓN-SACYL,GENERAL,,NO,SI,41.6296811,-4.7138686481349055
470053,SANATORIO SAGRADO CORAZÓN,CASTILLA Y LEÓN,VALLADOLID,Valladolid,"FIDEL RECIO, 1",47002,983299000.0,983292731.0,75.0,PRIVADO-BENÉFICO (IGLESIA),PRIVADO-BENÉFICO (IGLESIA),GENERAL,,SI,NO,,
470072,CENTRO HOSPITALARIO BENITO MENNI,CASTILLA Y LEÓN,VALLADOLID,Valladolid,"Pº JUAN CARLOS I, 10",47008,983272600.0,983477557.0,240.0,PRIVADO-BENÉFICO (IGLESIA),PRIVADO-BENÉFICO (IGLESIA),REHABILITACIÓN PSICOFÍSICA,,SI,NO,41.62779285,-4.722582926373626
470105,HOSPITAL DE VALLADOLID FELIPE II,CASTILLA Y LEÓN,VALLADOLID,Valladolid,"FELIPE II, 9",47003,983358000.0,983374940.0,79.0,PRIVADO NO BENÉFICO,PRIVADO NO BENÉFICO,GENERAL,,SI,NO,41.657001,-4.72549065
470113,HOSPITAL CAMPO GRANDE,CASTILLA Y LEÓN,VALLADOLID,Valladolid,"PLAZA DE COLÓN, S/N",47007,983135555.0,983144234.0,93.0,PRIVADO NO BENÉFICO,PRIVADO NO BENÉFICO,GENERAL,,SI,NO,,
10090,HOSPITAL UNIVERSITARIO DE ARABA (SEDE TXAGORRITXU Y SEDE SANTIAGO),PAÍS VASCO,ÁLAVA,Vitoria-Gasteiz,"JOSÉ ATXOTEGUI, S/N",1009,945007000.0,945007359.0,811.0,SEGURIDAD SOCIAL,SERVICIO VASCO DE SALUD-OSAKIDETZA,GENERAL,,NO,SI,,
10066,"HOSPITAL DE CUIDADOS SAN ONOFRE, S.L. (HOSPITAL DE CUIDADOS SAN ONOFRE)",PAÍS VASCO,ÁLAVA,Vitoria-Gasteiz,"SALVATIERRABIDE, 9",1007,945142100.0,945143318.0,82.0,PRIVADO NO BENÉFICO,PRIVADO NO BENÉFICO,GERIATRÍA Y/O LARGA ESTANCIA,,SI,NO,,
10053,HOSPITAL QUIRÓNSALUD VITORIA,PAÍS VASCO,ÁLAVA,Vitoria-Gasteiz,"ESPERANZA, 3",1002,945252500.0,945279260.0,26.0,PRIVADO NO BENÉFICO,PRIVADO NO BENÉFICO,GENERAL,,SI,NO,,
10040,HOSPITAL SAN JOSÉ,PAÍS VASCO,ÁLAVA,Vitoria-Gasteiz,"BEATO TOMÁS DE ZUMÁRRAGA, 10",1008,945140900.0,945145709.0,63.0,PRIVADO NO BENÉFICO,PRIVADO NO BENÉFICO,MÉDICO-QUIRÚRGICO,,NO,NO,,
10035,RED DE SALUD MENTAL DE ARABA (HOSPITAL PSIQUIÁTRICO DE ARABA),PAÍS VASCO,ÁLAVA,Vitoria-Gasteiz,"ÁLAVA, 43",1006,945006555.0,945006587.0,207.0,COMUNIDAD AUTÓNOMA,SERVICIO VASCO DE SALUD-OSAKIDETZA,PSIQUIÁTRICO,,NO,NO,,
490028,HOSPITAL PROVINCIAL DE ZAMORA,CASTILLA Y LEÓN,ZAMORA,Zamora,"HERNÁN CORTÉS, 40",49021,980520200.0,980521468.0,0.0,COMUNIDAD AUTÓNOMA,SANIDAD CASTILLA Y LEÓN-SACYL,GENERAL,,SI,SI,41.511464000000004,-5.728405522577139
490081,HOSPITAL RECOLETAS DE ZAMORA,CASTILLA Y LEÓN,ZAMORA,Zamora,"PINAR, 7",49023,980545300.0,980545309.0,44.0,PRIVADO NO BENÉFICO,PRIVADO NO BENÉFICO,GENERAL,,SI,NO,,
490070,COMPLEJO ASISTENCIAL DE ZAMORA,CASTILLA Y LEÓN,ZAMORA,Zamora,"AVDA. REQUEJO, 35",49022,980548200.0,980512838.0,540.0,COMUNIDAD AUTÓNOMA,SANIDAD CASTILLA Y LEÓN-SACYL,GENERAL,,SI,SI,,
490013,HOSPITAL VIRGEN DE LA CONCHA,CASTILLA Y LEÓN,ZAMORA,Zamora,"AV. REQUEJO, 35",49022,980548200.0,980512838.0,0.0,COMUNIDAD AUTÓNOMA,SANIDAD CASTILLA Y LEÓN-SACYL,GENERAL,,SI,SI,41.514189200000004,-5.73223186730781
500114,HOSPITAL SAN JUAN DE DIOS,ARAGÓN,ZARAGOZA,Zaragoza,"Pº DE COLÓN, 14",50006,976271660.0,976015872.0,184.0,PRIVADO-BENÉFICO (IGLESIA),PRIVADO-BENÉFICO (IGLESIA),GERIATRÍA Y/O LARGA ESTANCIA,,SI,NO,,
500107,CENTRO NEUROPSIQUIÁTRICO NUESTRA SEÑORA DEL CARMEN,ARAGÓN,ZARAGOZA,Zaragoza,"CAMINO DEL ABEJAR, Nº 100 (GARRAPINILLOS)",50190,976770635.0,976770943.0,277.0,PRIVADO-BENÉFICO (IGLESIA),PRIVADO-BENÉFICO (IGLESIA),PSIQUIÁTRICO,,SI,NO,41.6776051,-0.9868003371358072
500093,"CLÍNICA MONTPELIER GRUPO HLA, S.A.U",ARAGÓN,ZARAGOZA,Zaragoza,"VÍA HISPANIDAD, 37",50012,976765400.0,976752140.0,90.0,PRIVADO NO BENÉFICO,PRIVADO NO BENÉFICO,GENERAL,,SI,NO,,
500080,HOSPITAL MAZ,ARAGÓN,ZARAGOZA,Zaragoza,"AV. DE LA ACADEMIA GENERAL MILITAR, 74",50015,976748000.0,976748044.0,107.0,MATEP,MATEP,GENERAL,,SI,NO,41.6852225,-0.8700029
500074,HOSPITAL  NUESTRA SEÑORA DE GRACIA,ARAGÓN,ZARAGOZA,Zaragoza,"RAMÓN Y CAJAL, 60",50004,976440022.0,876764554.0,151.0,COMUNIDAD AUTÓNOMA,SERVICIO ARAGONÉS DE SALUD-SALUD,GENERAL,,NO,SI,,
500068,CENTRO DE REHABILITACION PSICOSOCIAL NUESTRA SEÑORA DEL PILAR,ARAGÓN,ZARAGOZA,Zaragoza,"DUQUESA DE VILLAHERMOSA, 66-68",50009,976331500.0,876764209.0,172.0,COMUNIDAD AUTÓNOMA,SERVICIO ARAGONÉS DE SALUD-SALUD,PSIQUIÁTRICO,,NO,SI,,
500055,HOSPITAL ROYO VILLANOVA,ARAGÓN,ZARAGOZA,Zaragoza,"AV. SAN GREGORIO, 30",50015,976466910.0,976466068.0,254.0,COMUNIDAD AUTÓNOMA,SERVICIO ARAGONÉS DE SALUD-SALUD,GENERAL,,NO,SI,41.6929,-0.8606564
500021,HOSPITAL UNIVERSITARIO MIGUEL SERVET,ARAGÓN,ZARAGOZA,Zaragoza,"Pº DE ISABEL LA CATÓLICA, 1-3",50009,976765500.0,976566234.0,1213.0,SEGURIDAD SOCIAL,SERVICIO ARAGONÉS DE SALUD-SALUD,GENERAL,,NO,SI,41.63455725,-0.8997979456424299
500016,HOSPITAL CLÍNICO UNIVERSITARIO LOZANO BLESA,ARAGÓN,ZARAGOZA,Zaragoza,"SAN JUAN BOSCO, 15",50009,976765700.0,976565995.0,807.0,SEGURIDAD SOCIAL,SERVICIO ARAGONÉS DE SALUD-SALUD,GENERAL,,NO,SI,41.64327125,-0.9034070791646488
500218,HOSPITAL VIAMED MONTECANAL,ARAGÓN,ZARAGOZA,Zaragoza,"C/ FRANZ SCHUBERT, 2",50012,876241818.0,876241822.0,68.0,PRIVADO NO BENÉFICO,PRIVADO NO BENÉFICO,GENERAL,,SI,NO,41.63891715,-0.9494186469447172
500129,HOSPITAL QUIRONSALUD ZARAGOZA,ARAGÓN,ZARAGOZA,Zaragoza,"Pº MARIANO RENOVALES, S/N",50006,976720000.0,976720009.0,104.0,PRIVADO NO BENÉFICO,PRIVADO NO BENÉFICO,GENERAL,,SI,NO,,
500135,CLÍNICA NUESTRA SEÑORA DEL PILAR,ARAGÓN,ZARAGOZA,Zaragoza,"Pº DE RUISEÑORES, 20",50006,976275700.0,976374087.0,34.0,PRIVADO NO BENÉFICO,PRIVADO NO BENÉFICO,GENERAL,,SI,NO,,
500140,HOSPITAL GENERAL DE LA DEFENSA DE ZARAGOZA,ARAGÓN,ZARAGOZA,Zaragoza,"VÍA IBÉRICA, 1-15",50009,976305000.0,976305070.0,200.0,MINISTERIO DE DEFENSA,MINISTERIO DE DEFENSA,GENERAL,,SI,SI,41.630074199999996,-0.9045935422800198
500195,HOSPITAL DE REHABILITACION PSIQUIATRICA PRISMA,ARAGÓN,ZARAGOZA,Zaragoza,"TORRE DEL CEREZO, Nº 17 Bº. DE SAN JUAN DE MOZARRIFAR",50820,976151152.0,976151153.0,50.0,PRIVADO NO BENÉFICO,PRIVADO NO BENÉFICO,PSIQUIÁTRICO,,NO,NO,,
500188,UNIDAD REHABILITADORA DE MEDIA ESTANCIA PROFESOR REY ARDID,ARAGÓN,ZARAGOZA,Zaragoza,"CAMINO VIEJO DE ALFOCEA,10 JUSLIBOL",50191,976731000.0,976730719.0,39.0,COMUNIDAD AUTÓNOMA,OTROS PÚBLICOS,PSIQUIÁTRICO,,SI,SI,,
